simbli_id,school_name,state,address,city,zipcode,phone_number,website,LEAID
2,kirksviller-iii,MO,1901ehamiltonstreet,kirksville,63501,6606657774,kirksville.k12.mo.us,2916740
4,northandrewco.r-vi,MO,408wmarketst,savannah,nan,nan,northandrew.org,2922710
6,savannahr-iii,MO,408wmarketst,savannah,64485,8163243144,savannahr3.com,2927570
10,alamance-burlingtonystem,NC,1712vaughnroad,burlington,27217,3365706060,abss.k12.nc.us,2920810
11,van-farr-i,MO,107s.paine,liberal,nan,nan,vf.k12.mo.us,2930780
12,mexico#59,MO,2101lakeview,mexico,65265,5735813773,mexicoschools.net,2920810
14,southwestr-v,MO,5275w.redtaildrive,ashland,nan,nan,swr5.net,2928710
15,exeterr-vi,MO,421ehwy124,hallsville,nan,nan,exeter.k12.mo.us,2911670
16,cassviller-iv,MO,1818w.worleystreet,columbia,nan,nan,cassville.k12.mo.us,2908170
19,monettr-i,MO,1415n.26thstreetst.,joseph,nan,nan,monettschools.org,2921120
20,liberalr-ii,MO,107s.paine,liberal,64762,4178435115,liberalbulldogs.org,2918510
22,lamarr-i,MO,10135stateroadc,mokane,nan,nan,lamar.k12.mo.us,2917850
23,demo,SD,123samplestreet,demo,57069,8771234567,usd.edu,
25,adrianr-iii,MO,715ushwy13north,windsor,nan,nan,adrian.k12.mo.us,2902850
33,meadowheightsr-ii,MO,"207sfourthst,pobox860",drexel,nan,nan,meadowheights.k12.mo.us,2923640
37,southernboone,MO,5275w.redtaildrive,ashland,65010,5736572147,ashland.k12.mo.us,2923430
38,hallsviller-iv,MO,421ehwy124,hallsville,65255,5736965512,hallsville.org,2913560
42,columbia,MO,1818w.worleystreet,columbia,65203,5732143400,cpsk12.org,2906120
44,mid-buchananco.r-v,MO,602southolivest,gallatin,nan,nan,midbuchanan.k12.mo.us,2911940
46,st.joseph,MO,1415n.26thstreetst.,joseph,64506,8166714000,sjsd.k12.mo.us,2927060
47,neelyviller-iv,MO,9374hwy185,sullivan,nan,nan,neelyville.k12.mo.us,2921750
51,hamiltonr-ii,MO,220locuststreet,washington,nan,nan,hamilton.k12.mo.us,2913590
59,newbloomfieldr-iii,MO,307redwooddrivenew,bloomfield,65063,5734913700,nb.k12.mo.us,2921875
60,fulton58,MO,1359e.saintlouisst.,springfield,nan,nan,fulton58.org,2912550
61,southcallawayco.r-ii,MO,10135stateroadc,mokane,65059-1213,5736765225,sc.k12.mo.us,2928430
63,camdentonr-iii,MO,5401e103rdstreet,kansascity,nan,nan,camdentonschools.org,2906990
68,oakridger-vi,MO,1301510thstreet,grandview,nan,nan,oakridger6schools.com,2923070
69,capegirardeau,MO,301northclarkstreetcape,girardeau,63701,5733351867,capetigers.com,2916400
74,carrolltonr-vii,MO,8434paseoave,kansascity,nan,nan,trojans.k12.mo.us,2907380
77,vanburenr-i,MO,joplinadministrationbuilding825s.pearlavenue,joplin,nan,nan,vanburen.k12.mo.us,2930750
80,bertie,NC,715ushwy13north,windsor,27983,2527946000,bertie.k12.nc.us,3700360
83,pleasanthillr-iii,MO,1100mississippiavenue,crystalcity,nan,nan,phr3.org,2925330
85,drexelr-iv,MO,"207sfourthst,pobox860",drexel,64742,8166520401,drexel.k12.mo.us,2911070
86,midwayr-i,MO,2958caratokehighway.,currituck,nan,nan,midwayk12.net,2931800
87,belton124,MO,22808easthighway86,granby,nan,nan,beltonschools.org,2904620
93,salisburyr-iv,MO,401southmain,diamond,nan,nan,salisbury.k12.mo.us,2927520
95,nixa,MO,914friscostreet,seneca,nan,nan,nixapublicschools.net,2922530
96,spartar-iii,MO,418fairgroundroad,neosho,nan,nan,sparta.k12.mo.us,2928740
98,cleverr-v,MO,1501smunnave,maryville,nan,nan,clever.k12.mo.us,2909780
99,ozarkr-vi,MO,1600w.jacksonst,ozark,65721,nan,ozarktigers.org,2923430
104,clarkco.r-i,MO,28176hwyww,clarksville,nan,nan,clarkcounty.k12.mo.us,2916380
105,kearney,MO,425w.washingtonst.,kearney,64060,8166284116,ksdr1.net,2921100
106,smithviller-ii,MO,9625hwy301s,halifax,nan,nan,smithvilleschooldistrict.net,2928410
107,excelsiorsprings40,MO,536hamiltonstreetroanoke,rapids,nan,nan,essd40.com,2911650
108,liberty53,MO,8855dunnroad,hazelwood,nan,nan,lps53.org,2918540
110,northkansascity74,MO,3120lemayferryroadst.,louis,nan,nan,nkcschools.org,2922800
117,jeffersoncity,MO,2221highschooldr.,brentwood,nan,nan,jcschools.us,2916190
119,cooperco.r-iv,MO,2531s.bigbend,maplewood,nan,nan,bunceton.k12.mo.us,2906150
122,pilotgrovec-4,MO,310wooleystreet,raeford,nan,nan,pilotgrove.k12.mo.us,2925170
126,steelviller-iii,MO,930easternavenue,nashville,nan,nan,steelville.k12.mo.us,2929430
127,lockwoodr-i,MO,200eastkingstreet,hillsborough,nan,nan,lockwoodschools.org,2919140
130,greenfieldr-iv,MO,1717westfifthstreet,greenville,nan,nan,greenfieldr4.org,2913320
131,dallasco.r-i,MO,"1323s.ashstreet,",buffalo,65622,4173452222,bisonpride.org,2906120
135,gallatinr-v,MO,602southolivest,gallatin,64640,6606632171,gallatin.k12.mo.us,2912660
140,stewartsvillec-2,MO,1724grahamavenue,henderson,nan,nan,stewartsville.k12.mo.us,2929490
141,salemr-80,MO,802washingtonstreet,plymouth,nan,nan,salemr80.org,2927090
143,greenforestr-ii,MO,306e.capitolavepobox1059,pierre,nan,nan,gfr2.k12.mo.us,2913260
148,avar-i,MO,1562twintowerseast205jessehilljrdrive,atlanta,nan,nan,mo50000144.schoolwires.net,2904050
151,holcombr-iii,MO,306e.capitolavenue,pierre,nan,nan,holcomb.ss20.sharpschool.com,2914460
152,clarktonc-4,MO,863greatnorthernblvdsuite301,helena,nan,nan,clarktonschools.org,2909120
155,kennett39,MO,123abcstreet,helena,nan,nan,kennett.k12.mo.us,2916500
157,meramecvalleyr-iii,MO,126n.paynestreet,pacific,63069,6362711400,mvr3.k12.mo.us,2923460
158,unionr-xi,MO,2015parkplacenorth,birmingham,nan,nan,unionrxi.org,2930570
160,springbluffr-xv,MO,9374hwy185,sullivan,63080,5734578302,springbluffpirates.com,2912450
161,strain-japanr-xvi,MO,305collegestreetne,hartselle,nan,nan,strainjapanschool.com,2912480
165,washington,MO,220locuststreet,washington,63090,6362312000,washington.k12.mo.us,2931110
166,gasconadeco.r-ii,MO,p.o.box10-716countryclubroad,livingston,nan,nan,dutchmen.us,2923340
167,gasconadeco.r-i,MO,355countyroad61,florence,nan,nan,hermann.k12.mo.us,2914280
171,willard,MO,500e.kimest,willard,65781,4177422584,willardschools.net,100005
173,ashgrover-iv,MO,105westmainstreet,albertville,nan,nan,agpirates.com,2903270
174,walnutgrover-v,MO,301bellevilleavenue,brewton,nan,nan,wgtigers.com,2930990
176,logan-rogersviller-viii,MO,300s.jeffersonst.,athens,nan,nan,logrog.net,2919170
177,springfieldr12,MO,1359e.saintlouisst.,springfield,65802,4175230026,sps.org,100870
178,fairgrover-x,MO,1455tedbatesroad,evergreen,nan,nan,fairgroveschools.net,2911700
183,trentonr-ix,MO,32vinestreetmountain,brook,nan,nan,trentonr9.k12.mo.us,2930360
185,southharrisonco.r-ii,MO,1710alabamaavenue,jasper,nan,nan,shr2.k12.mo.us,2900002
190,chatham,NC,468renaissancedrive,pittsboro,27312,9195423626,chatham.k12.nc.us,3700750
204,fayetter-iii,MO,12380hwy431s,guntersville,nan,nan,fayette.k12.mo.us,2911990
207,mtnview-birchtreer-iii,MO,400reddochhillrd,elba,nan,nan,home.liberty.mvbt.k12.mo.us,100810
208,willowspringsr-iv,MO,1magnumpass,mobile,nan,nan,willowbears.com,2932070
210,westplainsr-vii,MO,455ushighway31north,athens,nan,nan,zizzers.org,2931680
212,junctionhillc-12,MO,4155thavenueeast,oneonta,nan,nan,junctionhill.k12.mo.us,2915060
213,fairviewr-xi,MO,1210almonavenue,tuscaloosa,nan,nan,fvflyers.com,2911850
214,southironco.r-i,MO,1517hurstavenue,leeds,nan,nan,sipanthers.k12.mo.us,2928470
215,arcadiavalleyr-ii,MO,1118greensboroavenue,tuscaloosa,nan,nan,avr2.org,2903150
217,ironco.c-4,MO,1318alabamastreet,tarrant,nan,nan,ironc4.k12.mo.us,2915510
220,grainvalleyr-v,MO,1212ninthavenue,phenixcity,nan,nan,grainvalleyschools.org,2913080
221,oakgrover-vi,MO,417parkwoodstreet,midfield,nan,nan,oakgrove.k12.mo.us,2923010
223,hickmanmillsc-i,MO,5401e103rdstreet,kansascity,64137,8163167000,hickmanmills.org,101290
224,raytownc-2,MO,100h.h.robisondrivep.o.box817,wetumpka,nan,nan,raytownschools.org,2926070
225,grandviewc-4,MO,1301510thstreet,grandview,64030,8163165000,grandviewc4.net,2913140
228,kansascity,MO,2901troostave.,kansascity,64109,8164187000,kcpublicschools.org,102400
229,center58,MO,8434paseoave,kansascity,64131,8163493300,center.k12.mo.us,2908250
230,carljunctionr-i,MO,2194broadstreet,selma,nan,nan,cjr1.org,2907350
231,avillar-xiii,MO,16215thavenuenorthp.o.box1230,bessemer,nan,nan,avillapanthers.org,2904110
233,sarcoxier-ii,MO,43n.broadwayavenue,sylacauga,nan,nan,sarcoxieschools.com,2927540
236,joplin,MO,joplinadministrationbuilding825s.pearlavenue,joplin,64801,4176255200,joplinschools.org,2916350
239,hillsboror-3,MO,500aforumdrive,rolla,nan,nan,hsdr3.org,2926890
240,dunklinr-v,MO,497joachimave.,herculaneum,63048,6364795200,dunklin.k12.mo.us,2914250
241,festusr-vi,MO,102w4thst,alma,nan,nan,festus.k12.mo.us,2912030
242,jeffersonco.r-vii,MO,110n.abcstreetp.o.box1188,milledgeville,nan,nan,jr7.k12.mo.us,2916230
244,windsorc-1,MO,pobox248102hwy51south,homer,nan,nan,windsorc1.com,2932100
245,foxc-6,MO,179w.athensstreet,winder,nan,nan,fox.k12.mo.us,2912300
246,crystalcity47,MO,1100mississippiavenue,crystalcity,63019,nan,crystal.k12.mo.us,2910380
249,holdenr-iii,MO,509westpalmstreet,fitzgerald,nan,nan,holdenschools.org,2914490
250,craven,NC,3600trentroadnew,bern,28562,2525146300,cravenk12.org,3703310
252,knobnosterr-viii,MO,484mulberrystp.o.box6157,macon,nan,nan,knobnoster.k12.mo.us,2916830
256,lacledeco.r-i,MO,259eastpeterstreet,cochran,nan,nan,lacledecountyr1.com,2910110
258,lebanonr-iii,MO,272schoolcircle,nahunta,nan,nan,lebanonr3.org,2918270
259,lacledec-5,MO,501pacificavenue,bremen,nan,nan,jebc5.k12.mo.us,1300600
269,mt.vernonr-v,MO,2625sawneeavenue,buford,nan,nan,mtvernon.k12.mo.us,2921600
270,currituck,NC,2958caratokehighway.,currituck,27929-9612,2522322223,currituck.k12.nc.us,3701080
271,aurorar-viii,MO,789burkeveteransparkway,waynesboro,nan,nan,aurorar8.org,2904020
273,lewisco.c-1,MO,334southwallstreet,calhoun,nan,nan,lewis.k12.mo.us,2918460
277,winfieldr-iv,MO,18772hartfordst.,edison,nan,nan,winfield.k12.mo.us,2932190
282,brookfieldr-iii,MO,311southeaststreet,kingsland,nan,nan,brookfieldr3.org,2905940
285,chillicother-ii,MO,210scollegest,metter,nan,nan,chillicotheschools.org,2908760
286,mcdonaldco.r-i,MO,164independencedr,carrollton,nan,nan,mcdonaldr1.net,2920610
289,laplatar-ii,MO,106trojandr,carrollton,nan,nan,laplata.k12.mo.us,2916950
290,maconco.r-i,MO,p.o.box331015nelsonstreet,cartersville,nan,nan,macon.k12.mo.us,2919410
294,fredericktownr-i,MO,307clevelandstreetpobox130,ringgold,nan,nan,fpsk12.org,2912540
295,mariesco.r-i,MO,37touchdownlane,folkston,nan,nan,mariesr1.k12.mo.us,2930870
298,palmyrar-i,MO,326broadst,cusseta,nan,nan,palmyra.k12.mo.us,2923490
302,eldonr-i,MO,33middleschoolrd,summerville,nan,nan,eldonmustangs.org,2911340
305,oftheosage,MO,402coverd,chickamauga,nan,nan,osageschools.org,2927630
306,iberiar-v,MO,111commercestreeteastfort,gaines,nan,nan,iberia.k12.mo.us,2915420
308,charlestonr-i,MO,1058fifthavenue,jonesboro,nan,nan,charlestonbluejays.org,2908670
312,tiptonr-vi,MO,46southcollegestreet,homerville,nan,nan,tipton.k12.mo.us,2930330
321,montgomeryco.r-ii,MO,211s.gaskinavenue,douglas,nan,nan,mc-wildcats.org,2921330
322,morganco.r-i,MO,p.o.box2708710lanestreet,moultrie,nan,nan,mcr1.us,2929610
323,morganco.r-ii,MO,37joseyroad,adel,nan,nan,versaillestigers.org,2930840
324,riscor-ii,MO,pobox280237jacksonstreet,newnan,nan,nan,risco.k12.mo.us,2926610
326,gideon37,MO,pobox8190eastcrusellestreet,roberta,nan,nan,gideon.k12.mo.us,2912780
327,newmadridco.r-i,MO,p.o.box729201south7thstreet,cordele,nan,nan,nmceaglenation.com,2900004
328,eastnewtonco.r-vi,MO,22808easthighway86,granby,64844,4174726231,eastnewton.org,2930420
329,diamondr-iv,MO,401southmain,diamond,64840,4173255336,diamondwildcats.org,2910800
331,senecar-7,MO,914friscostreet,seneca,64865,4177763426,senecar7.com,1301650
332,neosho,MO,418fairgroundroad,neosho,64850,4174518600,neoshosd.org,2921810
337,northnodawayco.r-vi,MO,1417dothanroad,bainbridge,nan,nan,nnr6.org,2921690
338,maryviller-ii,MO,1501smunnave,maryville,64468-2756,6605623255,maryville.k12.mo.us,2920490
341,thayerr-ii,MO,pobox1029720collegest,eastman,nan,nan,thayer.k12.mo.us,2930270
342,oregon-howellr-iii,MO,202cottonst.,vienna,nan,nan,koshkonongschool.org,2916860
343,altonr-iv,MO,200pineavep.o.box1470,albany,nan,nan,alton.k12.mo.us,2903060
346,osageco.r-iii,MO,11490veteransmemorialhighway,douglasville,nan,nan,fatimacomets.org,2931830
349,gainesviller-v,MO,207shamrockdr,dublin,nan,nan,gainesvillebulldogs.com,2912600
350,dorar-iii,MO,40haroldragandrive,blakely,nan,nan,dora.org,2910950
356,southpemiscotr-v,MO,pobox207216hwy129north,statenville,nan,nan,www3.southpemiscot.com,
358,caruthersville18,MO,405n.ashstreet,springfield,nan,nan,cps18.org,2907470
360,perry32,MO,50laureldr,elberton,nan,nan,perryville.k12.mo.us,1302010
364,smithtonr-vi,MO,201nmainstp.o.box130,swainsboro,nan,nan,smithton.k12.mo.us,2928380
368,st.jamesr-i,MO,613westmainstreet,claxton,nan,nan,stjschools.org,2929250
370,gates,NC,p.obox125205mainstreet,gatesville,27938,2523571113,coserver.gates.k12.nc.us,3701680
372,bowlinggreenr-i,MO,pobox879205lafayetteavenue,fayetteville,nan,nan,bgschools.k12.mo.us,2905660
373,pikeco.r-iii(clopton),MO,28176hwyww,clarksville,63336,5732423546,cloptonhawks.com,1302220
375,louisianar-ii,MO,1120dahlonegahwy.,cumming,nan,nan,louisiana.k12.mo.us,2919260
378,platteco.r-iii,MO,280busharoad,carnesville,nan,nan,plattecountyschooldistrict.com,2925230
380,bolivarr-i,MO,508oakst,gainesville,nan,nan,bolivarschools.org,2905370
384,marionc.earlyr-v,MO,134industrialboulevard,ellijay,nan,nan,mcepanthers.com,2920160
389,waynesviller-vi,MO,pobox205738railroadavenue,gibson,nan,nan,waynesville.k12.mo.us,2931440
391,crockerr-ii,MO,5505altamaave.,brunswick,nan,nan,crockerschools.org,2910350
396,higbeer-viii,MO,pobox12001,calhoun,nan,nan,higbeeschool.com,2914370
397,westranr-i,MO,122nbroadst,cairo,nan,nan,westran.k12.mo.us,2931860
398,moberly,MO,926shepherdbrothersblvd.,moberly,65270,6602692600,moberly.k12.mo.us,2921100
403,richmondr-xvi,MO,poboxn216s6thst,griffin,nan,nan,richmond.k12.mo.us,2926480
405,southernreynoldscor-ii,MO,pobox70weststanfordmillroad,clarkesville,nan,nan,ewhippets.com,1302610
406,bunkerr-iii,MO,"711greenstreet,nw",gainesville,nan,nan,bunkerr3.k12.mo.us,2906170
407,lesterviller-iv,MO,11311hwy15north,sparta,nan,nan,lesterville.k12.mo.us,2918450
411,ripleyco.r-iii,MO,299robertsonave.,tallapoosa,nan,nan,ripleyr3.k12.mo.us,2926550
415,st.charlesr-vi,MO,284campbelldrp.o.box696,hartwell,nan,nan,mo01910164.schoolwires.net,2928920
416,orchardfarmr-v,MO,pobox1330,franklin,nan,nan,ofsd.k12.mo.us,2923160
417,appletoncityr-ii,MO,33n.zackhintonparkway,mcdonough,nan,nan,appletoncity.k12.mo.us,2903120
420,halifax,NC,9625hwy301s,halifax,27839,2525835111,halifax.k12.nc.us,3701950
421,roanokerapidsgraded,NC,536hamiltonstreetroanoke,rapids,27870,2525197100,rrgsd.org,1302940
422,farmingtonr-vii,MO,1411collegest,monticello,nan,nan,fsdknights.com,2911910
426,ste.geneviever-ii,MO,pobox178044charlesrogersblvd,hazlehurst,nan,nan,sgdragons.org,1303000
427,hazelwood,MO,345storeylane,jefferson,nan,nan,hazelwoodschools.org,2913830
428,ferguson-florissantr-ii,MO,8855dunnroad,hazelwood,63042,3146871910,fergflor.org,2912010
431,kirkwoodr-vii,MO,pobox110150sleest,wrightsville,nan,nan,kirkwoodschools.org,2916770
432,lindbergh,MO,125stewartavenue,gray,nan,nan,go.lindberghschools.ws,2918690
433,mehlville,MO,3120lemayferryroadst.,louis,63125,3144675000,mehlvilleschooldistrict.com,1303210
435,affton101,MO,247southhighway221,lakeland,nan,nan,afftonschools.net,2902910
436,bayless,MO,467firetowerrd,dublin,nan,nan,baylessk12.org,2904500
437,brentwood,MO,2221highschooldr.,brentwood,63144,3149624507,brentwoodmoschools.org,2905880
438,clayton,MO,200bradwellstreet,hinesville,nan,nan,claytonschools.net,2909720
440,jennings,MO,pobox428,ludowici,nan,nan,jenningsk12.org,2916290
441,ladue,MO,1592normandr,valdosta,nan,nan,ladueschools.net,2917820
442,maplewoodrichmondheights,MO,2531s.bigbend,maplewood,63143,3146444400,mrhschools.net,1303420
443,normandycollaborative,MO,pobox48831buckcreekbypassroad,oglethorpe,nan,nan,normandysc.org,2922650
445,riverviewgardens,MO,pobox37800madisonstreet,danielsville,nan,nan,riverviewgsd.schoolinsites.com,2926670
446,universitycity,MO,250howardstnep.o.box1265,marietta,nan,nan,ucityschools.org,2930660
447,valleypark,MO,p.o.box3911697pinevillerd.buena,vista,nan,nan,vp.k12.mo.us,2930690
448,webstergroves,MO,716n.leestreet,thomson,nan,nan,webster.k12.mo.us,2931530
457,marshall,MO,96perrystreet,colquitt,nan,nan,marshallschools.com,2920410
462,scotlandco.r-i,MO,108southharneystreet,camilla,nan,nan,scotland.k12.mo.us,2920700
470,hoke,NC,310wooleystreet,raeford,28376,9108754106,hcs.k12.nc.us,3702250
471,eminencer-1,MO,1065eastave,madison,nan,nan,redwingsk12.org,2911450
478,bloomfieldr-xiv,MO,2960maconroad-suite3047,columbus,nan,nan,bps14.org,2905250
480,hyde,NC,2109newtondrivep.o.box1469,covington,nan,nan,hyde.k12.nc.us,3702280
491,forsythr-iii,MO,735athensroad,lexington,nan,nan,forsythpanthers.org,2912240
492,bransonr-iv,MO,3236atlantahighway,dallas,nan,nan,branson.k12.mo.us,2905760
493,hollisterr-v,MO,900campusdrivefort,valley,nan,nan,hollister.k12.mo.us,2914550
496,successr-vi,MO,100d.b.carrollstreet,jasper,nan,nan,success.k12.mo.us,2929730
497,houstonr-i,MO,834eastmainst.pobox349,blackshear,nan,nan,houston.k12.mo.us,2914840
498,summersviller-ii,MO,7454hwy.19south,zebulon,nan,nan,svilleschools.com,2929810
499,lickingr-viii,MO,612scollegestreet,cedartown,nan,nan,licking.k12.mo.us,2918600
500,caboolr-iv,MO,158oldglenwoodspringroad,eatonton,nan,nan,cabool.k12.mo.us,2906430
503,nevadar-v,MO,p.o.box248215kaiglerroad,georgetown,nan,nan,nevada.k12.mo.us,2921840
504,bronaughr-vii,MO,98schooldrive,cuthbert,nan,nan,bronaughschools.net,2905910
507,wrightcityr-ii,MO,864broadstreet,augusta,nan,nan,wrightcity.k12.mo.us,1304380
508,warrenco.r-iii,MO,960pinestreetnep.o.box1199,conyers,nan,nan,warrencor3.org,2931050
509,kingstonk-14,MO,508eastsecondstreet,rome,nan,nan,kingston.k12.mo.us,2931140
510,potosir-iii,MO,208bullstreet,savannah,nan,nan,potosir3.org,2925500
511,richwoodsr-vii,MO,161perrydrivep.o.box66,ellaville,nan,nan,richwoodsr7.org,2931230
513,greenviller-ii,MO,pobox1668382halcyondaleroad,sylvania,nan,nan,bears.k12.mo.us,2913380
516,fordlandr-iii,MO,203e.6thstreet,donalsonville,nan,nan,fordland.k12.mo.us,2912180
521,hartviller-ii,MO,147alcovadrivesocial,circle,nan,nan,new.hartville.k12.mo.us,2913770
522,mountaingrover-iii,MO,191bigaschoolroad,toccoa,nan,nan,mg.k12.mo.us,2921510
640,nash,NC,930easternavenue,nashville,27856,2524595220,ncpschools.net,3703270
680,orange,NC,200eastkingstreet,hillsborough,27278,9197328126,orangecountyfirst.com,3703480
740,pitt,NC,1717westfifthstreet,greenville,27834,2528304200,tattnallschools.org,3700012
800,rowan-salisbury,NC,p.o.box2349,salisbury,28145,7046367500,rssed.org,3704050
820,sampson,NC,437rowanroad,clinton,28328,9105921401,sampson.k12.nc.us,3704140
910,vance,NC,1724grahamavenue,henderson,27536,2524922127,vcs.k12.nc.us,3704650
920,wakeystem,NC,404northbroadstreet3rdfloor,thomasville,nan,nan,wcpss.net,1304950
940,washington,NC,802washingtonstreet,plymouth,27962,2527935171,wcsnc.org,3704800
1020,associatedboardsofsouthdakota,SD,306e.capitolavepobox1059,pierre,57501,6057732500,asbsd.org,1305040
1058,bennett03-1,SD,67lakeviewcirstec,hiawassee,nan,nan,bennettco.k12.sd.us,4606240
1071,burke26-2,SD,5040souththirdstreet,soperton,nan,nan,burke.k12.sd.us,4609512
1075,castlewood28-1,SD,239simmonsstreet,trion,nan,nan,castlewood.k12.sd.us,4611280
1094,deuel19-4,SD,"100ndavisroad,buildingcp.o.box1228",lagrange,nan,nan,deuel.k12.sd.us,4600036
1097,dupree64-2,SD,p.o.box609423n.clevelandstreet,ashburn,nan,nan,dupree.k12.sd.us,4619450
1104,elkton5-3,SD,952emainstp.o.box232,jeffersonville,nan,nan,elkton.k12.sd.us,1305220
1105,frederickarea06-2,SD,pobox54071204williamsstreet,valdosta,nan,nan,frederickarea.k12.sd.us,4621400
1124,gregory26-4,SD,1001northstreetwest,vidalia,nan,nan,gregory.k12.sd.us,4629880
1126,haakon27-1,SD,pobox29201southdukestreetla,fayette,nan,nan,philip.k12.sd.us,4630490
1140,howard48-3,SD,1301baileystreet,waycross,nan,nan,howard.k12.sd.us,4600025
1146,iroquois2-3,SD,p.o.box228115gibsonhighway,warrenton,nan,nan,iroquois.k12.sd.us,1305460
1150,kimball,SD,710westpinestreet,jesup,nan,nan,kimball.k12.sd.us,1305550
1158,leola44-2,SD,136warriorspath,cleveland,nan,nan,leola.k12.sd.us,4641640
1166,mcintosh15-1,SD,3264clevelandhighway,dalton,nan,nan,mcintoshsd.cyberschool.com,4646260
1198,redfield56-4,SD,1147thavenue,rochelle,nan,nan,redfield.k12.sd.us,4660450
1209,sisseton54-2,SD,313analexanderave,washington,nan,nan,sisseton.k12.sd.us,4600053
1236,waubay18-3,SD,197westmainstreetpobox206,irwinton,nan,nan,waubay.k12.sd.us,4676680
1262,georgiadepartmentofeducation,GA,1562twintowerseast205jessehilljrdrive,atlanta,30334,4046562800,gadoe.org,1305850
1594,miller29-4,SD,5120sugarloafpkwy.,lawrenceville,nan,nan,miller.k12.sd.us,4647942
1595,asb,SD,306e.capitolavenue,pierre,57501,6057732500,asbsd.org,1300214
2001,montanaboardassociation,MT,863greatnorthernblvdsuite301,helena,59601,4064422180,mtsba.org,1300214
2002,montanasamplesite,MT,123abcstreet,helena,59604,4061234567,mtsba.org,101920
2003,jefferson,AL,210018thstreetsouth,birmingham,35209,2053792000,jefcoed.com,101920
2005,birminghamcity,AL,2015parkplacenorth,birmingham,35203,2052314600,bhm.k12.al.us,100390
2006,tuscumbiacity,AL,303northcommonsstreeteast,tuscumbia,35674,2563892900,tuscumbia.k12.al.us,103420
2009,hartsellecity,AL,305collegestreetne,hartselle,35640,2567735419,hartselletigers.org,101730
2013,brewtoncity,AL,811bellevilleavenue,brewton,36426,2518678400,brewtoncityschools.org,100450
2014,sumter,AL,p.o.box10-716countryclubroad,livingston,35470,2056529605,sumter.k12.al.us,103090
2017,lauderdale,AL,355countyroad61,florence,35631,2567601300,lcschools.org,102010
2032,st.clair,AL,410roydrive,ashville,35953,2055947131,sccboe.org,100005
2037,albertvillecity,AL,105westmainstreet,albertville,35950,2568911183,albertk12.org,100005
2040,escambiabdofed,AL,301bellevilleavenue,brewton,36426,2518676251,escambiak12.net,100194
2045,guntersvillecity,AL,3160pelhamparkway,pelham,nan,nan,guntersvilleboe.com,101690
2048,talladegacity,AL,43southjacksonstreet,montgomery,nan,nan,talladega-cs.net,103150
2050,limestone,AL,300s.jeffersonst.,athens,nan,nan,lcsk12.org,102100
2052,auburncity,AL,855eastsamfordavenue,auburn,36830,3348872100,auburnschools.org,100210
2053,tallasseecity,AL,1234iasbway,dreamfield,nan,nan,tcschools.com,103240
2054,conecuhboardofeducation,AL,1455tedbatesroad,evergreen,36401,2515781752,conecuh.k12.al.us,102490
2055,mountainbrook,AL,32vinestreetmountain,brook,35213,2058714608,mtnbrook.k12.al.us,103450
2057,walker,AL,1710alabamaavenue,jasper,35501,2053870555,walkercountyschools.com,103450
2058,dothancity,AL,"1665honeysuckleroad,suite1",dothan,36305,3347931397,dothan.k12.al.us,101230
2059,marshall,AL,12380hwy431s,guntersville,35976,nan,marshallk12.org,100006
2070,coffee,AL,400reddochhillrd,elba,36323,3348975016,coffeecountyschools.org,100810
2077,mobile,AL,1magnumpass,mobile,36618,2512214000,mcpss.com,102370
2084,athenscity,AL,455ushighway31north,athens,35611,2562336600,acs-k12.org,100120
2086,blount,AL,4155thavenueeast,oneonta,35121,2057751950,blountboe.net,100420
2088,tuscaloosacity,AL,1210almonavenue,tuscaloosa,35401,2057593560,tuscaloosacityschools.com,103360
2091,leedscity,AL,1517hurstavenue,leeds,35094,2056995437,leedsk12.org,100011
2092,tuscaloosa,AL,1118greensboroavenue,tuscaloosa,35401,2057580411,tcss.net,103390
2093,tarrantcity,AL,1318alabamastreet,tarrant,35217,2058493700,tarrant.k12.al.us,103270
2095,phenixcity,AL,1212ninthavenue,phenixcity,36867,3342980534,pcboe.net,102700
2098,midfieldcity,AL,417parkwoodstreet,midfield,35228,2059232262,midfield.k12.al.us,102350
2101,chilton,AL,1705laydamroad,clanton,35045,2052803000,chilton.k12.al.us,100660
2108,elmore,AL,100h.h.robisondrivep.o.box817,wetumpka,36092,3345671200,elmoreco.com,101290
2113,macon,AL,303unionspringsroad,tuskegee,36083,3347271600,maconk12.org,102190
2115,monroe,AL,109rosenwalddrive,monroeville,36460,2515752168,monroe.k12.al.us,102400
2117,homewoodcity,AL,450daleave,homewood,35209,2058704203,homewood.k12.al.us,101760
2122,selmacity,AL,2194broadstreet,selma,36701,3348741600,selmacityschools.org,102970
2125,bessemercity,AL,16215thavenuenorthp.o.box1230,bessemer,35021,2054323000,bessk12.org,100330
2134,sylacaugacity,AL,43n.broadwayavenue,sylacauga,35150,2562455256,scsboe.org,103120
3561,lumenscholarinstitute,UT,1353west760north,orem,84057,8019879497,lumenscholar.org,4900182
3700,rolla31,MO,500aforumdrive,rolla,65401,5734580100,rolla31.org,2926890
4002,appling,GA,200s.garnavillostreet,anamosa,nan,nan,appling.k12.ga.us,1300060
4003,atkinson,GA,98erobertsave,pearson,31642-9241,9124227373,atkinson.k12.ga.us,1300090
4005,bacon,GA,102w4thst,alma,31510-2447,9126327363,bcraiders.com,1300150
4007,baldwin,GA,110n.abcstreetp.o.box1188,milledgeville,31059,4784573303,baldwincountyschoolsga.org,1300210
4008,banks,GA,pobox248102hwy51south,homer,30547-0248,7066772224,banks.k12.ga.us,1300240
4009,barrowystem,GA,179w.athensstreet,winder,30680-0767,7708674527,barrow.k12.ga.us,1922110
4010,bartow,GA,65gilreathrdnwp.o.box200007,cartersville,30121-5016,7706065800,bartow.k12.ga.us,1300330
4011,benhill,GA,509westpalmstreet,fitzgerald,31750-3253,2294095500,ben-hill.k12.ga.us,1300360
4012,berrien,GA,p.o.box625810southdogwooddrive,nashville,31639,2296862081,berrienschools.org,1300390
4013,bibb,GA,484mulberrystp.o.box6157,macon,31201,4787658711,bcsdk12.net,1300420
4014,bleckley,GA,259eastpeterstreet,cochran,31014-2045,4789342821,bleckley.k12.ga.us,1300440
4015,brantley,GA,272schoolcircle,nahunta,31553,9124626176,brantley.k12.ga.us,1300480
4016,bremencity,GA,501pacificavenue,bremen,30110-2128,7705375508,bremencs.com,1300510
4017,brooks,GA,175route32northnew,paltz,nan,nan,brooks.k12.ga.us,1300540
4018,bryan,GA,p.o.box4296academystreet,roscoe,nan,nan,bryan.k12.ga.us,1300570
4019,bufordcity,GA,2625sawneeavenue,buford,30518,7709455035,bufordcityschools.org,1300600
4020,bulloch,GA,"150williamsroad,suite#a",statesboro,30458-1398,9122128500,bulloch.k12.ga.us,1300630
4021,burke,GA,789burkeveteransparkway,waynesboro,30830-0908,7065545101,burke.k12.ga.us,1300660
4022,butts,GA,120robertsstreet,canastota,nan,nan,butts.k12.ga.us,1300690
4023,calhouncity,GA,334southwallstreet,calhoun,30701,7066292900,calhounschools.org,1300720
4024,calhoun,GA,18772hartfordst.,edison,39846,2295457231,calhoun.k12.ga.us,1300750
4025,camden,GA,311southeaststreet,kingsland,31548,9127295687,camden.k12.ga.us,1300780
4026,candler,GA,210scollegest,metter,30439-1802,9126855713,metter.org,1300810
4027,carroll,GA,164independencedr,carrollton,30116-7506,7708323568,carrollcountyschools.com,1300840
4028,carrolltoncity,GA,106trojandr,carrollton,30117-4327,7708329633,carrolltoncityschools.net,1300870
4029,cartersvillecity,GA,p.o.box331015nelsonstreet,cartersville,30120-4027,7703825880,cartersvilleschools.org,1300900
4030,catoosa,GA,307clevelandstreetpobox130,ringgold,30736-0130,7069652297,catoosa.k12.ga.us,1300930
4031,charlton,GA,37touchdownlane,folkston,31537-3842,9124962596,charlton.k12.ga.us,1300990
4032,chattahoochee,GA,326broadst,cusseta,31805-9769,7069893774,chattco.org,1301050
4033,chattooga,GA,33middleschoolrd,summerville,30747-5131,7068573447,chattooga.k12.ga.us,1301080
4035,chickamaugacity,GA,402coverd,chickamauga,30707-1614,7063823100,chickamaugacityschools.org,1301140
4037,clay,GA,111commercestreeteastfort,gaines,39851,2297682232,clay.k12.ga.us,1301200
4038,clayton,GA,1058fifthavenue,jonesboro,30236,7704732700,clayton.k12.ga.us,1301230
4039,clinchystem,GA,46southcollegestreet,homerville,31634,9124875321,clinchcounty.com,503690
4041,coffee,GA,211s.gaskinavenue,douglas,31533-4401,9123842086,coffeeschools.org,1301350
4042,colquitt,GA,p.o.box2708710lanestreet,moultrie,31776-2708,2298906200,colquitt.k12.ga.us,1301380
4044,commercecity,GA,14784statehwy30,downsville,nan,nan,commercecityschools.org,1301440
4045,cook,GA,37joseyroad,adel,31620-0152,2298962294,cook.k12.ga.us,1301470
4046,coweta,GA,pobox280237jacksonstreet,newnan,30264-0280,7702542801,cowetaschools.net,1301500
4047,crawford,GA,pobox8190eastcrusellestreet,roberta,31078-0008,4788363131,crawfordschools.org,1301530
4048,crisp,GA,p.o.box729201south7thstreet,cordele,31010-0729,2292763400,crispschools.org,1301560
4049,dade,GA,pobox18852traditionlane,trenton,30752-0188,7066574361,dadecountyschools.org,1301590
4050,dalton,GA,pobox1408300w.waughst.,dalton,30722-1408,7068764000,daltonpublicschools.com,1301620
4051,dawsonboardofeducation,GA,28mainstreet,dawsonville,30534-0004,7062653246,dawsoncountyschools.org,611460
4052,cityofdecatur,GA,125electricavenue,decatur,30030,4043713601,csdecatur.net,1301680
4053,decatur,GA,1417dothanroad,bainbridge,39817,2292482200,dcboe.com,1301710
4054,dekalb,GA,robertr.freemanadministrativecomplex1701mountainindustrialboulevardstone,mountain,30083,6786761200,dekalbschoolsga.org,1301740
4055,dodge,GA,pobox1029720collegest,eastman,31023-1029,4783743783,dodge.k12.ga.us,1301770
4056,dooly,GA,202cottonst.,vienna,31092,2292684761,dooly.k12.ga.us,1301800
4057,dougherty,GA,200pineavep.o.box1470,albany,31701-2531,2294311285,docoschools.org,1301830
4058,douglasystem,GA,11490veteransmemorialhighway,douglasville,30134,7706512000,dcssga.org,637350
4059,dublincity,GA,207shamrockdr,dublin,31021-3020,4783538000,dcsirish.com,1301870
4060,early,GA,40haroldragandrive,blakely,39823-1706,2297234337,early.k12.ga.us,1301920
4061,echols,GA,pobox207216hwy129north,statenville,31648-0207,2295595734,echols.k12.ga.us,1301950
4062,effingham,GA,405n.ashstreet,springfield,31329-4958,9127546491,effinghamschools.com,1301980
4063,elbert,GA,50laureldr,elberton,30635-1842,7062134000,elbert.k12.ga.us,1302010
4064,emanuel,GA,201nmainstp.o.box130,swainsboro,30401-3500,4782376674,emanuel.k12.ga.us,1302040
4065,evans,GA,613westmainstreet,claxton,30417-1713,9127393544,evanscoga.sites.thrillshare.com,1302070
4066,fannin,GA,6145oldhwy76blue,ridge,30513,7066323771,fannin.k12.ga.us,1302100
4067,fayette,GA,pobox879205lafayetteavenue,fayetteville,30214,7704603535,fcboe.org,1302130
4068,floyd,GA,600riversidepkwyne,rome,30161-2938,7062341031,floydboe.net,1302190
4069,forsyth,GA,1120dahlonegahwy.,cumming,30040-4536,7708872461,forsyth.k12.ga.us,1302220
4070,franklin,GA,280busharoad,carnesville,30521-0099,7063844554,franklin.k12.ga.us,1302250
4072,gainesvillecity,GA,508oakst,gainesville,30501-3506,7705365275,gcssk12.net,1302310
4073,gilmerboardofeducation,GA,134industrialboulevard,ellijay,30540-5404,7062765000,gilmerschools.com,1302340
4074,glascock,GA,pobox205738railroadavenue,gibson,30810-0205,7065982291,glascock.k12.ga.us,1302370
4075,glynnboardofeducation,GA,5505altamaave.,brunswick,31521-1677,9122674100,glynn.k12.ga.us,637200
4076,gordon,GA,pobox12001,calhoun,30703-7000,7066297366,gcbe.org,1302430
4077,grady,GA,122nbroadst,cairo,39828,2293773701,grady.k12.ga.us,1302460
4078,greene,GA,pobox209101ethirdst,greensboro,30642-0209,7064537688,greene.k12.ga.us,1302490
4079,griffin-spaldingystem,GA,poboxn216s6thst,griffin,30224-0012,7702293700,gscs.org,638520
4081,habersham,GA,pobox70weststanfordmillroad,clarkesville,30523-0002,7067542118,habershamschools.com,1302580
4082,hall,GA,"711greenstreet,nw",gainesville,30501-3368,7705341080,hallco.org,1302610
4083,hancock,GA,11311hwy15north,sparta,31087,7064445775,hancock.k12.ga.us,1302640
4084,haralson,GA,299robertsonave.,tallapoosa,30176,7705742500,haralson.k12.ga.us,1302670
4085,harris,GA,15350riverviewroadp.o.box249,helendale,nan,nan,harris.k12.ga.us,1302700
4086,hartchartersystem,GA,284campbelldrp.o.box696,hartwell,30643-2223,7063765141,hart.k12.ga.us,638730
4087,heard,GA,pobox1330,franklin,30217-1330,7066753320,heard.k12.ga.us,1302790
4088,henry,GA,33n.zackhintonparkway,mcdonough,30253,7709576601,henry.k12.ga.us,1302820
4089,houston,GA,1100mainstreet,perry,31069,4789886200,hcbe.net,1302880
4091,jackson,GA,1660winderhwy,jefferson,30549-5458,7063675151,jacksonschoolsga.org,1302940
4092,jasperboardofeducation,GA,1411collegest,monticello,31064-6802,7064686350,jasper.k12.ga.us,639300
4093,jeffdavis,GA,pobox178044charlesrogersblvd,hazlehurst,31539-0571,9123756700,jeff-davis.k12.ga.us,1303000
4094,jeffersoncity,GA,345storeylane,jefferson,30549-0507,7063672880,jeffcityschools.org,1303030
4095,jefferson,GA,11025thst,wasco,nan,nan,jefferson.k12.ga.us,1303060
4096,jenkinsboardofeducation,GA,1152eastwinthropeavenue,millen,30442-0660,4789824305,jchs.com,
4097,johnson,GA,pobox110150sleest,wrightsville,31096-0110,4788643302,johnson.k12.ga.us,1303120
4098,jones,GA,125stewartavenue,gray,31032-5201,4789863032,jones.k12.ga.us,1303150
4099,lamar,GA,100victorylane,barnesville,30204-1544,7703585891,lamar.k12.ga.us,1303210
4100,lanier,GA,247southhighway221,lakeland,31635,2294823966,lanier.k12.ga.us,1303240
4101,laurens,GA,467firetowerrd,dublin,31021-2682,4782724767,lcboe.net,1301890
4102,lee,GA,"pobox399126starksvilleave.,n.",leesburg,31763-0399,2299032100,lee.k12.ga.us,1303270
4103,liberty,GA,200bradwellstreet,hinesville,31313-3182,9128762161,liberty.k12.ga.us,1303300
4105,long,GA,pobox428,ludowici,31316-0428,9125452367,longcountyps.com,1303360
4106,lowndes,GA,1592normandr,valdosta,31601,2292452250,lowndes.k12.ga.us,1303390
4107,lumpkin,GA,56indiandrive,dahlonega,30533-0311,7068643611,lumpkinschools.com,1303420
4108,macon,GA,pobox48831buckcreekbypassroad,oglethorpe,31068-0488,4784728188,macon.k12.ga.us,1303450
4109,madison,GA,pobox37800madisonstreet,danielsville,30633,7067952191,madison.k12.ga.us,1303480
4110,mariettacity,GA,250howardstnep.o.box1265,marietta,30060-1849,7704223500,marietta-city.org,1303510
4111,marion,GA,p.o.box3911697pinevillerd.buena,vista,31803,2296492234,marion.k12.ga.us,1303540
4112,mcduffie,GA,716n.leestreet,thomson,30824-0957,7069864000,mcduffie.k12.ga.us,1303570
4113,mcintosh,GA,10840gilmorewaygrass,valley,nan,nan,mcintosh.k12.ga.us,1303600
4114,meriwether,GA,390northeuclidavenue,upland,nan,nan,mcssga.org,1303630
4115,miller,GA,96perrystreet,colquitt,39837-0188,2297585592,miller.k12.ga.us,1303660
4116,mitchell,GA,108southharneystreet,camilla,31730,2293217002,mitchell.k12.ga.us,1303690
4117,monroe,GA,pobox130825brooklynavenue,forsyth,31029-1308,4789942031,monroe.k12.ga.us,1303720
4118,montgomery,GA,1052heberave.,heber,nan,nan,mcboe.net,1303750
4119,morgancharterystem,GA,1065eastave,madison,30650-1468,7067524600,morgan.k12.ga.us,691135
4120,murray,GA,975westmorganstreet,perris,nan,nan,murray.k12.ga.us,1303840
4121,muscogee,GA,2960maconroad-suite3047,columbus,31906,7067482019,muscogee.k12.ga.us,1303870
4122,newton,GA,2109newtondrivep.o.box1469,covington,30015-1469,7707871330,newtoncountyschools.org,1303930
4123,oconee,GA,219northestreet,imperial,nan,nan,oconeeschools.org,1303960
4124,oglethorpe,GA,735athensroad,lexington,30648-1911,7067438128,oglethorpe.k12.ga.us,1303990
4125,paulding,GA,3236atlantahighway,dallas,30132,7704438000,paulding.k12.ga.us,1304020
4126,peach,GA,900campusdrivefort,valley,31030,4788255933,peachschools.org,1304050
4127,pelhamcity,GA,52115thstreet,fallbrook,nan,nan,pelham-city.k12.ga.us,1304080
4128,pickens,GA,100d.b.carrollstreet,jasper,30143-1525,7062531700,pickenscountyschools.org,1304110
4129,pierce,GA,834eastmainst.pobox349,blackshear,31516-1242,9124492044,pierce.k12.ga.us,1304140
4130,pike,GA,7454hwy.19south,zebulon,30295,7705678489,pike.k12.ga.us,1304170
4131,polk,GA,612scollegestreet,cedartown,30125,7707483821,polk.k12.ga.us,1304200
4132,pulaski,GA,400parkeravenue,rodeo,nan,nan,pulaski.k12.ga.us,1304220
4133,putnamcharterystem,GA,158oldglenwoodspringroad,eatonton,31024,7064855381,putnam.k12.ga.us,636972
4134,quitman,GA,p.o.box248215kaiglerroad,georgetown,39854-0248,2293344189,quitman.k12.ga.us,1304290
4135,rabun,GA,1234arcadiaavenue,vista,nan,nan,rabuncountyschools.org,1304320
4136,randolph,GA,98schooldrive,cuthbert,39840-1724,2297323601,sowegak12.org,1304350
4137,richmondystem,GA,864broadstreet,augusta,30901-1215,7068261000,rcboe.org,1304380
4138,rockdale,GA,960pinestreetnep.o.box1199,conyers,30012,7704834713,rockdaleschools.org,1304410
4139,romecity,GA,508eastsecondstreet,rome,30161-3112,7062365050,rcs.rome.ga.us,1304440
4140,savannah-chatham,GA,208bullstreet,savannah,31401-3901,9123955600,sccpss.com,1301020
4141,schley,GA,161perrydrivep.o.box66,ellaville,31806,2299372405,schleyk12.org,1304470
4142,screven,GA,pobox1668382halcyondaleroad,sylvania,30467-1668,9124512000,screven.k12.ga.us,1304500
4143,seminole,GA,203e.6thstreet,donalsonville,39845-1900,2295242433,seminole.k12.ga.us,1304530
4144,socialcirclecity,GA,147alcovadrivesocial,circle,30025-,7704642731,socialcircleschools.com,1304540
4145,stephens,GA,191bigaschoolroad,toccoa,30577,7068869415,stephenscountyschools.com,1304560
4146,stewart,GA,p.o.box5477168greengroveroad,lumpkin,31815,2298384329,stewart.k12.ga.us,1304590
4147,sumter,GA,1011altschulavenuemenlo,park,nan,nan,sumterschools.org,1304620
4148,talbot,GA,pobox515945nwashingtonave,talbotton,31827-0515,7066658528,talbot.k12.ga.us,1304650
4150,tattnall,GA,"pobox157146w.brazellst.,",reidsville,30453-0157,9125574726,tattnallschools.org,1304770
4151,taylor,GA,pobox1930,butler,31006-1930,4788625224,taylorcountyschools.org,1304800
4154,thomas,GA,200n.pinetreeblvd,thomasville,31792,2292254380,thomas.k12.ga.us,1304890
4155,thomaston-upson,GA,205civiccenterdr,thomaston,30286-4233,7066479621,upson.k12.ga.us,1305280
4156,thomasvillecity,GA,404northbroadstreet3rdfloor,thomasville,31792-4776,2292252600,tcitys.org,1304950
4157,tift,GA,506w12thstreetp.o.box389,tifton,31793-0389,2293872400,tiftschools.com,1304980
4158,toombs,GA,117ewesleyave,lyons,30436-1368,9125263141,toombscountyschools.org,1305040
4159,towns,GA,67lakeviewcirstec,hiawassee,30546-3212,7068962279,,1305070
4160,treutlen,GA,5040souththirdstreet,soperton,30457,9125297101,treutlen.k12.ga.us,1305100
4161,trioncity,GA,239simmonsstreet,trion,30753-1012,7067342363,trionschools.org,1305130
4162,troup,GA,"100ndavisroad,buildingcp.o.box1228",lagrange,30241-1808,7068127900,troup.org,1300001
4163,turner,GA,p.o.box609423n.clevelandstreet,ashburn,31714-0609,2295673338,turner.k12.ga.us,1305190
4164,twiggs,GA,952emainstp.o.box232,jeffersonville,31044-9426,4789453127,twiggs.k12.ga.us,1305220
4165,union,GA,208e.mainstreetlos,gatos,nan,nan,ucschools.org,1305250
4166,valdostacity,GA,pobox54071204williamsstreet,valdosta,31603-5407,2293338500,gocats.org,1305310
4167,vidaliacity,GA,1001northstreetwest,vidalia,30474-4825,9125373088,vidaliacityschools.org,1305340
4168,walker,GA,pobox29201southdukestreetla,fayette,30728-0029,7066381240,walkerschools.org,1305370
4170,ware,GA,1301baileystreet,waycross,31502-1789,9122838656,ware.k12.ga.us,1305430
4171,warren,GA,p.o.box228115gibsonhighway,warrenton,30828-1304,7064653383,warren.k12.ga.us,1305460
4172,washington,GA,411sycamoreavenuemill,valley,nan,nan,washingtoncountyschoolsga.org,1305490
4173,wayne,GA,710westpinestreet,jesup,31545,9124271000,wayne.k12.ga.us,1305550
4176,whiteystem,GA,136warriorspath,cleveland,30528,7068652315,white.k12.ga.us,1305670
4177,whitfield,GA,3264clevelandhighway,dalton,30721,7062788070,wcsga.net,1305700
4178,wilcox,GA,1147thavenue,rochelle,31079,2294672141,wilcox.k12.ga.us,1305730
4179,wilkes,GA,313analexanderave,washington,30673,7066782718,wilkes.k12.ga.us,1305760
4180,wilkinson,GA,197westmainstreetpobox206,irwinton,31042,4789465521,wilkinson.k12.ga.us,1305790
4181,worth,GA,103eldridgest.,sylvester,31791-1832,2297768600,worthschools.net,1305850
4183,georgiaboardsassociation,GA,5120sugarloafpkwy.,lawrenceville,30043,7709622985,gsba.com,626820
4185,simblidemo,GA,5120sugarloafparkway,lawrenceville,30043,18002261856,eboardsolutions.com,626820
4187,mountaineducation,GA,1963tombellroad,cleveland,30528,7062194664,mymec.org,627180
4257,msba,MO,2100interstate-70drivesouthwest,columbia,65203,8002216722,mosba.org,627180
10123,ncsba,NC,2985bearstreetcosta,mesa,nan,nan,ncsba.org,627590
10399,ncstateboardofeducation,NC,301n.wilmingtonstreet,raleigh,27601,9842362250,dpi.nc.gov,627590
10400,theinnovationproject,NC,p.o.box58673,raleigh,27658,9846645411,tipnc.org,
11101,ncsbaeboarddemosite,NC,333east8thstreet,oakland,nan,nan,ncsba.org,627720
11102,guilford,NC,1015seventhstreet,novato,nan,nan,gcsnc.com,3701920
12218,summit54-6,SD,29780lakeviewave.,nuevo,nan,nan,summit.k12.sd.us,4670140
12225,alcester-hudson,SD,17200pinehurstlanehuntington,beach,nan,nan,alcester-hudson.k12.sd.us,620460
12226,centerville60-1,SD,375reinadelmar,pacifica,nan,nan,centerville.k12.sd.us,4611760
60861,pittsgrovetownship,NJ,1076almondroad,pittsgrove,08318-3950,8563583094,pittsgrove.net,3413110
60862,woodstown-pilesgroveregional,NJ,135eastavenue,woodstown,08098,8567690144,woodstown.org,3418330
60969,vestaviahillsboardofeducation,AL,473statestreet,princeton,nan,nan,vestavia.k12.al.us,629640
61236,gsbaboardleadershipdevelopment,GA,5120sugarloafparkway,lawrenceville,30043,7709622985,schoolboardu.com,629640
62001,viewpointhealth,GA,175gwinnettdrive,lawrenceville,30046,6782092411,myviewpointhealth.org,
70005,arkansasboardsassociation,AR,523southringostreetlittle,rock,72201,5013721415,arsba.org,632040
70061,alabamaassociationofboards,AL,43jacksonstreet,montgomery,36104,3342779700,alabamaschoolboards.org,632040
70542,alabastercity,AL,10111highway119,alabaster,35007,2056638400,alabasterschools.org,100190
70543,pikeroad,AL,pobox640064pike,road,36064,3344205300,pikeroadschools.org,629820
70643,pelhamcity,AL,3160pelhamparkway,pelham,35124,2056243700,pelhamcityschools.org,100194
71000,alabamasamplesite,AL,43southjacksonstreet,montgomery,36104,18005620601,alabamaschoolboards.org,632270
100000,iowaassociationofboards,IA,6000grandave.des,moines,50312-1417,5152881991,ia-sb.org,632270
100001,waukeecommunity,IA,560southeastuniversityavenue,waukee,50263,5159875161,waukeeschools.org,630030
100003,iowasamplesite,IA,1234iasbway,dreamfield,52111,5152881991,eboardsolutions.com,632310
100040,rotaryclubofgwinnett,GA,6500sugarloafparkwaysuite220a,duluth,30097,nan,gwinnettrotary.org,632310
100060,highlandriversbehavioralhealth,GA,200douglasstreet,petaluma,nan,nan,highlandrivers.org,632370
100065,simblilearninginstitute,GA,182ewalnutave,rialto,nan,nan,eboardsolutions.com,632370
100070,goldenrainfoundation,CA,1001goldenrainroadwalnut,creek,94595,9259887710,rossmoor.com,630750
100075,page,GA,2971flowersroadsouthsuite151,atlanta,30341,7702168555,pageinc.org,630750
100100,johnstoncommunity,IA,pobox106510nw62ndavenue,johnston,50131,5152780470,johnstoncsd.org,630780
100110,riversidecommunity,IA,330pleasantstreet,carson,51525,7124842212,riversideschools.org,630780
112001,tollesonelementary#17,AZ,administrativedistrictoffice9261w.vanburenst.,tolleson,85353,6235333900,tollesonschools.com,632760
112002,littletonelementary#65,AZ,"p.o.box280,cashion,az853291600s.107thavenue",avondale,85323,6234785600,littletonaz.org,600020
112020,arizonastateboardofeducation,AZ,1700westwashingtonstreetexecutivetower#300,phoenix,85007,6025425057,azsbe.az.gov,600020
112025,shontopreparatory,AZ,445montezumastrio,vista,nan,nan,shontoprep.org,5900128
136000,larmac,CA,1daisystreetladera,ranch,92694,9492180900,laderalife.com,
136001,ranchlife,CA,28436airosostreetranchomission,viejo,92694,9496256500,rmvranchlife.com,600040
136002,ranchommc,CA,28436airosostreetranchomission,viejo,92694,9496256500,rmvranchlife.com,600040
136005,thefountaingroveclub,CA,1525fountaingroveparkwaysanta,rosa,95403,7077013050,thefountaingroveclub.com,
136100,"hunter'screekcommunityassociation,inc.",FL,6200popevalleypobox167pope,valley,nan,nan,hunterscreek.net,600013
140003,ofreedsburg,WI,501kstreet,reedsburg,53959,6085242016,rsd.k12.wi.us,600013
150001,msbasimblidemonstrationsite,MO,2120euclidave.eastpalo,alto,nan,nan,mosba.org,1925980
150010,sheldoncommunity,IA,1700eastfourthstreet,sheldon,51201,7123242504,sheldonschools.com,1926820
150015,southeastpolkcommunity,IA,4078thstreetse,altoona,50009,5159674294,southeastpolk.org,633600
150020,northcedar,IA,102eastnorthstreetp.o.box247,stanwood,52337,5639423358,north-cedar.org,633600
150025,boyden-hull,IA,8011ststreet,hull,51239,7124392711,boyden-hull.k12.ia.us,1930930
150030,westdesmoinescommunity,IA,3550millscivicparkwaywestdes,moines,50265,5156335000,wdmcs.org,1918780
150035,masoncitycommunity,IA,20w.lugoniaavenue,redlands,nan,nan,masoncityschools.org,632070
150040,unitedcommunity,IA,1284uavenue,boone,50036,5154325319,unitedcomets.org,633690
150045,westbranchcommunity,IA,300nroundvalleyrd,bishop,nan,nan,west-branch.k12.ia.us,632160
150050,urbandalecommunity,IA,11152auroraavenue,urbandale,50322,5154575000,urbandaleschools.com,633720
150055,ballardcommunity,IA,509northmainavenue,huxley,50124,5155972811,ballard.k12.ia.us,621450
150060,wintersetcommunity,IA,300northvalleyst.,shafter,nan,nan,winterset.k12.ia.us,632880
150065,nodawayvalleycommunity,IA,410nw2ndstreet,greenfield,50849,6416301042,nodawayvalley.org,633840
150070,adeldesotominburn,IA,215n.11thstreet,adel,50003,5159934283,admschools.org,600061
150075,sibley-ocheyedancommunity,IA,12011thavene,sibley,51249,7127542533,thegenerals2.socsdit.org,600061
150080,clearcreekamana,IA,1486hwy6nw,oxford,52322,3198284510,ccaschools.org,634140
150085,anamosacommunity,IA,200s.garnavillostreet,anamosa,52205,3194624321,anamosa.k12.ia.us,633390
150090,grantwoodareaeducationagency,IA,4401sixthstreetswcedar,rapids,52404,3193996700,gwaea.org,633390
150095,hampton-dumontcommunity,IA,60112thavenuene,hampton,50441,6414564300,hdcsd.org,633660
150100,calcommunity,IA,1441gullave,latimer,50452,6415796087,cal.k12.ia.us,633660
150105,pcmcommunity,IA,400ehighway163pobox610,monroe,50170,5159948222,pcmschools.org,1922110
150110,ottumwacommunity,IA,115nferryst.,ottumwa,52501,6416846597,ottumwaschools.com,633900
150115,saydelcommunity,IA,5740ne14thstreetdes,moines,50313,5152640866,saydel.k12.ia.us,633900
150120,collins-maxwellc,IA,400metcalfstreet,maxwell,50161,5153871115,collins-maxwell.k12.ia.us,1999013
150125,greenhillsaea,IA,24997hwy92council,bluffs,51503,7123660503,ghaea.org,1926370
150130,siouxcenterc,IA,5509thst.nesioux,center,51250,7127222985,scwarriors.org,1917250
150140,lisboncommunity,IA,235w.schoolstreetpobox839,lisbon,52253,3194552075,lisbon.k12.ia.us,1917250
150145,amescommunity,IA,200524thstreet,ames,50010,5152686600,ames.k12.ia.us,1903540
170000,mid-hudsonregionalinformationcenter,NY,nydemosite175route32northnew,paltz,12561,8452551450,mhric.org,3680920
170001,ulsterboces,NY,175route32northnew,paltz,12561,8452551400,ulsterboces.org,3680920
170002,roscoecentral,NY,p.o.box4296academystreet,roscoe,12776,6074984126,roscoe.k12.ny.us,3625020
170004,cheektowagacentral,NY,3600unionroad,cheektowaga,14225,7166863600,cheektowagak12.org,3607230
170005,pawlingcentral,NY,515route22,pawling,12564,8458554600,pawlingschools.org,3622530
170006,rondoutvalleycentral,NY,p.o.box9,accord,12404,8456872400,rondout.k12.ny.us,3624960
170009,canastotacentral,NY,120robertsstreet,canastota,13032,3156972025,canastotacsd.org,3606390
170010,sullivanwestcentral,NY,p.o.box30833schoolhouseroad,jeffersonville,12748,8454824610,swcsd.org,3600023
170011,highlandcentral,NY,320pancakehollowroad,highland,12528,8456911000,highland-k12.org,3614400
170012,livingstonmanorcentral,NY,19schoolstreetpobox947livingston,manor,12758,8454394400,lmcs.k12.ny.us,3617580
180001,centralcommunity,LA,11576sullivanroadbaton,rouge,70818,2252621919,centralcss.org,2200125
190001,delawarestateboardofeducation,DE,"mailto:colletteeducationresourcecenter,35commerceway,suite1",dover,19904,3027354010,education.delaware.gov,
190002,delawareprofessionalstandardsboard,DE,johnw.colletteeducationresourcecenter35commerceway,dover,19904,3027354104,doe.k12.de.us,
190003,delawaredivisionofprofessionalregulation,DE,"cannonbuilding,suite203861silverlakeblvd.",dover,19904,3027444500,dpr.delaware.gov,635910
190005,delawaredepartmentoffinance,DE,"820northfrenchstreet,8thfloor",wilmington,19801,3025778987,finance.delaware.gov,635910
190007,delawareinterscholasticathleticassociation,DE,"colletteeducationalresourcecenter35commerceway,suite1",dover,19904,3028573365,doe.k12.de.us,636270
200015,baldwin,AL,2600-ahandavenuebay,minette,36507,2519370306,bcbe.org,100270
220201,demo,GA,1122abclane,anytown,11223,nan,eboardsolutions.com,636970
230000,melba#136,ID,511broadwayave,melba,83641,2084951141,msd136.org,636970
240000,plattevalleyweldre-7,CO,501clark/p.o.box485,kersey,80644,9703368500,pvre7.org,635850
260000,"gastroenterologymanagementservices,llc",NE,8901indianhillsdrive,omaha,nan,4023977057,midwestgi.com,635850
6302000,benton,AR,207w.conwaystreetp.o.box939,benton,72018,5017784861,bentonschools.org,502960
9000000,prodtest,GA,200phillipsdr,sausalito,nan,nan,smcsd.org,
36030000,bryant,AR,1511northreynoldsroad,bryant,72022,5018475600,bryantschools.org,503690
36030001,asbademo,AR,1330sknottave,anaheim,nan,nan,savsd.org,637560
36030056,clarksburgc-2,MO,11200telechronavenue,whittier,nan,nan,clarksburg.k12.mo.us,2909090
36030057,gadencity,AL,1026chestnutstreet,gadsden,35901,2565433512,gcs.k12.al.us,101620
36030109,fairfieldcity,AL,1200northchesterave.,bakersfield,nan,nan,fairfieldschoolsystem.com,101440
36030126,downsvillecentral,NY,14784statehwy30,downsville,13755,6073632100,dcseagles.org,3609240
36030143,advancer-iv,MO,1325celestedrive,modesto,nan,nan,advancehornets.org,2902880
36030144,westsioux,IA,1300falcondrive,hawarden,51023,7125511181,westsiouxschools.org,637950
36030146,delawaredept.ofnaturalresources&environmentalcontrol,DE,89kingshighway,dover,19904,3027399237,dnrec.alpha.delaware.gov,637950
36030149,huntsvillecity,AL,714bobwallaceavesw,huntsville,35801,2564286800,huntsvillecityschools.org,101800
36030150,tallapoosa,AL,679e.columbusstreet,dadeville,36853,2568250746,tallapoosak12.org,103210
36030152,csbapolicymanagementconsole,CA,17555tuolumneroad,tuolumne,nan,nan,csba.org,638280
36030153,csbagamutdemosite,CA,3251beaconblvdwest,sacramento,95691,9166694686,csba.org,600021
36030155,californiaboardsassociation,CA,11601mainstreet,sunol,nan,nan,csba.org,636600
36030157,lammersvilleunified,CA,111sdeanzaboulevardmountain,house,95391,2098367400,lammersvilleschooldistrict.net,638670
36030158,downeyunified,CA,11627brookshireavenue,downey,90241,5624696500,web.dusd.net,611460
36030181,orchard,CA,921foxlanesan,jose,95131,4089440397,orchardsd.org,636670
36030182,pacificunionelementary,CA,2065e.bowles,fresno,93725,5598342533,pacificunion.k12.ca.us,638880
36030185,konoctiunified,CA,9430blakestreetlower,lake,95457,7079946475,konoctiusd.org,620070
36030186,temeculavalleyunified,CA,31350ranchovistaroad,temecula,92592,9516762661,tvusd.k12.ca.us,600028
36030187,travisunified,CA,300southcstreet,tustin,nan,nan,,639630
36030189,liveoakunified,CA,2201penningtonroadlive,oak,95953,5306955400,lousd.k12.ca.us,622050
36030190,southernkernunified,CA,2601rosamondblvd.,rosamond,93560,6612565000,skusd.k12.ca.us,637620
36030191,mt.shastaunionelementary,CA,595ealmastreetmt.,shasta,96067,5309266007,mountshastausd.com,626040
36030192,southbayunionelementary,CA,6077lomaave,eureka,95503,7074768549,southbayusd.org,637350
36030193,tri-valleyregionaloccupationalprogram,CA,1040florencerd.,livermore,94550,9254554800,tvrop.org,637050
36030195,yosemiteunified,CA,1261metzrd,soledad,nan,nan,yosemiteusd.com,600160
36030196,plumascharter,CA,1425e.mainstreet,quincy,95971,5302833851,plumascharterschool.org,601773
36030198,seeleyunion,CA,1812westriovista,seeley,92273,7603523571,seeleyusd.org,637110
36030199,southside,CA,4991southsideroad,hollister,95023,8316374439,ssesd.org,637290
36030200,sierrasandsunified,CA,"113w.felsparavenueridgecrest,ca",93555,nan,7604991600,ssusd.org,636800
36030201,silverforkelementary,CA,2701ambertrailpollock,pines,95726,5306445416,ppesd.org,636810
36030202,st.helenaunified,CA,398bst.southsan,francisco,nan,nan,sthelenaunified.org,691041
36030203,sunnyvale,CA,819westiowaavenue,sunnyvale,94086,4085228200,sesd.org,638460
36030204,guadalupeunion,CA,4465ninthstreet,guadalupe,93434,8053432114,guadusd.org,641610
36030205,stanislausofficeofeducation,CA,1100hst.,modesto,95354-2338,2092381700,stancoe.org,691041
36030206,riobravo-greeleyunion,CA,6521enoslane,bakersfield,93314,6615892696,rbgusd.k12.ca.us,641790
36030207,stocktonunified,CA,701n.madisonst.,stockton,95202,2099337000,stocktonusd.net,638010
36030208,robla,CA,5428rosestreet,sacramento,95838,9166495248,robla.k12.ca.us,621480
36030209,sanluisobispoofficeofeducation,CA,3350educationdrivesanluis,obispo,93405,8055437732,https:,691032
36030210,strathmoreunionelementary,CA,19811orangebeltdrive,strathmore,93267,5595681283,suesd.k12.ca.us,638130
36030211,sonomavalleyunified,CA,17850railroadavenue,sonoma,95476,7079356000,sonomaschools.org,637200
36030212,haywardunified,CA,24411amadorstreetpobox5000,hayward,94540-5000,5107842600,husd.us,616740
36030213,napavalleyunified,CA,2425jeffersonstreet,napa,94558,7072533715,nvusd.k12.ca.us,626640
36030214,sundaleunionelementary,CA,13990ave240,tulare,93274,5596887451,sundaleschool.com,638340
36030215,kitcarsonunionelementary,CA,98957thave.,hanford,93230,5595822843,kitcarsonschool.com,619890
36030216,surprisevalleyjointunified,CA,470lincolnst.,cedarville,96104,5302796141,svjusd.org,638520
36030217,farmersvilleunified,CA,571e.citrus,farmersville,93223,5595922010,farmersville.k12.ca.us,600035
36030219,klamath-trinityjointunified,CA,11800statehighway96pobox1308,hoopa,95546,5306255600,ktjusd.k12.ca.us,619950
36030221,sweetwaterunionhigh,CA,11305thavechula,vista,91911-2812,6196915500,sweetwaterschools.org,638640
36030222,helendale,CA,15350riverviewroadp.o.box249,helendale,92342,7609521180,helendalesd.org,602430
36030223,taftunionhigh,CA,701wildcatway,taft,93268,6617632300,taftunion.org,638730
36030224,valleycenter-paumaunified,CA,150s3rdave,arcadia,nan,nan,vcpusd.org,600069
36030225,tahoetruckeeunified,CA,2300sanjuanhighwaysanjuan,bautista,nan,nan,ttusd.org,638980
36030226,luciamarunified,CA,602orchardst.arroyo,grande,93420,8054743000,luciamarschools.org,623080
36030227,windsorunified,CA,9291oldredwoodhwy#500,windsor,95492,7078377700,wusd.org,600034
36030228,templecityunified,CA,9700lastunasdr.,templecity,91780,6265485000,tcusd.net,638980
36030229,santamaria-bonita,CA,708s.millerstsanta,maria,93454,8059281783,smbsd.org,605580
36030230,tiptonelementary,CA,p.o.box787,tipton,93272-0787,5597524213,tiptonschool.org,639300
36030231,sanmigueljointunion,CA,1601lstreetsan,miguel,93451,8054673216,sanmiguelschools.org,635010
36030232,trinityalpsunified,CA,pobox1227321victorylane,weaverville,95660,5306236104,tausd.org,601331
36030233,tularejointunionhigh,CA,16703s.clarkave.,bellflower,nan,nan,tjuhsd.org,639930
36030234,wascounionelementary,CA,11025thst,wasco,93280,6617587100,wuesd.org,641400
36030235,woodvilleunion,CA,16541rd.168,porterville,93257,6869712,woodvilleschools.org,604620
36030236,elkgroveunified,CA,9510elkgrove-florinroadelk,grove,95624,9166865085,egusd.net,612330
36030237,exeterunified,CA,215n.crespiave,exeter,93221,5595929421,exeter.k12.ca.us,601423
36030238,fillmoreunified,CA,627sespeave,fillmore,93015,8055246000,fillmoreusd.org,613800
36030239,firebaughlasdeltasunified,CA,1976morriskyledr.,firebaugh,93622,5596591476,fldusd.org,601426
36030240,folsomcordovaunified,CA,1965birkmontdriverancho,cordova,95742,9162949000,fcusd.org,601426
36030241,foresthillunion,CA,24750mainstreet,foresthill,95631,5303672966,fusd.org,604260
36030242,tularecity,CA,600northcherryst.,tulare,93274,5596857200,tcsdk8.org,639870
36030243,fullertonjointunionhigh,CA,1051w.bastanchuryroad,fullerton,92833,7148702800,fjuhsd.org,614760
36030244,galtjointunionhigh,CA,150camelliaway,galt,95632,2097453061,ghsd.us,614820
36030245,tulelakebasinjointunified,CA,850mainstreet,tulelake,96134,5306672295,tulelakeschools.org,639940
36030246,gatewaycommunitycharters,CA,5112arnoldave.suitea,mcclellan,95652,9162865129,gcccharters.org,615180
36030247,gatewayunified,CA,2250mesquitedrivesanta,rosa,nan,nan,gatewayusd.org,614950
36030248,tuolumneofficeofeducation,CA,175fairviewlane,sonora,95370,2095362000,tcsos.us,601409
36030249,gilroyunified,CA,7810arroyocircle,gilroy,95020,6692054000,gilroyunified.org,615180
36030250,tworockunion,CA,5001springhillrd,petaluma,94952-4634,7077626617,trusd.org,640260
36030252,union,CA,5175unionavenuesan,jose,95124,4083778010,unionsd.org,605820
36030254,grassvalley,CA,10840gilmorewaygrass,valley,95945,5302734483,gvsd.us,624090
36030255,uplandunified,CA,390northeuclidavenue,upland,91786,9099851864,upland.k12.ca.us,600016
36030256,hart-ransomunion,CA,3920shoemakeavenue,modesto,95358,2095239996,hartransom.org,624150
36030257,upperlakeunified,CA,675clovervalleyrd.upper,lake,95485,7072752655,ulusd.org,601442
36030258,hawthorne,CA,14120hawthorneblvd.,hawthorne,90250,3106762276,hawthorne.k12.ca.us,616680
36030259,heberelementary,CA,1052heberave.,heber,92249,7603376530,hebersd.org,616830
36030260,hemetunified,CA,1791w.acaciaave.,hemet,92545,9517655100,hemetusd.org,616920
36030261,valverdeunified,CA,975westmorganstreet,perris,92571,9519406100,valverde.edu,691135
36030262,hillsboroughcity,CA,300elcerritoavenue,hillsborough,94010,6503425193,hcsdk8.org,624330
36030263,hollister,CA,2690cienegaroad,hollister,95023,8316306300,hesd.org,617340
36030264,imperialunified,CA,219northestreet,imperial,92251,7603553200,do.imperialusd.org,618210
36030265,inglewoodunified,CA,401southinglewoodavenue,inglewood,90301,3104192700,inglewoodusd.com,618390
36030266,vallecitounion,CA,pobox329,avery,95224,2097958500,vallecitok12.com,640680
36030267,irvineunified,CA,5050barrancaparkway,irvine,92604,9499365000,iusd.org,684500
36030268,vallecitos,CA,52115thstreet,fallbrook,92028,7607287092,vallecitossd.net,606690
36030269,jeffersonelementary,CA,101lincolnavenue,dalycity,94015,6509911000,jsd.k12.ca.us,625110
36030270,jeffersonunionhigh,CA,"123edgemontdrive,buildinga",dalycity,94015,6505507900,juhsd.net,618930
36030271,valleyregionaloccupationalprogram,CA,1305qstreet,sanger,93657,5598762122,valleyrop.net,625190
36030272,venturaunified,CA,255w.stanleyave.,ventura,93001,8056415000,venturausd.org,640980
36030273,johnswettunified,CA,400parkeravenue,rodeo,94572,5102454300,jsusd.org,618990
36030274,kentfield,CA,3060snowsroad,camino,nan,nan,kentfieldschools.org,641190
36030275,keppelunion,CA,34004128theast,pearblossom,93553,6619442155,keppelunion.org,607500
36030276,victorvalleyunionhigh,CA,16350mojavedr,victorville,92395,7609553201,vvuhsd.org,636972
36030277,vistaunified,CA,1234arcadiaavenue,vista,92084,7607262170,vistausd.org,641190
36030278,kingscanyonunified,CA,180110thstreet,reedley,93654,5593057010,kcusd.com,625690
36030279,walnutcreek,CA,960ygnaciovalleyrdwalnut,creek,94596,9259446850,walnutcreeksd.org,625740
36030280,knightsenelementary,CA,1923deltaroad,knightsen,94548,9256250073,kesd-ca.schoolloop.com,620040
36030281,warnerunified,CA,30951highway79warner,springs,92086,7607823517,warnerusd.net,600042
36030282,lacanadaunified,CA,8316redoakstreetrancho,cucamonga,nan,nan,lcusd.net,620130
36030283,lakeelementary,CA,4672countyroadn,orland,95963,5308651255,lakeschool.org,620610
36030285,lakeelsinoreunified,CA,6625lapalmaave.buena,park,nan,nan,leusd.k12.ca.us,600027
36030286,westernplacerunified,CA,6006thstste400,lincoln,95648,9166456350,wpusd.org,642140
36030287,laketahoeunified,CA,1021altahoeblvd.southlake,tahoe,96150,5305412850,ltusd.org,620640
36030288,lamontelementary,CA,7915burgundyave.,lamont,93241,6618450751,lamontschooldistrict.org,620850
36030289,westwoodunified,CA,4th&greenwoodstreet,westwood,96137,5302562311,westwoodusd.org,642300
36030290,lancaster,CA,44711cedarave,lancaster,93534,6619484661,lancsd.org,608760
36030291,wheatlandunionhigh,CA,1010wheatlandrd.,wheatland,95692-9798,5306333100,wheatlandhigh.org,642350
36030292,laslomitaselementary,CA,1011altschulavenuemenlo,park,94025,6508546311,llesd.org,622380
36030293,lassenunionhigh,CA,1000mainst.,susanville,96130,5302575134,lassenhigh.org,621060
36030294,williamsunified,CA,26011thstreet,williams,95987,5304732550,williamsusd.net,642540
36030295,lemongrove,CA,8025lincolnstreetlemon,grove,91945,6198255600,lemongrovesd.net,621330
36030296,willitsunified,CA,1277blosserlane,willits,95490,7074595314,willitsunified.com,642560
36030297,lemooreunionelementary,CA,1200w.cinnamondrive,lemoore,93245,5599246800,luesd.k12.ca.us,621360
36030298,willowsunified,CA,823westlaurelst,willows,95988,5309346600,willowsunified.org,642710
36030299,lennox,CA,10319firmonaave,lennox,90304,3106954000,lennox.k12.ca.us,621420
36030300,wilmarunion,CA,3775bodegaave,petaluma,94952,7077654340,wilsonschoolpetaluma.org,627060
36030301,lindenunified,CA,18527e.mainstreet,linden,95236,2098873894,lindenusd.com,621810
36030302,littlelakecity,CA,10515southpioneerblvd.santafe,springs,90670,5628688241,llcsd.net,609570
36030303,loomisunion,CA,3290humphreyroad,loomis,95650,9166521800,loomis-usd.k12.ca.us,609620
36030304,losalamitosunified,CA,10293bloomfieldst.los,alamitos,90720,5627994700,losal.org,622590
36030305,losaltos,CA,201covingtonroadlos,altos,94024,6509471150,lasdschools.org,609810
36030307,losgatos-saratogaunionhigh,CA,17421farleyroadwestlos,gatos,95030,4083542520,lgsuhsd.org,622800
36030309,losgatosunion,CA,201sixthstreet,coronado,nan,nan,lgusd.org,609870
36030311,lgsrecreation,CA,208e.mainstreetlos,gatos,95030,4083548700,lgsrecreation.org,609990
36030313,losnietos,CA,8324s.westmanavenue,whittier,90606,5626920271,lnsd.net,622890
36030315,lucernevalleyunified,CA,8560alientoroadlucerne,valley,92356,7602486108,lucernevalleyusd.org,600015
36030317,magnolia,CA,2705westorangeave.,anaheim,92804-3298,7147615533,magnoliasd.org,610350
36030319,mammothunified,CA,461sierraparkroadmammoth,lakes,93546,7609346802,mammothusd.org,623530
36030321,martinezunified,CA,2111missionave.,oceanside,nan,nan,,624030
36030322,mattoleunified,CA,9716hintonave,delhi,nan,nan,sites.google.com,600038
36030325,mccabeunionelementary,CA,3460lesterroad,denair,nan,nan,muesd.net,624180
36030329,menifeeunion,CA,29775haunroad,menifee,92586,9516721851,menifeeusd.org,624540
36030330,metropolitaneducation,CA,19405buenavistablvd.,arvin,nan,nan,metroed.net,601398
36030331,millvalley,CA,411sycamoreavenuemill,valley,94941,4153897700,mvschools.org,628530
36030332,millbraeelementary,CA,555richmonddrive,millbrae,94030,6506975693,millbraeschooldistrict.org,624900
36030333,milpitasunified,CA,180southfirststreet,dixon,nan,nan,musd.org,624500
36030334,mojaveunified,CA,8altarindaroad,orinda,nan,nan,mojave.k12.ca.us,625230
36030335,morenovalleyunified,CA,25634alessandroblvd.moreno,valley,92553,9515717500,mvusd.net,625800
36030336,morganhillunified,CA,15600concordcirclemorgan,hill,95037,4082016000,mhusd.org,625830
36030337,morongounified,CA,pobox12095715utahtrailtwentynine,palms,92277,7603679191,morongo.k12.ca.us,625860
36030338,murrietavalleyunified,CA,41870mcalbycourt,murrieta,92562,9516961600,murrieta.k12.ca.us,600029
36030339,national,CA,1500nave,nationalcity,91950,6193367500,nsd.us,630180
36030341,natomasunified,CA,1901arenablvd.,sacramento,95834,9165675400,natomasunified.org,600036
36030343,needlesunified,CA,1900erindrive,needles,92363,7603264057,needlesusd.org,626760
36030344,nevadacity,CA,800hooverlane,nevadacity,95959,5302651820,ncsd.school,630360
36030345,nevadajointunionhigh,CA,11645ridgeroadgrass,valley,95945,5302733351,njuhsd.com,626880
36030346,newhall,CA,25375orchardvillageroad,valencia,91355,6612914000,newhallschooldistrict.com,627180
36030347,newport-mesaunified,CA,2985bearstreetcosta,mesa,92626,7144245000,web.nmusd.us,627240
36030348,northmontereyunified,CA,mailingaddress13994castrovilleblvd.,castroville,95012,8316333343,nmcusd.org,627590
36030349,northorangeregionaloccupationalprogram,CA,385n.mullerstreet,anaheim,92801,7145025800,nocrop.org,611700
36030350,northernalamedaadulteducationcollective,CA,333east8thstreet,oakland,94606,5104667246,naaec.org,611700
36030351,novatounified,CA,1015seventhstreet,novato,94945,4158974201,nusd.org,627720
36030352,nuviewunion,CA,29780lakeviewave.,nuevo,92567,9519280066,nuviewusd.org,627780
36030353,oceanview,CA,17200pinehurstlanehuntington,beach,92647,7148472551,ovsd.org,616620
36030354,pacifica,CA,375reinadelmar,pacifica,94044,6507386600,pacificasd.org,620460
36030355,palmspringsunified,CA,150districtcenterdrivepalm,springs,92264,7608832700,psusd.us,629550
36030356,palmdale,CA,39139north10thstreeteast,palmdale,93550,6619477191,palmdalesd.org,631710
36030357,princetonjointunified,CA,473statestreet,princeton,95970,5304392261,pjusd.org,631620
36030358,paloverdeunified,CA,825n.lovekinblvd.,blythe,92225,7609224164,pvusd.us,629640
36030359,ramonaunified,CA,720ninthstreet,ramona,92065-2348,7607872000,ramonausd.net,617430
36030360,palosverdespeninsulaunified,CA,375viaalmarpalosverdes,estates,90274,3103789966,pvpusd.net,629700
36030361,redding,CA,5885e.bonnyviewroad,redding,96047,5302250011,reddingschools.net,612690
36030362,panama-buenavistaunion,CA,3970lacolinardsanta,barbara,nan,nan,pbvusd.k12.ca.us,606390
36030363,redondobeachunified,CA,1401inglewoodave.redondo,beach,90278-3912,3103795449,rbusd.org,600032
36030364,paradiseunified,CA,6696clarkrd.,paradise,95969,5308726400,pusdk12.org,629820
36030365,parlierunified,CA,900newmarkave.,parlier,93648,5596462731,parlierunified.org,629910
36030366,reedscreekelementary,CA,18335johnsonrdred,bluff,96080,5305276006,reedscreek.org,632250
36030367,reef-sunsetunified,CA,1225s.7thave.,avenal,93204-1425,5593869083,rsusd.org,632270
36030368,pasoroblesjointunified,CA,800niblickroadpaso,robles,93446,8057691000,pasoschools.org,600048
36030369,pattersonjointunified,CA,510keystoneblvd,patterson,95363,2098957700,patterson.k12.ca.us,630030
36030370,rescueunion,CA,2390basslakerd,rescue,95672-9571,5306774461,rescueusd.org,600001
36030371,petalumacity,CA,200douglasstreet,petaluma,94952,7077784813,petalumacityschools.org,618510
36030372,rialtounified,CA,182ewalnutave,rialto,92376-3530,9098207700,kec.rialto.k12.ca.us,632370
36030373,piedmontunified,CA,220bakerroad,satsuma,nan,nan,piedmont.k12.ca.us,100189
36030374,placerhillsunion,CA,16801placerhillsroadmeadow,vista,95722,5308782606,phusd.k12.ca.us,601710
36030375,richfieldelementary,CA,313westwintonave,hayward,nan,nan,richfieldschool.org,632400
36030376,placerunionhigh,CA,13000newairportrd.,auburn,95603,5308864400,puhsd.k12.ca.us,630750
36030377,rimoftheworldunified,CA,lakegregoryeducationcenter24740sanmoritzway,crestline,92325,9093364100,rimsd.k12.ca.us,632610
36030378,placervilleunion,CA,1032thompsonway,placerville,95667,5306227216,pusdk8.us,601860
36030379,rinconvalleyunion,CA,1000yulupaavenuesanta,rosa,95405,7075427375,rvusd.org,619320
36030380,pleasantvalley,CA,4410konoctiroad,kelseyville,nan,nan,pleasantvalleysd.org,630990
36030381,rio,CA,1800solardrive,oxnard,93030,8054853111,rioschools.org,601890
36030382,pleasantonunified,CA,5758w.laspositasblvd.,pleasanton,94588,9254625500,pleasantonusd.net,600020
36030383,riverdeltaunified,CA,445montezumastrio,vista,94571-1651,7073741700,rdusd.org,602010
36030384,plumaslakeelementary,CA,2743plumasschoolrd.plumas,lake,95961,5307434428,plusd.org,631180
36030385,plumasofficeofeducation&plumasunified,CA,50churchstreet,quincy,95971,5302836500,pcoe.k12.ca.us,619540
36030386,riverdalejointunified,CA,3160wmountwhitneyave,riverdale,93656,5598678200,rjusd.org,600040
36030387,pollockpineselementary,CA,2701ambertrailpollock,pines,95726,5306445416,ppesd.org,631290
36030388,popevalleyunionelementary,CA,6200popevalleypobox167pope,valley,94567,7079652402,pvk8.org,631380
36030389,rocklinunified,CA,2615sierrameadowsdrive,rocklin,95677,9166242428,rocklinusd.org,600013
36030390,ravenswoodcity,CA,2120euclidave.eastpalo,alto,94303,6503292800,ravenswoodschools.org,619680
36030391,roseland,CA,1691burbankavenuesanta,rosa,95407,7075450102,roselandsd.org,633510
36030392,redbluffjointunionhigh,CA,p.o.box1507red,bluff,96080,5305298700,rbhsd.org,632010
36030393,rosevillecity,CA,1050mainst,roseville,95678,9167711600,rcsdk8.org,602450
36030394,redbluffunionelementary,CA,1755airportblvd.red,bluff,96080,5305277200,rbuesd.org,631980
36030395,rossvalley,CA,100shawdrivesan,anselmo,94960,4154542162,rossvalleyschools.org,603000
36030396,redlandsunified,CA,20w.lugoniaavenue,redlands,92374,9093075300,redlandsusd.net,632070
36030397,redwoodcity,CA,750bradfordstreet,redwoodcity,94063,6504822200,rcsdk8.net,603180
36030398,roundvalleyjointelementary,CA,300nroundvalleyrd,bishop,93514-9632,7603872525,rvjesd-ca.schoolloop.com,633690
36030399,reedunion,CA,277akarenway,tiburon,94920,4153811112,reedschools.org,603610
36030400,roundvalleyunified,CA,p.o.box276,covelo,95428-0276,7079836171,roundvalleyschools.org,633720
36030401,richland,CA,300northvalleyst.,shafter,93263,6617468600,rsdshafter.org,600061
36030402,riponunified,CA,304n.acaciaavenue,ripon,95366,2095992131,riponusd.net,632880
36030403,sacramentocityunified,CA,573547thave.,sacramento,95824-4528,9166437400,scusd.edu,633840
36030404,riverbankunified,CA,67157thstreet,riverbank,95367,2098692538,riverbank.k12.ca.us,600061
36030405,sanbenitohigh,CA,1220montereyst.,hollister,95023-4708,83163758311132,sbhs.sbhsd.org,634140
36030406,riversideunified,CA,338014thstreet,riverside,92501,9517887135,riversideunified.org,633150
36030407,romoland,CA,25900leonroad,homeland,92548,9519269244,romoland.net,605790
36030408,rosemead,CA,261dstreet,brawley,nan,nan,rosemead.k12.ca.us,606480
36030409,sanbernardinocityunified,CA,777n.fst.san,bernardino,92410-3017,9093811245,sbcusd.com,634170
36030410,ross,CA,9lagunitasroad,ross,94957,4154572705,rossbears.org,606900
36030411,rowlandunified,CA,155nthirdstreet,campbell,nan,nan,rowlandschools.org,633750
36030412,sanbrunopark,CA,500acaciaavesan,bruno,94066-4222,6506243100,sbpsd.org,600067
36030413,saddlebackvalleyunified,CA,25631petera.hartmanwaymission,viejo,92691,9495861234,svusd.org,633860
36030414,salidaunion,CA,4801siskroad,salida,95368,2095450339,salida.k12.ca.us,621000
36030415,sancarlos,CA,"1200industrialrd.,unit9san",carlos,94070,6505087333,scsdk8.org,612600
36030416,sandiegoofficeofeducation,CA,6401lindavistaroadsan,diego,92111,8582923500,sdcoe.net,691030
36030417,sangabrielunified,CA,408juniperoserradrivesan,gabriel,91776,6264515400,sgusd.k12.ca.us,634425
36030418,sandiegounified,CA,4100normalstsan,diego,92103,6197258000,sandiegounified.org,634320
36030419,sanjacintounified,CA,2045s.sanjacintoavesan,jacinto,92583,9519297700,sanjacinto.k12.ca.us,634440
36030421,sanjoseunified,CA,2310aldergroveave,escondido,nan,nan,sjusd.org,634590
36030422,sanlorenzovalleyunified,CA,325marionave.ben,lomond,95005-9403,8313365194,slvusd.org,634740
36030423,sanleandrounified,CA,1145aladdinavesan,leandro,94577,5106673500,slusd.us,634680
36030424,sanmarinounified,CA,1665westdr.san,marino,91108,6262997000,smusd.us,634860
36030425,sanpasqualunion,CA,15305rockwoodrd.,escondido,92027-6700,7607454931,sanpasqualunion.net,613530
36030426,sanpasqualvalleyunified,CA,676baselinerd,winterhaven,92283,7605720222,spvusd.org,635070
36030427,sanmateounionhigh,CA,650n.delawarestreetsan,mateo,94401,6505582299,smuhsd.org,634980
36030428,sanmateo-fostercity,CA,1170chessdrive,fostercity,94404,6503127700,smfcsd.net,634920
36030429,sanramonvalleyunified,CA,699oldorcharddr,danville,94526-4331,9255525500,srvusd.net,635130
36030430,sanrafaelcity,CA,310novaalbionwaysan,rafael,94903,4154923233,srcs.org,609780
36030431,sangerunified,CA,1005hoagstreet,corning,nan,nan,sanger.k12.ca.us,635250
36030433,santaclaraunified,CA,1889lawrenceroadsanta,clara,95051,4084232000,santaclarausd.org,635430
36030434,santacruzcity,CA,133missionst.ste.100santa,cruz,95060,8314293410,sccs.net,609850
36030435,santamonica-malibuunified,CA,1717fourthstreetsanta,monica,90401,3104508338,smmusd.org,635700
36030436,santapaulaunified,CA,201s.steckelsanta,paula,93060,8059338800,santapaulausd.org,601421
36030437,santamariajointunionhigh,CA,519e.badillost.,covina,nan,nan,smjuhsd.org,635670
36030438,santarosacity,CA,211ridgwayavenuesanta,rosa,95401,7078903800,srcschools.org,601329
36030439,saratogaunion,CA,20460forresthillsdrive,saratoga,95070,4088673424,saratogausd.org,636940
36030440,saugusunion,CA,24930avenuestanfordsanta,clarita,91355,6612945300,saugususd.org,635970
36030442,selmaunified,CA,3036thompsonavenue,selma,93662,5598986500,selmausd.org,636270
36030443,siskiyouunionhigh,CA,624everittmemorialhwymt.,shasta,96067,5309263006,sisuhsd.net,636940
36030444,snowlinejointunified,CA,4075nielsonroad,phelan,92371,7608685817,snowlineschools.com,636970
36030445,santaritaunionelementary,CA,301wwashingtonblvd,crescentcity,nan,nan,santaritaschools.org,635790
36030446,sonomaofficeofeducation,CA,5340skylaneboulevardsanta,rosa,95403,7075242600,scoe.org,691040
36030447,santaynezvalleyunionhigh,CA,2975missiondrive,solvang,93463,8056886487,syvuhsd.org,635850
36030448,sonomaselpa/sonomacharterselpa,CA,5340skylaneblvd.santa,rosa,95403,7075242752,sonomaselpa.org,615270
36030450,sausalitomarincity,CA,200phillipsdr,sausalito,94965-1194,4153323190,smcsd.org,636000
36030451,sonoraunionhigh,CA,100schoolstreet,sonora,95370,2095338510,sonorahigh.org,637260
36030452,savanna,CA,1330sknottave,anaheim,92804,7142363800,savsd.org,600065
36030453,southwhittier,CA,11200telechronavenue,whittier,90605,5629446231,swhittier.k12.ca.us,615480
36030455,southernhumboldtjointunified,CA,110schoolroad,miranda,95553,7079431789,sohumusd.com,637590
36030456,standardelementary,CA,1200northchesterave.,bakersfield,93308,6613922110,standardschools.net,637890
36030457,sebastopolunion,CA,7611huntleyst,sebastopol,95472-3668,7078294570,sebastopolschools.org,615600
36030458,stanislausselpa,CA,1325celestedrive,modesto,95355,2092386550,selpa.stancoe.org,615600
36030459,sequoiaunionhigh,CA,480jamesavenue,redwoodcity,94062,6503691411,seq.org,636390
36030460,stanislausunionelementary,CA,2410jannaave.,modesto,95350,2095299546,stanunion.k12.ca.us,637950
36030461,shastaofficeofeducation,CA,1644magnoliaavenue,redding,96001,5302250200,shastacoe.org,691037
36030462,sulphurspringsunion,CA,27000weyerhaeuserwaysanta,clarita,91351,6612525131,sssd.k12.ca.us,638220
36030463,summervilleunionhigh,CA,17555tuolumneroad,tuolumne,95379,2099283498,summbears.net,638280
36030464,shastaunionelementary,CA,5885e.bonnyviewrd.,redding,96001,5302431110,shastaunionschool.net,636570
36030465,sunolglenunified,CA,11601mainstreet,sunol,94586,9258622026,sunol.k12.ca.us,600021
36030466,shastaunionhigh,CA,2200eurekawaysuiteb,redding,96001,5302413261,suhsd.net,636600
36030467,sylvanunion,CA,605sylvanavenue,modesto,95350,2095745000,sylvan.k12.ca.us,616470
36030468,tamalpaisunionhigh,CA,395dohertydr.p.o.box605(94977),larkspur,94939,4159451000,tamdistrict.org,638790
36030469,shorelineunified,CA,p.o.box198,tomales,94971,7078782266,shorelineunified.org,636670
36030470,tehachapiunified,CA,300southrobinsonst.,tehachapi,93561,6618222100,tehachapiusd.com,638880
36030471,turlockunified,CA,1574ecanaldrive,turlock,95380,2096670632,turlock.k12.ca.us,600158
36030472,tustinunified,CA,300southcstreet,tustin,92780,7147307301,tustin.k12.ca.us,640150
36030473,sierra-plumasjointunified&sierraofficeofeducation,CA,"p.o.box955,109beckwithrd",loyalton,96118,5309931660,sierracountyschools.org,630840
36030474,sierraunified,CA,29143auberryroad,prather,93651,5598553662,sierrausd.org,636805
36030475,simivalleyunified,CA,101westcochranstreetsimi,valley,93065,8053064500,simivalleyusd.org,636840
36030476,twinriversunified,CA,5115dudleyblvd.mcclellan,park,95652,9165661600,trusd.net,601332
36030477,solanabeach,CA,309northriosave.solana,beach,92075,8587947100,sbsd.k12.ca.us,600064
36030478,soledadunified,CA,1261metzrd,soledad,93960,8316783950,soledadusd.org,637050
36030479,ukiahunified,CA,511southorchardavenue,ukiah,95482,7074725000,uusd.net,640300
36030480,solvang,CA,565atterdagrd.,solvang,93463-2690,80568848104453,solvangschool.org,642810
36030481,sonora,CA,830greenleyrd,sonora,95370-5203,2095325491,ses.k12.ca.us,642810
36030482,unionhillelementary,CA,300w.whitneyave,woodlake,nan,nan,unionhillschooldistrict.org,640380
36030483,soquelunionelementary,CA,620montereyave,capitola,95010,8314645639,suesd.org,637290
36030485,southforkunion,CA,5225kelsovalleyrd.,weldon,93283-9564,7603784000,southforkschool.org,637470
36030487,southsanfranciscounified,CA,398bst.southsan,francisco,94080-4423,6508778700,ssfusd.org,637530
36030488,southerncaliforniaroc,CA,2300crenshawblvd,torrance,90501-3324,3102244221,socalroc.com,600107
36030490,lawndaleelementary,CA,4161w.147thstreet,lawndale,90260,3109731300,lawndalesd.net,621210
36030491,washingtonunionelementary,CA,43sanbenanciord.,salinas,93908,8314842166,washingtonusd.org,641610
36030493,washingtonunified.,CA,7950s.elmavenue,fresno,93706,5594955600,washingtonunified.org,615510
36030494,legrandunionhigh,CA,401northfairviewavenue,goleta,nan,nan,lghs.k12.ca.us,621270
36030496,waughelementary,CA,860mariadrive,petaluma,94954,7077620202,waughsd.org,641790
36030497,lemooreunionhigh,CA,5powellavenue,lemoore,93245,5599246610,luhsd.k12.ca.us,621400
36030498,lewistonelementary,CA,685lewistonrd,lewiston,96052,5307783984,lewistonesd.com,621480
36030499,westcontracostaunified,CA,1108bissellavenue,richmond,94801,5102311100,wccusd.net,632550
36030501,libertyelementary,CA,1771e.pacificave,tulare,93274,5566861675,libertyelementary.org,643140
36030502,williams.hartunionhigh,CA,21380centrepointeparkwaysanta,clarita,91350,6612590033,hartdistrict.org,642510
36030503,lindsayunified,CA,371ehermosa,lindsay,93247,5595625111,lindsay.k12.ca.us,621870
36030504,woodsideelementary,CA,3195woodsiderd.,woodside,94062,6508511571,woodsideschool.us,643140
36030505,yrekaunion,CA,309jacksonstreet,yreka,96097,5308421168,yrekausd.net,641460
36030506,liveoak,CA,984-1bostwicklanesanta,cruz,95062,8314756333,losd.ca,609480
36030507,alhambraunified,CA,1515westmissionroad,alhambra,91803,6269433000,ausd.us,600153
36030508,livermorevalleyjointunified,CA,685eastjacklondonblvd.,livermore,94551-1899,9256063200,livermoreschools.org,622110
36030509,alpineofficeofeducation&alpineunified,CA,43hawksidedrive,markleeville,96120,5306942230,alpinestudents.org,641220
36030510,alvordunified,CA,9kpcparkway,corona,92879,9515095000,alvordschools.org,602430
36030511,lomaprietajointunionelementary,CA,23800summitroadlos,gatos,95033,4083531101,loma.k12.ca.us,622350
36030512,arcadiaunified,CA,150s3rdave,arcadia,91006,6268218300,ausd.net,602970
36030513,aromas-sanjuanunified,CA,2300sanjuanhighwaysanjuan,bautista,95045,8316234500,asjusd.org,691136
36030514,lonepineunified,CA,301southhaystreetp.o.box159lone,pine,93545,7608765579,lpusddist.org,622440
36030515,auburnunion,CA,255epperlelane,auburn,95603,5308857242,auburn.k12.ca.us,603420
36030516,banningunified,CA,161westwilliamsstreet,banning,92220,9519220200,banning.k12.ca.us,603840
36030517,losangelesofficeofeducation,CA,9300imperialhighway,downey,90242,5629226111,lacoe.edu,691078
36030519,losbanosunified,CA,1717s.11thst.losbanoslos,banos,93635,2098263801,losbanosusd.org,622740
36030520,bearvalleyunified,CA,42271moonridgeroadbigbear,lake,92315,9098664631,bearvalleyusd.org,604230
36030521,losolivoselementary,CA,2540alamop.o.box208los,olivos,93441,8056884025,losolivosschool.org,622920
36030522,bellflowerunified,CA,16703s.clarkave.,bellflower,90706,5628669011,busd.k12.ca.us,604440
36030523,belmont-redwoodshores,CA,2960hallmarkdr,belmont,94002,6506374800,brssd.org,634620
36030524,losthillsunion,CA,20951pavilionwaylost,hills,93249,6617972941,losthills.k12.ca.us,604740
36030525,beniciaunified,CA,350eastkstreet,benicia,94510,7077478300,beniciaunified.org,604620
36030526,lynwoodunified,CA,11321bullisroad,lynwood,90262,3108861600,lynwood.k12.ca.us,623160
36030527,berkeleyunified,CA,2020bonarstreet,berkeley,94702,5106446150,berkeleyschools.net,604740
36030528,berryessaunion,CA,904willowavenuela,puente,nan,nan,berryessa.k12.ca.us,600025
36030529,beverlyhillsunified,CA,624n.rexforddrivebeverly,hills,90210,3105515100,bhusd.org,604830
36030532,bonsallunified,CA,31505oldriverrd.,bonsall,92003,7606315200,bonsallusd.com,601426
36030533,manhattanbeachunified,CA,325s.peckavemanhattan,beach,90266,3103187345,mbusd.org,600025
36030534,beardsleyelementary,CA,1001robertslane,bakersfield,93308,6613938550,beardsleyschool.org,604260
36030535,mantecaunified,CA,2271w.louiseave,manteca,95337,2098253200,mantecausd.net,623610
36030536,beaumontunified,CA,4191450thstreetwestquartz,hill,nan,nan,beaumontusd.us,604290
36030537,bellavistaelementary,CA,22661oldalturasroadbella,vista,96008,5305494415,bveagles.com,604350
36030538,bellevueunion,CA,3150educationdr.santa,rosa,95407,7075425197,https:,604380
36030540,belridgeelementary,CA,"19447wagonwheelrd,",mckittrick,93251,6617627381,belridgeschool.org,1921720
36030541,bennettvalleyunion,CA,2250mesquitedrivesanta,rosa,95405,7075422201,bvusd.org,1303330
36030542,bigvalleyjointunified,CA,"400bridgestreet,p.o.box157",bieber,96009,5302945231,bigvalleyschool.org,605010
36030543,bishopunified,CA,656w.pinestreet,bishop,93514,7608723680,bishopschools.org,601409
36030544,marktwainunionelementary,CA,981tuolumneavepobox1359angels,camp,95222,2097361855,mtwain.k12.ca.us,623970
36030545,blochmanunionelementary,CA,4949foxencanyonroadsanta,maria,93454,8059371148,blochmanusd.org,605280
36030546,brawleyunionhigh,CA,"480northimperialavenue,ca",brawley,92227,7603125819,brawleyhigh.org,605820
36030547,marysvillejointunified,CA,1919bst,marysville,95901-3731,5307416000,mjusd.com,624090
36030548,maxwellunified,CA,515oakstpobox788,maxwell,95955,5304382052,maxwellusd.net,624150
36030549,bretharteunionhigh,CA,323s.mainst.p.o.box7000angels,camp,95221,2097368340,brethartebullfrogs.org,605940
36030550,briggselementary,CA,12465foothillroadsanta,paula,93060,8055257540,briggsesd.org,606030
36030551,buelltonunion,CA,3012ndstreet,buellton,93427-6801,8056862767,buelltonusd.org,1600360
36030552,mcfarlandunified,CA,601secondstreet,mcfarland,93250,6617923081,mcfarlandusd.com,624230
36030553,buenapark,CA,6885orangethorpeavenuebuena,park,90620,7145228412,bpsd.us,605880
36030554,mckittrickelementary,CA,232502ndstreet,mckittrick,93251,6617627303,mckittrickschool.org,624330
36030555,buenavistaelementary,CA,21660road60,tulare,93274,5596862015,buenavistaeagles.org,606420
36030556,mcswainunionelementary,CA,926scottrd.,merced,95341,2093542700,mcswain.k12.ca.us,624360
36030557,burbankunified,CA,1900w.oliveave.,burbank,91506,8187294400,burbankusd.org,606450
36030558,mendotaunified,CA,115mccabeave,mendota,93640,5596554942,musdaztecs.com,600022
36030559,burtonelementary,CA,264nwestwoodst,porterville,93257,5597818020,burtonschools.org,606570
36030560,millville,CA,8570brookdaleroad,millville,96062,5305474471,millvilleschool.net,624930
36030561,buttevilleunionelementary,CA,24512edgewoodrd,weed,96094,5309382255,butteville.k12.ca.us,606690
36030562,missionunion,CA,36825foothillroad,soledad,93960,8316783524,missionusd.org,1906240
36030563,buttonwillowunionelementary,CA,4350otaymesaroadsan,ysidro,nan,nan,buttonwillow.k12.ca.us,606720
36030564,byronunionelementary,CA,14301byronhighway,byron,94514,9258097500,byronunionschooldistrict.us,606750
36030567,modocjointunified,CA,906w.4thst.,alturas,96101,5302337201,modoc.k12.ca.us,625190
36030568,calistogajointunified,CA,1520lakestreet,calistoga,94515,7079424703,calistogaschools.org,607020
36030569,caminounionelementary,CA,3060snowsroad,camino,95709,5306444552,caminoschool.org,607170
36030570,cardiffelementary,CA,1888montgomeryavecardiffbythe,sea,92007,7606325890,cardiffschools.com,607470
36030571,carlsbadunified,CA,6225elcaminoreal,carlsbad,92009,7603315000,carlsbadusd.net,607500
36030572,monson-sultanajointunionelementary,CA,10643avenue416,sultana,93666,5595911634,msschool.org,625350
36030573,cascadeunionelementary,CA,4070fieldbrookrd,mckinleyville,nan,nan,https:,607680
36030574,moorparkunified,CA,5297maureenlane,moorpark,93021,8053786300,mrpk.org,625690
36030576,moraga,CA,1540schoolstreet,moraga,94556,9253765943,moraga.k12.ca.us,616050
36030577,cayucoselementary,CA,301cayucosdrive,cayucos,93430,8059953694,cesd-ca.schoolloop.com,607840
36030578,centerjointunified,CA,8408wattave,antelope,95843,9163386400,centerusd.org,607900
36030580,centralelementary,CA,8316redoakstreetrancho,cucamonga,91730,9099898541,centralsd.net,607950
36030581,mountainelementary,CA,3042oldsanjoserd,soquel,95073,8314756812,mountainesd.org,626070
36030582,centraliaelementary,CA,6625lapalmaave.buena,park,90620,7142283100,cesd.k12.ca.us,608070
36030583,ceresunified,CA,2503lawrencest,ceres,95307,2095561500,ceres.k12.ca.us,608130
36030584,mountainvalleyunified,CA,231oakave.,hayfork,96041,5306285265,mvusd.us,600018
36030585,chawanakeeunified,CA,26065outbackindustrialway,o'neals,93645,5598776209,chawanakee.k12.ca.us,600116
36030586,chowchillaelementary,CA,307s.decaturstreet,montgomery,nan,5596658000,chowchillaelem.k12.ca.us,608520
36030587,mountainunionelementary,CA,30365highway299eastpobox368montgomery,creek,96065,5303376214,mcs-shastacoe-ca.schoolloop.com,627040
36030588,cinnabarelementary,CA,286skillmanlane,petaluma,95492,7077654345,cinnabar.org,608700
36030589,claremontunified,CA,170w.sanjoseave.,claremont,91711,9093980609,cusd.claremont.edu,608760
36030590,mt.diablounified,CA,1936carlottadrive,concord,94519,9256828000,mdusd.org,626370
36030591,clayjointelementary,CA,12449s.smithave,kingsburg,93631,5598974185,clayschool.k12.ca.us,608850
36030592,mupu,CA,4410n.ojairoadsanta,paula,93060,8055256111,mupu.org,3700386
36030593,napaofficeofeducation,CA,2121imolaavenue,napa,94559,7072536810,napacoe.org,691022
36030594,coachellavalleyunified,CA,87-225churchstreet,thermal,92274,7603995137,cvusd.us,609070
36030595,coastunified,CA,1350mainstreet,cambria,93428,8059273880,coastusd.org,600049
36030596,coldspringelementary,CA,4804mcclellanblvd.,anniston,nan,nan,coldspringschool.net,609270
36030597,newjerusalem,CA,31400s.kosterroad,tracy,95304,2098306363,njesd.net,1301170
36030598,collegeelementary,CA,3525pinestreetsanta,ynez,93460,8056867300,collegeschooldistrict.org,609330
36030599,newarkunified,CA,5715musickave,newark,94560,5108184103,newarkunified.org,627060
36030600,coltonjointunified,CA,1212valenciadr,colton,92324,9095805000,colton.k12.ca.us,609390
36030601,colusaunified,CA,74510thst,colusa,95932,5304587791,colusa.k12.ca.us,609570
36030602,northjointunion,CA,500springgroveroad,hollister,95023,8316375574,ncjusd.org,614250
36030603,comptonunified,CA,501s.santafeavenue,compton,90221,3106394321,compton.k12.ca.us,609620
36030604,corningunionhigh,CA,643blackburnavenue,corning,96021,5308248000,corninghs.org,609810
36030605,northcowcreek,CA,10619swedecreekroadpalo,cedro,96073,5305494488,northcowcreek.org,614250
36030606,coronadounified,CA,201sixthstreet,coronado,92118,6195228900,coronadousd.net,609870
36030607,oakgroveunion,CA,5299hallroadsanta,rosa,95401,7075450171,ogusd.org,1900026
36030608,cotati-rohnertparkunified,CA,241peachtreestne#400,atlanta,nan,nan,crpusd.org,609940
36030609,oakviewelementary,CA,500ne6thst,pocahontas,nan,nan,myoakview.com,1999005
36030610,cottonwoodunion,CA,20512westfirstst,cottonwood,nan,5303473165,cwusd.com,642450
36030611,oakdalejointunified,CA,168south3rdavenue,oakdale,95361,2098484884,ojusd.org,600062
36030612,curtiscreekelementary,CA,18755standardroad,sonora,95370,2095331083,curtiscreekschool.com,610320
36030613,oakleyunionelementary,CA,7211s.whittierave,whittier,nan,nan,ouesd.k12.ca.us,628080
36030614,cutler-orosijointunified,CA,12623avenue416,orosi,93647,5595284763,cojusd.org,610350
36030615,oceansideunified,CA,2111missionave.,oceanside,92058,7609664000,oside.us,628250
36030616,delhiunified,CA,9716hintonave,delhi,95315,2096562000,delhi.k12.ca.us,600039
36030617,ojaiunified,CA,201n.crafthighway,chickasaw,nan,nan,ojaiusd.org,628270
36030618,denairunified,CA,3460lesterroad,denair,95316,2096327514,denairusd.org,611040
36030619,oldadobeunion,CA,845crinelladr.,petaluma,94954,7077654321,oldadobe.org,628320
36030620,digiorgioelementary,CA,19405buenavistablvd.,arvin,93203,6618542604,digiorgio.k12.ca.us,611130
36030621,ontario-montclair,CA,950westdstreet,ontario,91762,9094592500,omsd.net,628470
36030622,orangecenter,CA,3530southcherryave,fresno,93706,5592370437,orangecenter.org,628530
36030623,dixonunified,CA,180southfirststreet,dixon,95620,7076936300,dixonusd.org,611280
36030624,orindaunion,CA,8altarindaroad,orinda,94563,9252544901,orindaschools.org,628860
36030625,dospalosorolomajointunified,CA,2041almondstreetdos,palos,93620,2093920200,dpol.net,600033
36030626,orlandunified,CA,903southst.,orland,95963,5308651200,orlandusd.net,1999015
36030627,orogrande,CA,19900nationaltrailshighwayoro,grande,92368,7602435884,orogrande.net,628950
36030628,oxnard,CA,1051southastreet,oxnard,93030,8053851501,oxnardsd.org,629220
36030630,pajarovalleyunified,CA,294greenvalleyroad,watsonville,95076,8317862100,pvusd.net,629490
36030631,perriselementary,CA,143e.1stst.,perris,92570,9516573118,perrisesd.org,630180
36030632,perrisunionhigh,CA,155e4thstreet,perris,92570,9519436369,puhsd.org,630210
36030633,drycreekjointelementary,CA,130eastmainst.,centre,nan,nan,drycreekschools.us,611490
36030634,piercejointunified,CA,540-a6thstreetp.o.box239,arbuckle,95912,5304762892,pierce.k12.ca.us,630360
36030635,dublinunified,CA,7471larkdaleave.,dublin,94568,9258282551,dublin.k12.ca.us,600019
36030636,pineridgeelementary,CA,45828auberryroad,auberry,93602,5598412444,pineridge.k12.ca.us,630390
36030637,dunhamelementary,CA,4111roblarroad,petaluma,94952,7077955050,dunhamsd.org,611610
36030638,piner-olivetunion,CA,3450coffeyln.santa,rosa,95403,7075223000,pousd.org,626220
36030639,dunsmuirelementary,CA,4760siskiyouavenue,dunsmuir,96025,5302354828,dunsmuir.k12.ca.us,611670
36030640,dunsmuirjointunionhigh,CA,5805highschoolway,dunsmuir,96025,5302354835,dunsmuirhigh.k12.ca.us,611700
36030642,happyvalleyunionelementary,CA,16300cloverdalerd.,anderson,96007,5303572134,hvusd.net,616570
36030643,eastwhittiercityelementary,CA,14535e.whittierblvd,whittier,90605,5629075900,ewcsd.org,611850
36030644,harmonyunionelementary,CA,1935bohemianhighway,occidental,95465,7078741205,harmonyusd.org,616620
36030645,hermosabeachcityelementary,CA,1645valleydrivehermosa,beach,90254,4243339975,hbcsd.org,617040
36030646,eastsideunion,CA,4493830thstreeteast,lancaster,93535,6619521200,eastsideusd.org,2927830
36030647,edisonelementary,CA,11518schoolstreet,bakersfield,93307,6613635394,edison.k12.ca.us,611940
36030648,hilmarunified,CA,7807n.landeravenue,hilmar,95324,2096675701,hilmarusd.org,617220
36030649,elmontecity,CA,3540northlexingtonave.el,monte,91731,6264533700,web.emcsd.org,612090
36030650,eltejonunified,CA,4337lebecroad,lebec,93243,6612486247,el-tejon.k12.ca.us,600026
36030651,holtvilleunified,CA,621esixthst.,holtville,92250,nan,husd.net,617430
36030652,empireunion,CA,116northmcclurerd,modesto,95357,2095212800,empire.k12.ca.us,1302910
36030654,hopeelementary,CA,3970lacolinardsanta,barbara,93110,8056822564,hopesdk6.org,1908610
36030655,eurekaunion,CA,5455eurekard.granite,bay,95746,9167914939,eurekausd.org,613080
36030656,horiconelementary,CA,35555annapolisroad,annapolis,95412,7078865322,horiconesd.org,617580
36030657,fairfax,CA,1500s.fairfaxrd.,bakersfield,93307,6613667221,fairfax.k12.ca.us,623820
36030658,fallbrookunionelementary,CA,321iowast.,fallbrook,92028,7607315400,fuesd.org,613500
36030659,howellmountainelementary,CA,525whitecottageroadnorth,angwin,94508,7079652423,hmesd.org,617760
36030660,hughsonunified,CA,7488foxroadp.o.box189,hughson,95326,2098834428,hughsonschools.org,600060
36030661,lapuentevalleyregionaloccupationalprogram,CA,1680dukest.fl2,alexandria,nan,nan,nsba.org,1931920
36030662,acalanesunionhigh,CA,1212pleasanthillrd,lafayette,94549,9252803900,acalanes.k12.ca.us,601650
36030663,igo-ono-platinaunionelementary,CA,6429placerrd.,igo,96047,5303962841,igo.reddingschools.net,639000
36030664,acton-aguadulceunified,CA,32248crownvalleyroad,acton,93510,6612690750,aadusd.k12.ca.us,600001
36030665,islandunionelementary,CA,779921stave,lemoore,93245,5599246424,island.k12.ca.us,618510
36030666,satsumacity,AL,220bakerroad,satsuma,36572,2513808187,satsumaschools.com,100189
36030667,adelantoelementary,CA,11824airexpressway,adelanto,92301,7602468691,aesd.net,601710
36030668,alamedaofficeofeducation,CA,313westwintonave,hayward,94544,5108870152,acoe.org,691051
36030669,jamul-dulzuraunion,CA,14581lyonsvalleyroad,jamul,91935,6196697702,jdusd.net,611780
36030670,alamedaunified,CA,2060challengerdr,alameda,94501,5103377187,alamedaunified.org,601770
36030671,johnstonvilleelementary,CA,704-795banghamlane,susanville,96130,5302572471,johnstonville.org,619050
36030672,albanyunified,CA,1216solanoavenue,albany,94706,5105583750,ausdk12.org,408130
36030673,kelseyvilleunified,CA,4410konoctiroad,kelseyville,95451,7072791511,kvusd.org,619320
36030674,alexandervalleyunion,CA,8511highway128,healdsburg,95448,7074331375,alexandervalleyusd.org,100780
36030675,alisalunion,CA,155bardinroad,salinas,93905,8317535700,alisal.org,601950
36030676,kenwood,CA,230randolphavenue,kenwood,95452,7078332500,kenwoodschool.org,619410
36030677,alpaughunified,CA,5313road39pobox9,alpaugh,93201,5599498413,alpaughusd.org,602010
36030678,kernhigh,CA,5801sundaleave,bakersfield,93309,6618273100,kernhigh.org,619540
36030679,altaloma,CA,9390baselineroadalta,loma,91701,9094845151,alsd.k12.ca.us,3700300
36030680,kernvilleunion,CA,3240erskinecreekroadlake,isabella,93240,7603793651,kernvilleusd.org,1900040
36030681,altavistaelementary,CA,2293e.crabtreeave.,porterville,93257-5225,5597825700,altavistaesd.org,602220
36030682,keyesunion,CA,4801lucindaave,keyes,95238,2096692921,keyes.k12.ca.us,619620
36030683,alumrockunion,CA,2930gayavesan,jose,95127,4089286800,arusd.org,618690
36030684,kingcityunion,CA,104s.vanderhurstave.,kingcity,93930,8313852940,kcusd.org,619680
36030686,kingsriverunionelementary,CA,3961avenue400,kingsburg,93631,5598977209,kingsriverelementary.org,619740
36030687,amadorunified&amadorofficeofeducation,CA,217rexavenue,jackson,95642,2092231750,amadorcoe.org,618690
36030688,kingsriver-hardwick,CA,609southgoldstreet,yreka,nan,nan,kingsriverhardwick.com,601680
36030689,anaheimelementary,CA,1001seastst.,anaheim,92805,7145177500,anaheimelementary.org,602610
36030690,willowlake12-3,SD,114parkwayhappy,camp,nan,nan,willowlake.k12.sd.us,4679350
36030692,antelopevalleyunionhigh,CA,13777bowmanroad,auburn,nan,nan,avdistrict.org,602820
36030694,kingsburgelementarycharter,CA,1310stroudave,kingsburg,93631,5598972331,kesd.org,619800
36030695,arcataelementary,CA,1435buttermilkln.,arcata,95521,7078220351,arcataschooldistrict.org,603000
36030696,kingsburgjointunionhigh,CA,62428centerstreetsan,ardo,nan,nan,kjuhsd.com,619830
36030697,armonaunionelementary,CA,11115cstreetpobox368,armona,93202,5595835000,auesd.com,603180
36030698,atascaderounified,CA,2300highway166new,cuyama,nan,nan,atasusd.org,603300
36030699,lahabracity,CA,500northwalnutstreetla,habra,90631,5626902305,lahabraschools.org,641430
36030701,lamesa-springvalley,CA,2473caredrivesuite200,tallahassee,nan,nan,lmsvschools.org,620250
36030702,azusaunified,CA,546so.citrusave,azusa,91702,6269676211,azusa.org,603600
36030703,bakervalleyunified,CA,72100schoolhouselanepobox460,baker,92309,7607334567,baker.k12.ca.us,603610
36030705,baldwinparkunified,CA,3699northhollyavenuebaldwin,park,91706,6269623311,bpusd.net,603690
36030706,lagunita,CA,oldistrict975sanjuangraderoad,salinas,93907,8314492800,lagunitadistrict.org,627120
36030707,basslakejointelementary,CA,40096indianspringsrd,oakhurst,93644,5596421555,basslakeschooldistrict.com,620700
36030708,lakeportunified,CA,2508howardavenue,lakeport,95453,7072623000,lakeportusd.org,620670
36030709,bayshoreelementary,CA,155orientestreet,dalycity,94014,4154675443,thebayshoreschool.org,604200
36030710,borregospringsunified,CA,2281dieguenord.borrego,springs,92004,7607675357,bsusd.net,605700
36030711,lakesidejoint,CA,19621blackroadlos,gatos,95033,4083542372,lakesidelosgatos.org,620700
36030712,brawleyelementary,CA,261dstreet,brawley,92227,7603442330,besd.org,605790
36030713,burlingame,CA,1825trousdaledrive,burlingame,94010,6502593800,burlingameschools.org,607560
36030714,calexicounified,CA,901andradeave.,calexico,92231,nan,cusdk12.org,606900
36030716,campbellunion,CA,155nthirdstreet,campbell,95008,4083644200,campbellusd.org,607200
36030717,lakesideunion,CA,12335woodsideavenue,lakeside,92040,6193902600,lsusd.net,620730
36030718,carpinteriaunified,CA,4114madisonst.box388aelk,horn,nan,nan,cusd.net,607560
36030719,caruthersunified,CA,1tillerave,caruthers,93609,5594956400,caruthers.k12.ca.us,600067
36030720,lasvirgenesunified,CA,4111lasvirgenesroad,calabasas,91302,8188804000,lvusd.org,621000
36030721,latrobe,CA,7900s.shingleroad,california,95682,5306770260,latrobe.k12.ca.us,621180
36030723,elvertajointelementary,CA,7900eloiseavenue,elverta,95626,9169912244,ejesd.net,612600
36030724,encinitasunion,CA,101s.ranchosantaferoad,encinitas,92024,7609444300,eusd.net,600052
36030725,centinelavalleyunionhigh,CA,14901s.inglewoodavenue,lawndale,90260,3102633200,cvuhsd.org,607920
36030726,escondidounionhigh,CA,302northmidwaydrive,escondido,92027,7602913200,euhsd.org,612910
36030727,escondidounion,CA,2310aldergroveave,escondido,92029,7604322400,eusd.org,612880
36030728,eurekacity,CA,districtoffice2100jstreet,eureka,95501,7074412400,eurekacityschools.org,600052
36030729,centralunionhigh,CA,351wrossavenueel,centro,92243,7603364500,cuhsd.net,608010
36030730,centralunified,CA,4605northpolkavenue,fresno,93722,5592744700,https:,607970
36030732,chicounified,CA,1163eastseventhstreet,chico,95928,5308913000,chicousd.org,608370
36030733,fallbrookunionhigh,CA,2234southstagecoachlane,fallbrook,92028,7607236332,fuhsd.net,613530
36030734,ferndaleunified,CA,1231mainstreet,ferndale,95536,7077865900,ferndalek12.org,600037
36030735,coalinga-huronunified,CA,657sunsetst.,coalinga,93210,5599357500,chusd.org,609120
36030736,fontanaunified,CA,9680citrusavenue,fontana,92335,9093575000,fusd.net,613920
36030738,forestvilleunion,CA,6321hwy116,forestville,95436,7078872279,forestvilleusd.org,
36030739,corningunionelementary,CA,1005hoagstreet,corning,96021,5308247700,corningelementary.org,609780
36030740,fortbraggunified,CA,312s.lincolnstfort,bragg,95437,7079612850,sites.google.com,614070
36030741,corona-norcounified,CA,2820clarkave,norco,92860,9517365000,cnusd.k12.ca.us,609850
36030742,fortsageunified,CA,100d.s.hallst.,herlong,96113,5308272129,fortsage.org,600011
36030743,fortunaelementary,CA,53412thstreet,fortuna,95540,7077252293,fortunaesd.com,601420
36030744,covina-valleyunified,CA,519e.badillost.,covina,91723,6269747000,c-vusd.org,610050
36030745,franklin-mckinleyelementary,CA,645woolcreekdrivesan,jose,95112,4082836000,fmsd.org,614370
36030746,cucamonga,CA,8776archibaldavenuerancho,cucamonga,91730,9099878942,cucamonga-ca.schoolloop.com,3009120
36030747,fremontunionhigh,CA,589w.fremontave,sunnyvale,94087,4085222200,fuhsd.org,614430
36030748,cypress,CA,5816corporateavenuesuite100,cypress,90630,7142206900,cypsd.org,3005760
36030750,davisjointunified,CA,526bstreet,davis,95616,5307575300,djusd.net,610620
36030751,gerberunionelementary,CA,23014chardave,gerber,96035,5303851041,gerberschool.org,615090
36030752,delnorteunified,CA,301wwashingtonblvd,crescentcity,95531,7074646141,dnusd.org,610770
36030753,delanojointunionhigh,CA,1720norwalkstreet,delano,93215,6617254000,djuhsd.org,610860
36030755,delanounion,CA,140512thavenue,delano,93215,6617215000,duesd.org,3002300
36030756,glendoraunified,CA,500n.loraineave.,glendora,91741,6269631611,glendora.k12.ca.us,615270
36030757,desertcenterunified,CA,1434kaiserrdpobox6desert,center,92239,7604132646,dcusd.us,611100
36030758,goldtrailunion,CA,1575oldranchroad,placerville,95677,5306263194,gtusd.org,3004380
36030759,desertsandsunified,CA,47-950dunepalmsrdla,quinta,92253,7607774200,dsusd.us,611110
36030760,dinubaunified,CA,1327eelmonteway,dinuba,93618,5595957200,dinuba.k12.ca.us,600065
36030761,goldenfeatherunion,CA,2771pentzrd.,oroville,95965,5305333467,gfusd.org,3007710
36030762,millercreek,CA,"380novaalbionway,sanrafaelsan",rafael,94903,4154923700,millercreeksd.org,3000102
36030763,goldenplainsunified,CA,22000nevadastreetsan,joaquin,93660,5592105801,gpusd.org,691134
36030764,duarteunified,CA,1105favenue,circle,nan,nan,duarteusd.org,611520
36030765,gormanjoint,CA,49847gormanschoolroadp.o.box104,gorman,93243,6612486441,gormanschool.com,615600
36030766,earlimart,CA,p.o.box11970785eastcenteravenue,earlimart,93219,6618493386,earlimart.org,612180
36030767,easternsierraunified,CA,231kingsleyst.,bridgeport,93517,7609327443,esusd.org,611870
36030768,grantelementary,CA,8835swaseydr,redding,96001,nan,grantschoolcougars.com,615690
36030770,elcentroelementary,CA,1256broadwayel,centro,92243,7603525712,ecesd.org,612030
36030771,elranchounified,CA,205southwashingtonstreet,boulder,nan,nan,erusd.org,612180
36030772,greenfieldunion,CA,493elcaminoreal,greenfield,93927,8316742840,greenfield.k12.ca.us,616050
36030774,emeryunified,CA,4727sanpabloavenue,emeryville,94608,5106014906,emeryusd.k12.ca.us,612630
36030775,grenadaelementary,CA,516shastaboulevard,grenada,96038,5304362233,grenadaesd.org,616110
36030777,haciendalapuenteunified,CA,15959e.galeave.cityof,industry,91745,6269331000,hlpschools.org,616325
36030778,hamiltonunified,CA,620canalstreetp.o.box488,hamiltoncity,95951,5308263261,husdschools.org,601339
36030779,hanfordelementary,CA,714n.whitest.,hanford,93230,5595853600,hanfordesd.org,616470
36030780,hanfordjointunionhigh,CA,823w.laceyboulevard,hanford,93230,5595835901,hjuhsd.k12.ca.us,616500
36030781,happyvalleyelementary,CA,3125brancifortedr.santa,cruz,95065,8314291456,hvesd.com,616560
36030782,pioneerunionelementary,CA,1888mustangdr.,hanford,93230,5595852400,puesd.net,3011650
36030783,pittsburgunified,CA,2000railroadavenue,pittsburg,94565,9254732300,pittsburgusd.net,630600
36030784,pixleyunion,CA,300n.schoolst,pixley,93256,5597575207,pixley.k12.ca.us,3011730
36030785,planadaelementary,CA,pobox236,planada,95365-0236,2093820756,planada.org,630840
36030786,pleasantviewelementary,CA,14004road184,porterville,93257-9061,5597846769,pleasant-view.org,631050
36030787,pomonaunified,CA,p.o.box2900,pomona,91769-2900,9093974800,proudtobe.pusd.org,631320
36030788,pondunion,CA,29585pondrd,wasco,93280-9772,6617922545,pond.k12.ca.us,642810
36030789,portervilleunified,CA,600westgrandave.,porterville,93257,5597932400,portervilleschools.org,600064
36030790,portolavalley,CA,4575alpineroadportola,valley,94028,6508511777,pvsd.net,3016290
36030791,powayunified,CA,15250avenueofsciencesan,diego,92128-3406,8585212800,powayusd.com,631530
36030792,wilsona,CA,18050eastavenueo,palmdale,93591,6612641111,wilsonasd.net,641580
36030793,woodlakeunified,CA,300w.whitneyave,woodlake,93286,5595648081,https:,601418
36030794,yrekaunionhigh,CA,400preeceway,yreka,96097,5308422521,yuhsd.net,643410
36030795,yubacityunified,CA,"425plumasblvd.,suite200",yubacity,95991,5308225200,ycusd.org,643470
36030796,washingtonunified,CA,930westacrerdwest,sacramento,95691-3224,9163757600,wusd.k12.ca.us,3019170
36030797,eldoradounionhigh,CA,4675missouriflatrd.,placerville,95667,5306225081,eduhsd.k12.ca.us,612070
36030798,woodlandjointunified,CA,4356thstreet,woodland,95695,5306620201,wjusd.org,643080
36030799,capistranounified,CA,33122vallerdsanjuan,capistrano,92675,9492349200,capousd.org,607440
36030800,huntingtonbeachunionhigh,CA,5832bolsaavenuehuntington,beach,92649,7149037000,hbuhsd.edu,618060
36030801,goletaunion,CA,401northfairviewavenue,goleta,93117,8056811200,gusd.us,3021000
36030802,bonnydoonunionelementary,CA,1492pineflatroadsanta,cruz,95060,8314272300,bduesd.org,605640
36030803,mountainviewlosaltoshigh,CA,1299bryantave.mountain,view,94040,6509404650,mvla.net,625500
36030804,yoloofficeofeducation,CA,"1280santaanitacourt,suite100",woodland,95776,5306686700,ycoe.org,691049
36030805,huntingtonbeachcity,CA,8750dorsettdrivehuntington,beach,92646,7149648888,hbcsd.k12.ca.us,3016110
36030807,arvinunion,CA,214firststreeteast,lavina,nan,nan,arvinschools.com,603270
36030808,montecitounion,CA,385sanysidroroadsanta,barbara,93108,8059693249,montecitou.org,608190
36030809,montereypeninsulaunified,CA,700pacificst.,monterey,93942,8316451200,mpusd.net,625530
36030810,carmelunified,CA,4380carmelvalleyroad,carmel,93923,8316241546,carmelunified.org,607530
36030811,colfaxelementary,CA,24825bentaylorrd.,colfax,95713,5303462202,colfax.k12.ca.us,609300
36030812,buckeyeunionelementary,CA,5049robertj.mathewsparkwayeldorado,hills,95762,5306772261,custercountymt.gov,606270
36030813,charteroakunified,CA,311youngstreetmedicine,lake,nan,nan,cousd.net,608190
36030814,columbiaunion,CA,22540parrotsferryroad,columbia,95310,2095320202,cusd49.com,609480
36030815,washingtoncolonyelementary,CA,130e.lincolnave,fresno,93706,5532330706,washingtoncolony.org,641460
36030816,lutherburbank,CA,4wabashavenuesan,jose,95128,4082952450,lbsd.k12.ca.us,623130
36030817,vistadelmarunion,CA,9467sanjulianroad,gaviota,93117,8056861880,vdmusd.org,641220
36030818,waterfordunified,CA,"219northreinwayave,building2",waterford,95386,2098741809,waterford.k12.ca.us,600063
36030819,bonitaunified,CA,115w.allenave.san,dimas,91773,9099718200,do.bonita.k12.ca.us,605610
36030820,castaicunion,CA,28131livingstonave.,valencia,91355,6612574500,castaicusd.com,607740
36030821,escalonunified,CA,1520yosemiteave,escalon,95320,2098383591,escalonusd.org,612840
36030822,alview-dairylandunionelementary,CA,12861avenue181/2,chowchilla,93610,5596652394,adusd.k12.ca.us,602360
36030823,atwaterelementary,CA,1401broadwayave.,atwater,95301,2093576100,aesd.edu,603420
36030824,cabrillounified,CA,498kellyavenuehalfmoon,bay,94019,6507127100,cabrillo.k12.ca.us,606780
36030825,durhamunified,CA,pobox300,durham,95938,5308954675,durhamunified.org,611730
36030826,fairfield-suisununified,CA,2490hilbornroad,fairfield,94534,7073995000,fsusd.org,613360
36030827,galtjointunionelementary,CA,"1018cstreet,suite210",galt,95632,2097444545,gjuesd-ca.schoolloop.com,614790
36030828,geyservilleunified,CA,1300moodylane,geyserville,95441,7078573592,gusd.com,615150
36030829,gustineunified,CA,1500meredithave.,gustine,95322,2098543784,gustineusd.org,616323
36030830,maderaunified,CA,1902howardroad,madera,93637,5596754500,richey.k12.mt.us,623340
36030831,marcum-illinoisunionelementary,CA,2452elcentroblvdeast,nicolaus,95659,5306562407,marcum-illinois.org,623800
36030832,mountainempireunified,CA,3291buckmanspringsrd.pine,valley,91962,6194739022,meusd.org,626100
36030833,sanjuanunified,CA,3738walnutavenue,carmichael,95608,9169717111,sanjuan.edu,634620
36030834,southerntrinityjointunified,CA,680vanduzenrdmad,river,95526,7075746237,stjusd.org,637630
36030835,susanville,CA,368mesastreet,savage,nan,nan,susanvillesd.org,3028380
36030837,bassettunified,CA,904willowavenuela,puente,91746,6269313000,bassettusd.org,604110
36030838,vallejocityunified,CA,665walnutave,vallejo,94592,7075568921,vcusd.org,640740
36030839,vineland,CA,14713weedpatchhwy.,bakersfield,93307,6618453713,vinelandsd.org,3028830
36030840,westsideelementary,CA,19191w.excelsioravenuepobox398five,points,93624,5598842492,westside-elem.k12.ca.us,642210
36030843,scottsvalleyunified,CA,"108whisperingpinesdrive,suite115scotts",valley,95066,8314381820,scottsvalleyusd.org,600043
36030845,scottvalleyunified,CA,11918mainst.fort,jones,96032-0687,5304682727,svusd.us,600159
36030846,westsideunionelementary,CA,4191450thstreetwestquartz,hill,93536,6617220716,westside.k12.ca.us,3025500
36030849,collegecommunity,IA,districtmainoffice8005prairiespiritlanedriveswcedar,rapids,52404,3198485340,crprairie.org,3012510
36030850,californiastateassociationofcounties,CA,"1100kstreet,suite101",sacramento,95814,9163277500,counties.org,3016530
36030854,sullivan,MO,138taylorstreet,sullivan,63080,5734685171,sullivaneagles.org,2929760
36030855,csbasamplemanualsite,CA,1734road506,milescity,nan,nan,csba.org,
36030856,nianguar-v,MO,7435duffylanecanyon,creek,nan,nan,nianguaschools.com,2922500
36030857,idahoboardsassociation,ID,4schoollanetrout,creek,nan,nan,idsba.org,638250
36030862,lincoln,GA,423metasvilleroad,lincolnton,30817,7063593742,lincolncountyschools.org,1303330
36030863,junctionelementary,CA,9087deschutesrd.palo,cedro,96073,5305473274,junctionesd.net,619200
36030866,olinconsolidated,IA,212trilbystreet,olin,52320,3194842170,olin.k12.ia.us,1921720
36030867,emmettindependent221,ID,119nwardwellave,emmett,83617,2083656301,emmettschools.org,1601020
36030870,bantaunified,CA,22375elranchoroad,tracy,95304,2092294651,bantasd.org,602571
36030871,summervilleelementary,CA,18451carterstreet,tuolumne,95379,2099284291,sumel.k12.ca.us,638250
36030872,haleyvillecity,AL,201120thstreet,haleyville,35565,2054869231,haley-k12.us,101720
36030873,bibb,AL,721walnutstreet,centreville,35042,2059269881,bibbed.org,100360
36030875,murphyelementary,AZ,3140westbuckeyeroad,phoenix,85009,6023535004,msdaz.org,100202
36030876,avilabeachcharter,CA,1636caldwelldr.,solvang,93463,8056881717,avilabeachcharter.org,3701500
36030877,boise,ID,8169westvictoryroad,boise,83709,2088544000,boiseschools.org,3009930
36030880,junctioncityelementary,CA,430redhillroad,junctioncity,96048,5306236381,jcesd.org,619170
36030881,breaolindaunified,CA,"1civiccentercircle,level2",brea,92821,7149907800,bousd.us,1910340
36030883,bigspringsunionelementary,CA,7405highwaya-12,montague,96064,5304593189,bigspringsschool.org,604980
36030884,gulfshorescity,AL,300east16thavenuegulf,shores,36542,2519689873,gsboe.org,100202
36030885,winston-salem/forsyth,NC,pobox2513,winston-salem,27102-2513,3367272816,wsfcs.k12.nc.us,3028860
36030886,pellcity,AL,310515thavenuenorth,pellcity,35125,2058844440,pellcityschools.net,102650
36030887,st.louislanguageimmersion,MO,1881pinestreetst.,louis,63103,3145330975,sllis.org,3017580
36030888,rivervalleycommunity,IA,916hackberryst,correctionville,51016,7123724656,rvwolverines.org,608550
36030890,middletonno.134,ID,5s.vikingavenue,middleton,83644,nan,msd134.org,
36030891,westsonomaunionhigh,CA,462johnsonstreet,sebastopol,95472,7078246403,wscuhsd.org,602670
36030892,cardinalcommunity,IA,4045ashlandrd,eldon,52554,nan,cardinalcomet.com,4675600
36030893,espartounified,CA,1114thavenueeast,polson,nan,nan,eusdk12.org,612930
36030895,sanysidro,CA,4350otaymesaroadsan,ysidro,92173,6194284476,sysdschools.org,635220
36030896,chowchillaunionhigh,CA,805humboldtave.,chowchilla,93610,5596653662,chowchillahigh.k12.ca.us,608550
36030897,bullock,AL,108hardawayavenueunion,springs,36089,3345131416,bullockcounty.schoolinsites.com,100480
36030900,vallelindoelementary,CA,1431n.centralave.southel,monte,91733,6265800610,vallelindo.k12.ca.us,640650
36030901,smee15-3,SD,45465gallatinroadgallatin,gateway,nan,nan,smee.k12.sd.us,4675600
36030903,barstowunified,CA,"551s.aveh,",barstow,92311,7602556000,busdk12.com,604020
36030905,kootenai#274,ID,13030e.o'garard,harrison,83833,2086893631,sd274.com,600014
36030906,cloverdaleunified,CA,97schoolst.,cloverdale,95425,7078941993,cusd.org,608970
36030907,centralunion,CA,1578318thavenue,lemoore,93245,5599243405,central.k12.ca.us,630930
36030908,fieldbrookelementary,CA,4070fieldbrookrd,mckinleyville,95519,7078393201,fbk8.org,613740
36030909,freshwaterelementary,CA,75greenwoodheightsdrive,eureka,95503,7074422969,freshwatersd.org,614520
36030910,greenfieldunionelementary,CA,1624fairviewroad,bakersfield,933007,6618376000,gfusd.net,616080
36030911,hesperiaunified,CA,15576mainst,hesperia,92345-3482,7602444411,hesperiausd.org,600014
36030912,paloverdeunion,CA,9637ave.196,tulare,93274,5596880648,palo-verde.k12.ca.us,629430
36030915,pleasantridgeunion,CA,22580kingstonlanegrass,valley,95949,5302682800,prsd.us,3027570
36030916,springvillecommunity,IA,602millavenue,springville,52336,3198546197,springville.k12.ia.us,3011100
36030917,morgan,AL,312southmain,boulder,nan,nan,morgank12.org,102480
36030918,hermitager-iv,MO,300northparkstreet,joliet,nan,nan,hermitage.k12.mo.us,2914310
36030919,paramountunified,CA,15110californiaave,paramount,90723-4320,5626026000,paramount.k12.ca.us,629850
36030920,pacificunionelementary,CA,3001janesroad,arcata,95521,7078224619,pacificunionschool.org,605490
36030921,wiseburnunified,CA,201n.douglasstreetel,segundo,90245,3107252101,wiseburn.org,601428
36030922,evergreenunion,CA,19500learningway,cottonwood,96022,5303473411,evergreenusd.org,613170
36030924,montgomery,AL,307s.decaturstreet,montgomery,36104,3342236700,mps.k12.al.us,102430
36030926,westshoreeducationalservice,MI,2130westus-10,ludington,49431,2317573716,wsesd.org,2680755
36030927,mcintoshtrailcsb,GA,p.o.box1320,griffin,30224,7703585252,mctrail.org,1932010
36030929,oakgrove,CA,6578santateresablvd.san,jose,95119-1204,4082278300,ogsd.net,2926790
36030931,monoofficeofeducation,CA,box380,simms,nan,nan,monocoe.org,691052
36030932,modestocity,CA,426locuststreet,modesto,95351,2095741500,mcs4kids.com,601330
36030933,inyoofficeofeducation,CA,166grandviewdrive,bishop,93514,7608733262,inyocoe.org,691011
36030934,newhanover,NC,2331stavenueeast,kalispell,nan,nan,nhcs.net,3703330
36030935,centerpoint-urbanac,IA,145iowast/pobox296center,point,52213,3198491102,cpuschools.org,100090
36030936,rockportr-ii,MO,pobox159,colstrip,nan,nan,rockport.k12.mo.us,2926790
36030937,albanyr-iii,MO,4333rdstreet,columbus,nan,nan,albany.k12.mo.us,2902970
36030938,westlyoncommunity,IA,1787iowa182ndstreet,inwood,51240,7127534917,wlwildcats.org,1926790
36030940,hopeelementary(porterville),CA,613wteapotdomeavenue,porterville,93257,5597841064,hope-esd.org,691002
36030941,northcarolinacyberacademy,NC,2800meridianparkwaysuite150,durham,27713,9842629237,myncca.com,3700386
36030942,annistoncity,AL,4804mcclellanblvd.,anniston,36206,2562315000,annistonschools.com,100090
36030943,lakepreston38-3,SD,12mainstreet,roundup,nan,nan,lakepreston.k12.sd.us,4639990
36030944,vanmetercommunity,IA,5201stavenuevan,meter,50261,5159962221,vmbulldogs.com,1903690
36030949,washingtonstateboardofeducation,WA,600washingtonstreetsep.o.box47206,olympia,47206,3607256025,sbe.wa.gov,1908940
36030950,butteofficeofeducation,CA,1859birdstreet,oroville,95965,5305325650,bcoe.org,691002
36030951,raymondviller-vii,MO,1477ashst,worden,nan,nan,rville.k12.mo.us,2926040
36030954,iasbpolicymanagementconsole,IA,400fallonstreetwolf,pont,nan,nan,wolfpointschools.org,101380
36030957,clarke,GA,595princeavenue,athens,30601,7065467721,clarke.k12.ga.us,1301170
36030958,midway,CA,259fst.,fellows,93224,6617684344,midwayschooldistrict.org,605490
36030959,alvinaelementarycharter,CA,295westsaginawave,caruthers,93609,5598649411,alvinaelementaryschool.org,1918510
36030960,weldoncity,NC,301mulberrystreet,weldon,27890,2525364821,weldoncityschools.org,3704890
36030961,northpolkcommunity,IA,13930ne6thst,alleman,50007,5159843400,northpolk.org,641880
36030962,fowlerunified,CA,658e.adamsave,fowler,93625,5598346080,fowlerusd.org,614250
36030964,sangabrielvalleyrop,CA,1134southbarrancaavenue,glendora,91740,6264725121,sgvrop.org,1932010
36030965,poplarbluffr-i,MO,1110n.westwoodboulevardpoplar,bluff,63901,5737857751,poplarbluffschools.net,2925450
36030967,maldenr-i,MO,2754knoxrd.,sidney,nan,nan,maldenmoschools.org,2919890
36030968,plannedparenthoodsoutheast,GA,241peachtreestne#400,atlanta,30303,nan,plannedparenthood.org,603780
36030969,prairielakesareaeducationagency,IA,500ne6thst,pocahontas,50574,7123353588,plaea.org,1301410
36030971,arsbapolicymanagementconsole,AR,300simmonsstreet,opelika,nan,nan,opelikaschools.org,102580
36030972,southo'brien,IA,216srutledgestreet,paullina,51046,7129492115,soswolverines.org,607770
36030973,gridleyunified,CA,429magnoliastreet,gridley,95948,5308464721,gusd.org,600051
36030974,weedunionelementary,CA,575whiteavenue,weed,96094,5309386103,wes-weed-ca.schoolloop.com,641980
36030976,whittiercityelementary,CA,7211s.whittierave,whittier,90602,5627893000,whittiercity.net,642450
36030977,barbour,AL,pobox429,clayton,36016,3347753453,barbourcountyschools.org,100300
36030978,oskaloosacommunity,IA,185s.mainstreetpobox760,altaville,nan,nan,oskyschools.org,1906270
36030980,pointarena,CA,45lakestreetpoint,arena,95468,7078822803,pointarenaschools.org,2927450
36030981,hintoncommunity,IA,315w.grandstreet,hinton,51024,7129474329,hintonschool.com,624300
36030983,chickasawcity,AL,201n.crafthighway,chickasaw,36611,2514522256,chickasawschools.com,100188
36030984,franklinr-ii,MO,3128highwayynew,haven,63068,5732372414,fcr2.org,1903690
36030985,edenarearop,CA,26316hesperianblvd,hayward,94545,5102932900,edenrop.org,600085
36030986,grizzlychallengecharter,CA,"721mendocinoave.,bldg945sanluis",obispo,93405,18057826881,grizzlyyouthacademy.org,642270
36030988,pennvalleyunionelementary,CA,17328pennvalleydr.suiteapenn,valley,95946,5304327311,pvuesd.org,601427
36030990,mediapoliscommunity,IA,725n.northfieldstreetpobox358,mediapolis,52637,3193943101,meposchools.org,101380
36030991,orearviller-iv,MO,103mathewsdrive,gilbert,nan,nan,orearvilletigers.k12.mo.us,2927450
36030993,lahonda-pescaderounified,CA,360butanocutoff,pescadero,94060,6508790286,lhpusd.com,620220
36031002,eaglebutte20-1,SD,612s.vermontstreet,maquoketa,nan,nan,ceb.k12.sd.us,4620100
36031004,lagunitaselementary,CA,802westsixthstreet,sumner,nan,nan,lagunitas.org,620520
36031005,newtoncommunity,IA,1302firstavenuewest,newton,50208,6417925809,newtoncsd.org,641880
36031007,westsideunionelementary,CA,1201feltard.,healdsburg,95448-9399,7074333923,westsideusd.org,2731800
36031008,greatprairieareaeducationagency,IA,2814n.court,ottumwa,52501,6416828591,gpaea.org,607230
36031013,pioneerunionelementary,CA,6862mountaukumrd.,somerset,95684,5306203556,pioneerusd.org,1903090
36031014,atlanta,GA,130trinityave.sw,atlanta,30303,4048022255,atlantapublicschools.us,1300120
36031016,meridianmedicalartscharterhigh,ID,1789e.heritageparklane,meridian,83646,2088554075,meridianmedicalartscharter.org,1931110
36031017,bluelakeunionelementary,CA,p.o.box268blue,lake,95525-0268,7076685674,bluelakeschool.org,605400
36031018,tyrrell,NC,1107hwy64east,columbia,27925,2527961121,tyrrell.k12.nc.us,3704590
36031019,cherokee,AL,130eastmainst.,centre,35960,nan,cherokeek12.org,100630
36031020,meadowsunionelementary,CA,2059bowkerrd.el,centro,92243,7603527512,meadowsunion.org,1603330
36031021,campbellunionhigh,CA,3235unionave.san,jose,95124-2009,4083710960,cuhsd.org,607230
36031022,bakerystem,GA,p.o.box40260highway37,newton,39870,2297345346,baker.k12.ga.us,628830
36031023,southbayunion,CA,601elmaveimperial,beach,91932,nan,sbusd.org,637380
36031024,lyman42-1,SD,430schoolstreet,carlisle,nan,nan,lyman.k12.sd.us,4644770
36031025,russell,AL,p.o.box40050614thstreet,phenixcity,36867,3344685540,myrcsd.org,102880
36031026,osceola,MO,2275centralave,mckinleyville,nan,nan,osceola.k12.mo.us,2923270
36031027,pimaunified,AZ,192e.200s.|p.o.box429,pima,85543,9283878000,pimaschools.org,406440
36031030,lsbasamplemember,LA,1100murraydrivep.o.box1043el,cajon,nan,nan,guhsd.net,642060
36031032,dadecommissioners,GA,71caseavenuesuite243,trenton,30752,nan,dadecounty-ga.gov,605520
36031033,mountainviewelementary,CA,2585southarchibaldavenue,ontario,91761,9099472205,mtnview.k12.ca.us,1907920
36031034,autauga,AL,153w.4thstreet,prattville,36067,3343655706,acboe.net,100240
36031035,tehamaselpa,CA,310e.2ndstreet,oxford,nan,nan,tehamacountyselpa.org,2927830
36031036,bigpineunified,CA,p.o.box908500s.mainst.big,pine,93513-0908,7609382005,bigpineschools.org,604950
36031037,maysviller-l,MO,1010n.mainst.santa,ana,nan,nan,maysville.k12.mo.us,1915750
36031038,libertyelementary,CA,170libertyschoolrd,petaluma,94952-1074,7077954380,libertysd.org,621540
36031039,chieftahgeeelementaryacademy,ID,p.o.box21734southhilinerd.fort,hall,83203,2082372710,cteacademy.org,1903480
36031040,couchr-i,MO,410pinestreet,mondamin,nan,nan,couch.k12.mo.us,2910200
36031041,raisincityelementary,CA,6425w.bowles,raisincity,93652,5592330128,raisincity.k12.ca.us,631680
36031042,mississippibendareaeducationagency,IA,72921ststreet,bettendorf,52722,nan,mbaea.org,627900
36031043,northst.francoisr-i,MO,1422southtechlane,meridian,nan,nan,ncsd.k12.mo.us,630870
36031044,sedalia#200,MO,2806matthewdrive,sedalia,65301,6608296450,sedalia200.org,605240
36031045,boonviller-i,MO,736mainstreet,boonville,65233,nan,bpsk12.net,2905580
36031047,manesr-v,MO,476mainstreet,trussville,nan,nan,manes.k12.mo.us,2919950
36031048,johnston,NC,2320us70businesshwyeast,smithfield,27577,9199346031,johnston.k12.nc.us,3702370
36031049,marsing,ID,2058thavenuewest,marsing,83639,nan,marsingschools.org,1922440
36031050,daviscommunity,IA,608swashingtonst,bloomfield,52537,6416642200,dcmustangs.com,604500
36031051,converse#1,WY,schooladministrationofficeboardroom820desmoinesst.,webstercity,nan,nan,ccsd1.org,5602140
36031052,northwestareaeducationagency,IA,5800discoveryblvd,siouxcity,51111,nan,nwaea.org,1930480
36031053,jones37-3,SD,2211washingtonavenue,oroville,nan,nan,jonesco.k12.sd.us,4619580
36031054,irwin,GA,210applestreet,ocilla,31774,2294687485,irwin.k12.ga.us,1302910
36031055,lakemissionviejoassociation,CA,22555olympiadroadmission,viejo,92692,9497701313,lakemissionviejo.org,639720
36031056,rosevillejointunionhigh,CA,3167cedartownhwyse,rome,nan,nan,rjuhsd.us,633630
36031057,wrightelementary,CA,4385priceavenuesanta,rosa,95407,7075420550,wrightesd.org,643200
36031058,disabilityrightscalifornia,CA,1831kst.,sacramento,95811,9165045800,disabilityrightsca.org,642060
36031059,maricopaunified,CA,955stanislausst.,maricopa,93252-9779,6617698231,maricopaschools.org,623820
36031060,nationalboardsassociation,VA,1680dukest.fl2,alexandria,22314-3493,7038386722,nsba.org,4654300
36031062,westada,ID,1303eastcentraldrive,meridan,83642,nan,westada.org,1917820
36031063,oneidacity,NY,565saylesstreet,oneida,13421,3153632550,oneidacsd.org,3600013
36031064,woodbinecommunity,IA,501wearestreet,woodbine,51579,7126472411,woodbine.k12.ia.us,1931470
36031065,trinidadunione,CA,300trinityst,trinidad,95570,7076773631,trinidadusd.net,3004230
36031066,templetonunified,CA,960oldcountyrd.,templeton,93465-9419,8054345805,templetonusd.org,639000
36031067,hughes-elizabethlakesunion,CA,"16633elizabethlakeroad,pobox530lake",hughes,93532,6617241231,helus.org,3008130
36031068,scottsborocityystem,AL,305s.scottst.,scottsboro,35768,2562182100,scottsboroschools.net,3703510
36031069,scotland04-3,SD,12041stavenue,charlescity,nan,nan,scotland.k12.sd.us,4665180
36031070,parkston#33-3,SD,24500rd68,tulare,nan,nan,parkston.k12.sd.us,623010
36031071,eastnicolausjointunionh,CA,2452nicolausave,nicolaus,95659,5306562255,eastnicolaus.k12.ca.us,630870
36031072,lee,AL,2410societyhillroad,opelika,36804,3347056000,lee.k12.al.us,102070
36031073,middletownunified,CA,7504cuttingave.,orland,nan,nan,middletownusd.org,624750
36031074,eastsangabrielvalleyselpa,CA,1400rangerdrive,covina,91722,6269661679,esgvselpa.org,2931020
36031075,stanfieldelementary24,AZ,515southstanfieldroad,stanfield,85172,5204240221,stanfieldaz.schoolinsites.com,408820
36031077,stanley57-1,SD,112southfirststreetpobox370fort,pierre,57532,6052237741,stanleycounty.k12.sd.us,4624850
36031078,cleburne,AL,141davenportdrive,heflin,36264,2564635624,cleburneschools.net,100780
36031079,coosa,AL,p.o.box3773nixburgroad,rockford,35136,2563774913,coosaschools.org,100900
36031080,lowelljoint,CA,11019valleyhomeave.,whittier,90603,5629430211,ljsd.org,623010
36031081,tronajointunified,CA,83600tronard,trona,93562,7603722861,trona.tjusd.net,639840
36031082,montroser-xiv,MO,720santabarbarast.santa,barbara,nan,nan,montrose.k12.mo.us,2921360
36031083,evertonr-iii-mo,MO,200adamsstla,portecity,nan,nan,evertontigers.org,603720
36031084,warrensburgr-vi,MO,201southholdenstreet,warrensburg,64093,nan,warrensburgr6.org,2931020
36031086,avery,NC,775cranberrystreet,newland,28657,8287336006,averyschools.net,3700300
36031089,fortmadisonc,IA,1930avenuemfort,madison,52627,3193727252,fmcsd.org,618690
36031090,arabcity,AL,54medicalspringsrd,galena,nan,nan,arabcityschools.org,100100
36031091,newlondonc,IA,106westwilsonstreetp.o.box97new,london,52645,3193670512,nlcsd.org,3020690
36031092,keokukc,IA,500north20thstreet,keokuk,52632,3195241402,keokukschools.org,101110
36031093,eastmarshallcommunity,IA,204westcenterstreetbox159,gilman,50106,6414987481,emmustangs.org,102640
36031094,consortiumofstateboardsassociations,NC,3761rosedalerdport,allen,nan,nan,cossba.org,1923110
36031095,whiteriver#47-1,SD,590hwy431,fairfield,nan,nan,whiteriver.k12.sd.us,3013110
36031096,corcoranjointunified,CA,1520pattersonave,corcoran,93212,5599928888,corcoranunified.com,609690
36031097,fortunaunionhigh,CA,73513thstreet,fortuna,95540,7077254462,fuhsdistrict.org,614190
36031098,jamestown,CA,18299fifthavenue,jamestown,95327,2099844058,jespanthers.org,1926910
36031099,siskiyouofficeofeducation,CA,609southgoldstreet,yreka,96097,5308428400,siskiyoucoe.net,691038
36031100,contracostaofficeofeducation,CA,77santabarbarardpleasant,hill,94523,9259423380,cccoe.k12.ca.us,691005
36031101,happycampunionelementary,CA,114parkwayhappy,camp,96039,5304932267,happycamp.k12.ca.us,616530
36031103,ackermancharter,CA,13777bowmanroad,auburn,95603,5308851974,ackerman.k12.ca.us,601680
36031104,iasbpolicyreferencemanual,IA,1970nyeroad,nye,nan,nan,ia-sb.org,618780
36031105,bradleyunione,CA,65600dixiestreet,bradley,93426,8054722310,bradleyusd.org,2920820
36031106,sanlucasunione,CA,53675sanbenitostreetsan,lucas,93954,8313824426,sanlucasschool.com,629370
36031107,sanardounione,CA,62428centerstreetsan,ardo,93450,8316272520,sanardousd.org,1918840
36031108,spreckelsunion,CA,375leestreet,alexandercity,nan,nan,spreckelsdistrict.org,100030
36031109,boonecommunity,IA,5007thstreet,boone,50036,5154330750,boonecsd.org,102670
36031110,cuyamajointu,CA,2300highway166new,cuyama,93254,6617662293,cuyamaunified.org,1600510
36031111,basicpolicymanagementservices,MO,1704capehornave,julian,nan,nan,mosba.org,614700
36031112,laytonvilleunified,CA,150ramseyroadp.o.box868,laytonville,95454,7079846414,lusd.us,642580
36031113,disabilityrightsflorida,FL,2473caredrivesuite200,tallahassee,32308,8003420823,disabilityrightsflorida.org,3700210
36031114,miamir-1,MO,325s.downsst,ridgecrest,nan,nan,miamir1.net,3009030
36031115,pacificgroveunified,CA,435hillcrestavepacific,grove,93950,8316466510,pgusd.org,629370
36031116,wascounionhigh,CA,2100seventhstreet,wasco,93280,6617588447,wascouhsd.org,641430
36031117,guernevilleelementary,CA,14630armstrongwoodsroad,guerneville,95446,7078692864,guernevilleschool.org,616320
36031118,"transcenterforyouth,inc",WI,1749n16thstreet,milwaukee,53205,4149337895,transcenterforyouth.org,600012
36031119,gwinnett,GA,437oldpeachtreerd.nw,suwanee,30024-2978,6783016000,gcpsk12.org,1302550
36031120,isucceedvirtual,ID,6148northdiscoverywaysuite120,boise,83713,nan,ballardschool.org,611550
36031121,fruitvalee,CA,7311rosedalehwy,baskersfield,93308,6615893830,fruitvale.k12.ca.us,100540
36031122,silexr-i,MO,240s.11thstreetst.,maries,nan,nan,silex.k12.mo.us,2928290
36031123,newcastleelementary,CA,645kentuckygreensway,newcastle,95658,9162592832,newcastle.k12.ca.us,627120
36031124,orangebeachcity,AL,pobox27994544orangebeachblvdorange,beach,36561,2514241730,orangebeachal.gov,103581
36031125,madridcommunity,IA,201n.main,madrid,50156,5157953240,madrid.k12.ia.us,1918180
36031126,centrallyonc,IA,1010southgreenestreetrock,rapids,51246,nan,centrallyon.org,601843
36031127,iredell-statesville,NC,549northracestreet,statesville,28677,7048728931,issnc.org,3702310
36031128,livingstonparish,LA,13909floridablvd.,livingston,70754,2256867044,lpsb.org,2201020
36031129,clarke,AL,155westcobbstreetp.o.box936grove,hill,36451,nan,clarkecountyschools.org,100720
36031130,exira-elkhorn-kimballtoncommunity,IA,4114madisonst.box388aelk,horn,51531,7127644616,exira-ehk.k12.ia.us,102910
36031131,ikm-manningcommunity,IA,20910thstreet,manning,51455,7126553771,ikm-manning.k12.ia.us,3017370
36031132,vinton-shellsburgc,IA,1502cave,vinton,52349,3194364728,vscsd.org,103582
36031133,westburlingtoni,IA,314w.vanweissblvd.west,burlington,52655,nan,wbisd.com,1903960
36031134,eufaulacity,AL,333statedocksroad,eufaula,36027,3346871100,eufaulacityschools.org,101410
36031135,i3academy,AL,23049thstreetnorth,birmingham,35212,nan,i3academy.esvbeta.com,100204
36031136,clintoncommunity,IA,140112thave.n,clinton,52732,5632439600,clinton.k12.ia.us,101200
36031137,rockvalleyc,IA,171220thavenuerock,valley,51247,7124762701,rvcsd.net,1914640
36031138,richmondelementary,CA,700-585richmondrde.,susanville,96130,5302572338,richmondelementary.com,632520
36031139,absarokee,MT,327southwoodardave.,absarokee,59001,nan,absarokee.k12.mt.us,1914670
36031140,plator-v,MO,3800n.locustgrove,meridian,nan,nan,platorv.org,2925210
36031141,thermalitounionelementary,CA,400grandave,oroville,95965,5305382900,thermalito.org,639180
36031142,westmorlandunione,CA,200southcst,westmorland,92281,7603444364,wued.org,610260
36031143,dallascenter-grimescommunity,IA,2405w1ststreetp.o.box680,grimes,50111,5159923866,dcgschools.com,1908520
36031144,westforkcommunity,IA,p.o.box60210s.2ndstreet,rockwell,50469,6418223234,westforkschool.org,102670
36031145,albertonk-12,MT,306railroadave,alberton,59820,nan,alberton.k12.mt.us,3001860
36031146,alderelementary,MT,p.o.box127,alder,59710,nan,madisoncountymt.gov,802460
36031147,augusta,MT,410broadway,augusta,59410,nan,augustaschool.org,
36031148,avon,MT,603mainste,avon,59713,nan,asheschools.org,3700210
36031149,bainville,MT,409tubmanst,bainville,59212,nan,bainvilleschool.k12.mt.us,642930
36031150,basinelementary,MT,30northquartz,basin,59631,nan,brorsonschool.com,
36031151,belt,MT,1churchstreet,belt,59412,4062773351,beltschool.com,3009120
36031152,bigsandy,MT,3981stavebig,sandy,59520,nan,bigsandy.k12.mt.us,
36031153,boxelder,MT,410emainst.box,elder,59521,nan,boxelderbears.org,100007
36031154,bridger,MT,"2415jeffersonroad,suiteb",athens,nan,nan,bridgerscouts.org,102250
36031155,broadus,MT,500northtrautmanavenue,broadus,59317,nan,sites.google.com,
36031156,broadview,MT,139351ststreet,broadview,59015,nan,broadviewschools.org,1914310
36031157,brockton,MT,215n.fifthstreet,brockton,59213,nan,brockton.k12.mt.us,1910690
36031159,cardwell,MT,80highway359,cardwell,59721,nan,chualarusd.com,601971
36031160,carter,MT,box158,carter,59420,nan,cambriansd.org,3000015
36031161,cascade,MT,321centralavewest,cascade,59421,nan,cascade.k12.mt.us,3000016
36031162,chester-joplin-inverness,MT,511mainst,chester,59522,nan,cji.k12.mt.us,601843
36031163,choteau,MT,2047thavenuenw,choteau,59422,nan,choteauschools.net,3004380
36031164,cookecity,MT,101broadway,cookecity,59020,nan,northeastcsd.org,604890
36031165,cottonwoodelementary,MT,10250countyrd710w,havre,59501,nan,discoveryregional.org,3005990
36031166,darby9,MT,208schooldrive,darby,59828,nan,darby.k12.mt.us,1906060
36031167,daveyelementary,MT,56182clearcreekrdse,havre,59501,nan,rcs.k12.al.us,102910
36031168,denton,MT,1200lehman,denton,59430,nan,denton.k12.mt.us,610380
36031169,dodson,MT,pobox278,dodson,59524,nan,dodson.k12.mt.us,3017370
36031170,drummond,MT,108w.edwards,drummond,59832,nan,drummondschool.net,4010170
36031171,dupuyer,MT,box149,dupuyer,59432,nan,indeek12.org,1914580
36031172,dutton/bradyk-12,MT,1012ndstne,dutton,59433,4064763424,dbps.k12.mt.us,3000102
36031173,ekalaka,MT,box458,ekalaka,59324,nan,ekalaka.net,102730
36031174,circle,MT,1105favenue,circle,59215,nan,circleschools.org,1919200
36031175,amsterdam,MT,6360campcreekroad,manhattan,59742,nan,amsterdamschool.org,3001980
36031176,andersonelementary,MT,10040cottonwoodrd,bozeman,59718,nan,andersonmt.org,1914640
36031177,arrowhead,MT,pobox37,pray,59065,nan,arrowheadk8.com,1908880
36031178,ashland,MT,"405e.northstreet,pobox79",truro,nan,nan,sites.google.com,1914670
36031179,bearpawcooperative,MT,421ohiostreet,chinook,59523,nan,bearpawcoop.org,3000012
36031180,bigskyspecialneedscoop,MT,220northwisconsinstreet,conrad,59425,nan,bigskycoop.org,3000060
36031181,bouldergrade,MT,205southwashingtonstreet,boulder,nan,nan,bgs.k12.mt.us,613470
36031182,canyoncreek,MT,3139duckcreekroad,billings,59101,nan,canyoncreekschool.org,691137
36031183,cayuseprairie#10,MT,897lakeblaineroad,kalispell,59901,nan,cayuseprairie.com,1930900
36031184,crestonelementary,MT,4495montanahwy35,kalispell,59901,nan,creston.k12.mt.us,
36031185,eldergrove,MT,1532s64thstw,billings,59106,nan,eldergrove.k12.mt.us,3014430
36031186,fair-mont-eganelementary,MT,797fairmontroad,kalispell,nan,nan,fmemontana.net,3014640
36031187,fortine,MT,358meadowcreekroad,fortine,59918,nan,fortineschool.net,1931830
36031188,frazer,MT,3256thstreet,frazer,59225,nan,frazer.k12.mt.us,1904680
36031189,froid,MT,4081stst.s,froid,nan,nan,froidschool.com,1905790
36031190,fromberg#6,MT,319schoolstreet,fromberg,59029,nan,frombergpublicschools.com,3011650
36031191,frontierschoool,MT,6996roystwolf,point,59201,nan,frontierk8.org,2201830
36031192,galata,MT,box76,galata,59444,nan,bigsurunified.org,1931950
36031193,gallatingatewayelem,MT,100millstreetgallatin,gateway,59730,nan,gallatingatewayschool.com,3011790
36031194,gallatin/madisonspecialeducationcooperative,MT,p.o.box162/21000frontagerd.,belgrade,59714,nan,midlandps.org,2623820
36031195,gardiner,MT,510stonestreet,gardiner,59030,nan,gardiner.org,102250
36031196,garrison,MT,33schoolhouseroad,garrison,59731,nan,fruitlandschools.org,1912480
36031197,geraldine,MT,200chestnut,hubbard,nan,nan,geraldine.k12.mt.us,1906750
36031198,geyser,MT,1033rdstreeteast,geyser,59447,nan,geyser.k12.mt.us,1906900
36031199,grant,MT,box45,wisdom,59761,nan,oakmil.org,1904560
36031200,grassrange,MT,310eastsecondstreetpobox58grass,range,59032,4064282341,grps.k12.mt.us,1909570
36031201,harlowton,MT,2389gatewayoaksdr.suite260,sacramento,nan,nan,harlowton.k12.mt.us,3019170
36031202,hayslodgepole,MT,1haysschoolroad,hays,59527,nan,hlpschools.k12.mt.us,3008880
36031203,heartbuttek-12,MT,1newschoolroadheart,butte,59448,nan,heartbutte.k12.mt.us,3000099
36031204,helenaflats#15,MT,1000helenaflatsroad,kalispell,59901,nan,helenaflats.org,1903930
36031205,highwood,MT,160weststreetsouth,highwood,59450,nan,highwood.k12.mt.us,3020790
36031206,hinale,MT,70213thavenue,camanche,nan,nan,hinsdale.k12.mt.us,1906060
36031207,hobson,MT,1086thstreeteast,hobson,59452,nan,hobson.k12.mt.us,611430
36031208,hotsprings,MT,301broadwayst.hot,springs,59845,nan,hssdmt.org,507890
36031209,hysham,MT,115summitstreet,hysham,59038,nan,hyshamschools.com,610380
36031210,independentelementary,MT,2907rounduproad,billings,59105,nan,independent.k12.mt.us,3021850
36031211,jordan,MT,324margueriteavenue,jordan,59337,nan,jordanpublicschools.org,623730
36031212,judithgap,MT,3064thavejudith,gap,59453,nan,judithgap.k12.mt.us,1914580
36031213,kila,MT,395kilaroadpobox40,kila,nan,nan,kilaschool.com,
36031214,kinseyelementary,MT,21mastinrd,kinsey,59338,nan,custercountymt.gov,1914580
36031215,lambert,MT,1213rdavenuenorth,lambert,59243,nan,lambertschool.net,102730
36031216,lamotte,MT,841bearcanyonroad,bozeman,59715,nan,lamotteschool.com,3023160
36031217,lavina,MT,214firststreeteast,lavina,59046,nan,lavinapublicschools.com,3023340
36031218,limak-12,MT,1n.harrisonst.,lima,59739,nan,limaschoolmt.org,3016710
36031219,lindsayelementary,MT,box185,lindsay,59339,nan,delwood.k12.ia.us,1908880
36031220,marionelementary,MT,205gopherlane,marion,59923,nan,sites.google.com,3017700
36031221,mccormick,MT,1564oldhighway2north,troy,59935,nan,wuhsd.org,642480
36031222,mcleod,MT,box37big,timber,59011,nan,cusdk8.org,610290
36031223,medicinelake#7,MT,311youngstreetmedicine,lake,59247,nan,medicinelake.k12.mt.us,100008
36031225,melstone,MT,5sixthavenuenorth,melstone,59054,nan,melstonepublicschools.org,613470
36031226,melville,MT,box275,melville,59055,nan,newell-fonda.k12.ia.us,3024990
36031227,moore,MT,509highlandavenue,moore,nan,nan,mooreschoolmt.com,3025320
36031228,nashua,MT,222mabelstreet,nashua,59248,nan,nashua.k12.mt.us,3025500
36031229,northstar,MT,1053rdave.ne,rudyard,59540,nan,sites.google.com,3025530
36031230,olney-bissellelementary,MT,5955farmtomarketrd.,whitefish,59937,nan,msbaonline.org,3025560
36031231,opheim,MT,119n.rockstreet,opheim,59250,nan,sites.google.com,1931830
36031232,pinecreekelementary,MT,2575eastriverroad,livingston,nan,nan,sites.google.com,1904680
36031233,pioneerelementary,MT,1937doverroad,billings,59105,nan,pioneerschool.us,1905790
36031234,plevna#55,MT,327n.mainst.,plevna,59344,nan,plevnacougars.com,
36031235,potomacelementary,MT,29750potomacroad,potomac,59823,nan,potomacschoolmontana.us,1926580
36031237,power,MT,408s4thst.,moville,nan,nan,power.k12.mt.us,1931950
36031238,pryor,MT,147highschoollane,pryor,59066,nan,pryorwarriors.org,1908910
36031239,ramsay,MT,3russellstreet,ramsay,59748,nan,ramsayschool.com,2623820
36031240,rapelje,MT,714mainstreet,rapelje,59067,nan,rapelje.k12.mt.us,1903360
36031241,rau,MT,12138countyroad350,sidney,59270,nan,rauschool.net,1912480
36031242,reedpoint,MT,308centralavenuereed,point,59069,nan,reedpoint.k12.mt.us,1906750
36031243,richey,MT,205royalavenue,richey,59259,nan,richey.k12.mt.us,1906900
36031244,rosebud,MT,906pennsylvaniastreet,bedford,nan,nan,sites.google.com,3000072
36031245,roy74,MT,pobox9,roy,59471,4064642511,roy.k12.mt.us,1909570
36031246,ryegate,MT,2072ndavew,ryegate,59074,nan,ryegateschool.com,1906900
36031247,syelementary,MT,1road664,milescity,59301,nan,custercountymt.gov,3028830
36031248,saco,MT,321hwy243,saco,59261,nan,sacoschools.k12.mt.us,1912690
36031249,savage,MT,368mesastreet,savage,59262,nan,savagepublicschool.com,
36031250,sheridan,MT,box586,sheridan,nan,nan,sheridan.k12.mt.us,3000075
36031251,shieldsvalley,MT,308hannafordstreet,wilsall,59086,nan,svalleyk12.org,3011520
36031252,smithvalleyelementary,MT,2901hwy2west,kalispell,59901,nan,smithvalleyschool.org,3012510
36031253,stregis,MT,90tigerstreetst.,regis,59866,nan,stregisschool.org,3016530
36031254,stanford,MT,1044thaves,stanford,59479,nan,stanfordmtschool.com,3000656
36031255,sunburst,MT,box710,sunburst,59842,nan,sunburst.k12.mt.us,3025320
36031256,swanriverelementary,MT,1205swanhighway,bigfork,59911,nan,swanriverschool.org,3025500
36031257,swanvalleyelementary,MT,6423mt83,condon,nan,nan,swanvalleyelementary.org,1603120
36031258,sweetgrasshigh,MT,501w5thavebig,timber,59011,nan,sgchs.com,
36031259,terry,MT,215epark,terry,59349,nan,terryschools.org,
36031260,trailcreek/riverview,MT,1734road506,milescity,nan,nan,custercountymt.gov,
36031261,trinityelementary,MT,7435duffylanecanyon,creek,59633,nan,laurel.k12.mt.us,
36031262,troutcreek,MT,4schoollanetrout,creek,59874,nan,troutcreekeagles.org,
36031263,turner,MT,190firststreeteast,turner,59542,nan,turner.k12.mt.us,3002730
36031264,twinbridges,MT,216w.6thavenuetwin,bridges,59754,nan,twinbridges.k12.mt.us,3003090
36031265,ulm,MT,box189,ulm,59485,nan,ulmschools.com,3000654
36031266,valier,MT,box508,valier,59486,nan,valier.k12.mt.us,
36031267,vaughn,MT,480centralavenue,vaughn,59487,nan,vaughnschool.com,3004260
36031268,victor,MT,693stockettroadsand,coulee,nan,nan,victor.k12.mt.us,
36031269,vida,MT,200shellst,vida,59274,nan,charlo.k12.mt.us,
36031270,westglacierelementary,MT,box309west,glacier,59936,nan,clancyschool.org,3006840
36031271,whitesulphursprings,MT,405southcentralavenuewhitesulphur,springs,59645,nan,whitesulphur.k12.mt.us,
36031272,wibaux,MT,121fst.n,wibaux,59353,nan,wibauxschools.net,3000085
36031273,willowcreek,MT,407mainwillow,creek,nan,nan,willowcreek.k12.mt.us,3008670
36031274,winifred,MT,500mainstreet,winifred,nan,nan,winifred.k12.mt.us,3009930
36031275,winnett,MT,305southbroadwayave.,winnett,59087,nan,winnettschool.org,
36031276,wiseriver,MT,175swampcreekrdwise,river,59762,nan,forsythpublicschools.org,
36031277,wyolaelementary,MT,box66,wyola,59089,nan,facebook.com,
36031278,yaakelementary,MT,29893yaakriverroad,troy,59935,4062959311,yaakschool.org,3015120
36031279,yellowstoneacademy,MT,1750rayofhopelane,billings,59106,nan,ybgr.org,3028860
36031280,anaconda,MT,1410westparkavenue,anaconda,59711,nan,anacondaschools.org,
36031281,easthelena,MT,box1280east,helena,59635,nan,ehps.k12.mt.us,3017580
36031282,frenchtown,MT,17620frenchtownfrontageroad,frenchtown,59834,nan,ftsd.org,
36031283,glendive,MT,900n.merrillave,glendive,59330,nan,glendiveschools.com,
36031284,libby,MT,724louisianaavenue,libby,59923,nan,libbyschools.org,3020960
36031285,lockwood,MT,p.o.box1090red,lodge,nan,nan,lockwoodschool.org,
36031286,milescityunified,MT,1604mainstreet,milescity,59301,nan,milescityschools.org,3023670
36031287,polson,MT,1114thavenueeast,polson,59860,nan,polson.k12.mt.us,
36031288,ronan,MT,421andrewst.nw,ronan,59864,nan,ronank12.edu,
36031289,sidney,MT,410arizonaavenue,superior,nan,nan,sidneyps.com,3025470
36031290,hardin,MT,401parkroad,hardin,59034,nan,hardin.k12.mt.us,
36031291,havre,MT,4256thst,havre,59501,nan,blueponyk12.com,
36031292,laurel,MT,410coloradoavenue,laurel,59044,nan,laurel.k12.mt.us,
36031293,belgrade,MT,1291stavese,browning,nan,nan,bsd44.org,
36031294,baker,MT,pobox159,colstrip,nan,nan,baker.k12.mt.us,
36031295,beaverheadcohigh,MT,4333rdstreet,columbus,nan,nan,bchsmt.com,
36031296,bigsky,MT,45465gallatinroadgallatin,gateway,59730,nan,bssd72.org,
36031297,bigtimbergrade,MT,pobox887big,timber,59011,nan,sites.google.com,
36031298,bigfork,MT,6101stavese,harlem,nan,nan,harlem-hs.k12.mt.us,
36031299,bonner,MT,9045hwy200,bonner,59823,nan,bonner.k12.mt.us,
36031300,centerville,MT,693stockettroadsand,coulee,59472,nan,centerville.k12.mt.us,3018750
36031301,charlo,MT,4041stavenuewest,charlo,59824,nan,charlo.k12.mt.us,
36031302,clancy,MT,212eastnealthree,forks,nan,nan,clancyschool.org,
36031303,conrad,MT,220n.wisconsin,conrad,59425,nan,conradschools.org,3004980
36031304,culbertson,MT,box459,culbertson,59218,nan,culbertsonschool.com,3027570
36031305,deerlodge#1,MT,444montanaavedeer,lodge,59722,nan,deerlodgeschools.org,3011100
36031306,ennis,MT,223s.charlesst,ennis,59729,nan,ennisschools.org,3014700
36031307,fairview,MT,713swesternave-pobox467,fairview,59221,4067425265,fschool.org,
36031308,forsyth,MT,425north10thavenue,forsyth,59327,nan,forsythpublicschools.org,1920850
36031309,fortbenton,MT,1820washingtonstreetfort,benton,59442,nan,fortbentonschools.com,605490
36031310,jeffersonhigh,MT,312southmain,boulder,59632,nan,jhs.k12.mt.us,
36031311,joliet,MT,300northparkstreet,joliet,59041,nan,jolietschools.org,103000
36031312,lodgegrass,MT,124n.georgestreetlodge,grass,59050,nan,lgschools.org,603060
36031313,malta,MT,1highschoollane,malta,59538,nan,malta.k12.mt.us,102220
36031314,manhattan#3,MT,416northbroadway,manhattan,59741,nan,mt01000571.schoolwires.net,
36031315,northerncheyennetribal,MT,1904statestreet,granger,nan,nan,wghawks.school,1932010
36031316,plains,MT,412rittenourst.,plains,59859,nan,plainsschools.com,1911070
36031317,plentywood,MT,100e.laurelave.,plentywood,59254,nan,plentywood.k12.mt.us,1925590
36031318,redlodge,MT,p.o.box1090red,lodge,59068,nan,redlodge.k12.mt.us,1926250
36031319,scobey,MT,2052ndaveeast,scobey,59263,nan,scobeyschools.com,
36031320,shelby,MT,1010oilfieldavenue,shelby,59474,nan,shelbypublicschools.org,
36031321,sunrivervalley,MT,box380,simms,59477,nan,srvs.k12.mt.us,102580
36031322,superior,MT,410arizonaavenue,superior,59872,4068223600,ssd3.us,4651750
36031323,troy,MT,501eastkalispellave,troy,59935,nan,troyk12.org,637500
36031324,westyellowstone,MT,5120sugarloafparkway,lawrenceville,nan,nan,wolverine.life,
36031325,bozeman,MT,800mainstreet,franlinton,nan,nan,wpsb.org,
36031326,kalispellpublic5,MT,2331stavenueeast,kalispell,59501,nan,sd5.k12.mt.us,1926790
36031327,browning,MT,1291stavese,browning,59417,nan,bps.k12.mt.us,691003
36031328,colstrip,MT,pobox159,colstrip,59323,nan,colstrippublicschools.org,4621340
36031329,columbus,MT,4333rdstreet,columbus,59019,nan,columbus.k12.mt.us,100990
36031330,dillonelementary,MT,1496480thst,northwood,nan,nan,dillonschools.org,1921210
36031331,eureka,MT,3409thstreet,eureka,59917,nan,lchigh.net,
36031332,harlem,MT,6101stavese,harlem,59526,nan,harlem-hs.k12.mt.us,2918300
36031333,lamedeer,MT,box96lame,deer,59403,nan,lamedeerschools.org,
36031334,monforton,MT,6001monfortonschoolrd.,bozeman,59718,nan,monfortonschool.org,1903690
36031335,roundup,MT,12mainstreet,roundup,59072,nan,roundup.k12.mt.us,1908940
36031336,threeforks,MT,212eastnealthree,forks,59752,nan,tfschools.com,3701110
36031337,townsend,MT,1223mainst.,newman,nan,nan,townsend.k12.mt.us,
36031338,westvalley,MT,2290farmtomarketrd.,kalispell,59901,nan,westvalleyschool.com,101380
36031340,florence-carlton,MT,5602oldhwy93,florence,59833,nan,florencecarlton.org,1912510
36031341,huntleyproject,MT,1477ashst,worden,59088,nan,huntley.k12.mt.us,
36031342,wolfpoint,MT,400fallonstreetwolf,pont,59201,nan,wolfpointschools.org,1918510
36031343,northmahaskacommunity,IA,2163135thstreetnew,sharon,50207,6416374187,nmwarhawks.org,1927600
36031344,boguselementary,CA,13735agerbeswickrd,montague,13735 Ager,5304593163,bogus.k12.ca.us,605490
36031345,cityoftrenton,GA,12882nmainst,trenton,30752,7066574167,trentonga.gov,
36031346,sheffieldcity,AL,300west6thstreet,sheffield,35660,2563830400,scs.k12.al.us,103000
36031347,arcoheunione,CA,11755ivieroad,herald,95638,2097482313,arcohe.net,1903090
36031352,madisonystem,AL,1275jordanroad,huntsville,35811,2568522557,mcssk12.org,2905640
36031353,alabamastatedepartmentofeducation,AL,,,nan,nan,alabamaachieves.org,2905400
36031354,woodward-grangercommunity,IA,1904statestreet,granger,50109,5159998022,wghawks.school,603780
36031355,esthervillelincolncentralc,IA,,,nan,nan,estherville.k12.ia.us,4675420
36031356,sergeantbluff-luton,IA,201portnealrd.sergeant,bluff,51054,nan,sblschools.com,630520
36031357,sidneyc,IA,2754knoxrd.,sidney,51652,7123742141,sidneyschools.org,623700
36031360,natchitochesparishboard,LA,310royalstreetp.o.box16,natchitoches,71457,3183522358,npsb.la,607770
36031361,columbia,GA,4781herefordfarmroad,evans,30809,7065410650,ccboe.net,1301410
36031362,opelikacity,AL,300simmonsstreet,opelika,36801,3347459700,opelikaschools.org,102580
36031363,sanmarcosunified,CA,255picoaveste250san,marcos,92069,7607521299,albiacsd.org,634880
36031364,northwesternarea#56-7,SD,12057thstreet,milford,nan,nan,northwestern.k12.sd.us,1900021
36031365,southpasadenaunified,CA,1100elcentrostsouth,pasadena,91030,6264415810,spusd.net,637500
36031366,gsbaboarddevelopment,GA,5120sugarloafparkway,lawrenceville,30043,7709622985,gsba.com,
36031367,washingtonparishboard,LA,800mainstreet,franlinton,70438,9858393436,wpsb.org,624300
36031368,southwinneshiekcommunity,IA,304s.websterst.pobox430,calmar,52132,nan,southwinn.com,691033
36031369,calaverasofficeofeducation,CA,185s.mainstreetpobox760,altaville,95221,2097364662,ccoe.k12.ca.us,691003
36031370,elkpoint-jefferson,SD,125olema-bolinasroad,bolinas,nan,nan,epj.k12.sd.us,605520
36031371,cullmancity,AL,3011ststreetne,cullman,35055,nan,cullmancats.net,100990
36031372,northwood-kensettc,IA,1496480thst,northwood,50459,6413242021,nwood-kensett.k12.ia.us,1919890
36031373,colfax-mingocommunity,IA,1000n.walnutstreet,colfax,50054,5156743646,experiencecmcsd.com,102635
36031374,lee'ssummitr-vii,MO,460fifthstreet|,hollister,nan,nan,lsr7.org,2918300
36031375,parkhill,MO,,,nan,nan,parkhill.k12.mo.us,2923550
36031376,ankenycommunity,IA,406swschoolst,ankeny,50023,5159659600,ankenyschools.org,602284
36031377,denvercommunity,IA,541easteaglestreet,denver,50622,nan,denver-cyclones.com,
36031378,dare,NC,p.o.box1508nags,head,27959,2524808888,daretolearn.org,3701110
36031380,newman-crowslandingu,CA,1223mainst.,newman,95360,2098622933,nclusd.org,102520
36031381,etowah,AL,401broadstreet,gadsden,35901,2565497560,ecboe.org,101380
36031382,gilbertcommunity,IA,103mathewsdrive,gilbert,50105,nan,gilbertcsd.org,
36031383,northwestiowacommunitycollege,IA,603westparkstreet,sheldon,51201,7123245061,nwicc.edu,2731800
36031384,maquoketac,IA,612s.vermontstreet,maquoketa,52060,5636524984,maquoketaschools.org,1918510
36031385,sumner-fredericksburg,IA,802westsixthstreet,sumner,50674,5635783341,sfcougars.org,1927600
36031388,weaverunion,CA,1240dst,merced,95351,2097237606,weaverusd.org,641880
36031389,westfelicianaparish,LA,4727fidelitystreetpobox1910st.,francisville,70775,2256353891,wfpsb.org,2201980
36031390,guthriecenterc,IA,906schoolstreetguthrie,center,50115,6413322972,acgcschools.org,100013
36031391,adair-caseyc,IA,3384indigoave.,adair,50002,6417462241,acgcschools.org,1903090
36031392,crawfordr-i,MO,1444oldhighway66,bourbon,65441,5737324426,warhawks.k12.mo.us,636420
36031393,bonclr-x,MO,5268northstreet,somis,nan,nan,bonclbluejays.com,2905400
36031394,bangorunionelementary,CA,7549oro-bangorhwy.p.o.box340,bangor,95914,5306792434,bangorunion.org,603780
36031395,wagnercommunity11-4,SD,120918hwy101p.o.box128,orick,nan,nan,wagner.k12.sd.us,4675420
36031396,pioneerunionelementary,CA,286rockerfellerroadberry,creek,95916,5305891633,puesd.org,630520
36031397,manzanitae,CA,627e.evansreimerrd,gridley,95948,5308465594,manzanitaelementaryschool.com,2920880
36031398,castlerockunione,CA,29373mainstreet,castella,96017,5302350101,castlerockschool.net,629130
36031399,weiser#431,ID,925pioneerroad,weiser,83672,2084140616,weiserschools.org,1603330
36031400,payette,ID,13121stave.n,payette,83661,2086429366,payetteschools.org,1602580
36031401,albiacommunity,IA,701washingtonavenueeast,albia,52531,6419322161,albiacsd.org,1300006
36031402,okobojic,IA,12057thstreet,milford,51351,nan,okobojischools.org,
36031403,carlislec,IA,430schoolstreet,carlisle,50047,5159893589,carlislecsd.org,642060
36031404,playavistaparksandlandscapecorp.,CA,6200playavistadriveplaya,vista,90094,3104376070,playavista.com,
36031405,mckinleyvilleunion,CA,2275centralave,mckinleyville,95519,7078391549,mckusd.org,1907920
36031406,sanmateoofficeofeducation,CA,101twindolphindr,redwoodcity,94065,6058025552,smcoe.org,691033
36031407,grossmontunionhigh,CA,1100murraydrivep.o.box1043el,cajon,92020,6196448000,guhsd.net,616230
36031408,bolinas-stinsonunion,CA,125olema-bolinasroad,bolinas,94924,4158681603,bolinas-stinson.org,605520
36031409,moulton-udellc,IA,305east8th,moulton,52572,nan,moulton-udell.org,1915750
36031410,mt.pleasantcommunity,IA,400e.madisonstreetmount,pleasant,52641,3193857750,mtpcsd.org,691043
36031412,oxfordcity,AL,310e.2ndstreet,oxford,36203,nan,oxfordcityschools.com,102635
36031413,sanbenitoofficeofeducation,CA,460fifthstreet|,hollister,| 95023 Phone: (831) 637-5393,8316370140,sbcoe.org,691028
36031414,lsbaprm,LA,12041stavenue,charlescity,nan,nan,lsba.com,1907080
36031415,mtsbaprm,MT,24500rd68,tulare,nan,nan,oakvalleyschool.org,627900
36031417,isbaprm,ID,7322countyroad24,orland,nan,nan,plazaschool.org,630870
36031418,orangeofthearts,CA,1010n.mainst.santa,ana,92701,7145600900,ocsarts.net,638070
36031419,oxfordpreparatoryacademy,CA,"81columbia,suite101aliso",viejo,92656,9496009050,opaschools.org,607410
36031420,monroeelementary,CA,11842s.chestnut,fresno,93725,5598342895,monroe.k12.ca.us,625290
36031421,muscleshoalscity,AL,321w.schoolst.,preston,nan,nan,mscs.k12.al.us,102520
36031423,sample,GA,1062birchave.,packwood,nan,nan,eboardsolutions.com,1922440
36031424,westharrisonc,IA,410pinestreet,mondamin,51557,7126462231,westharrison.school,4641300
36031425,rochester,MN,6157thstreetsw,rochester,55902,5073283000,rochesterschools.org,604500
36031426,santaclaritavalleyfoodservicesagency,CA,25210anzadr.santa,clarita,91355,6612951574,scvschoolnutrition.org,102040
36031427,projectimpactstemacademy,ID,1422southtechlane,meridian,ID 83642,2085764811,pistem.org,1930480
36031428,blackoakmineunified,CA,6540wentworthspringsroad,georgetown,95634,5303338300,bomusd.org,605240
36031429,westmononacommunity,IA,131415thstreet,onawa,51040,nan,westmonona.org,601414
36031430,trussvillecity,AL,476mainstreet,trussville,35173,2052283000,trussvillecityschools.com,100013
36031431,peninsulaunione,CA,909vanceavenuepobox175,samoa,95564-0175,7074432731,sites.google.com,1900022
36031432,shafferunionelementary,CA,722-055highway395northp.o.box320,litchfield,96117,5302546577,shafferschool.com,636420
36031433,somisunion,CA,5268northstreet,somis,93066,8053868258,somisusd.org,637140
36031435,webstercityc,IA,schooladministrationofficeboardroom820desmoinesst.,webstercity,50595,15158329200,webster-city.k12.ia.us,1925620
36031436,oricke,CA,120918hwy101p.o.box128,orick,95555,7074882821,orickschool.org,602760
36031437,lakelandr-iii,MO,54medicalspringsrd,galena,nan,nan,lakeland.k12.mo.us,2910520
36031438,middlegrovec-1,MO,1103n.elmst./p.o.box228west,liberty,nan,nan,middlegrove.k12.mo.us,2920880
36031439,orovilleunionhigh,CA,2211washingtonavenue,oroville,95966,5305382300,ouhsd.org,629130
36031440,griffinresa,GA,440tilneyavenue,griffin,30224,7702293247,griffinresa.net,1300012
36031441,st.ansgarc,IA,206e8thst.pobox398st.,ansgar,50472,6417134681,stacsd.org,4632340
36031442,northwestresa,GA,3167cedartownhwyse,rome,30161,7062956189,nwgaresa.com,1300006
36031443,theclubatcastlewood,CA,707countryclubcir.,pleasanton,94566,nan,castlewoodcc.org,
36031444,westpark,CA,2695s.valentine,fresno,93706,5592336501,westpark.k12.ca.us,3028550
36031445,insurancegroup,CA,"550highstreet,suite201,",auburn,95603,8004424199,schoolsinsurancegroup.com,
36031446,colo-nescocommunity,IA,919westst.,colo,50056,6413772282,colonesco.org,3004230
36031447,griswoldcommunity,IA,20madisonstreet,griswold,51535,7127782154,griswoldschools.org,
36031448,telfair,GA,910w.huckabeestreet,mcrae,31055,nan,telfairschools.org,1304830
36031449,westwoodcommunity,IA,1000rebelway,sloan,51055,7124283355,wwrebels.org,1931470
36031450,kingsley-piersonc,IA,322questave,kingsley,51028,7123782861,k-pcsd.org,3703510
36031451,tehamaofficeofeducation,CA,1135lincolnst.red,bluff,96080,5305275811,tehamaschools.org,691043
36031452,alta-aurelia,IA,101west5thstreet,alta,51002,7122001010,alta-aurelia.org,1906540
36031453,lynnville-sullyc,IA,12476hwyf62e,sully,50251,6415944445,lshawks.com,1918030
36031454,charlescityc,IA,12041stavenue,charlescity,50616,6412576500,charlescityschools.org,1907080
36031463,oakvalleyunione,CA,24500rd68,tulare,93274,5596882908,oakvalleyschool.org,
36031464,plazae,CA,7322countyroad24,orland,95963,5308651250,plazaschool.org,630870
36031465,stonycreekjointu,CA,3430co.rd.309elk,creek,95939,5309685361,scjusd.org,601841
36031466,capayjointunione,CA,7504cuttingave.,orland,95963,5308651222,capayschool.org,607410
36031467,cajonvalleyunion,CA,750e.mainst.el,cajon,92020,6195883000,cajonvalley.net,606810
36031470,eastonvalleyc,IA,321w.schoolst.,preston,52069,5636893431,eastonvalleycsd.com,2929850
36031471,pekinc,IA,1062birchave.,packwood,52580,3196953707,pekincsd.org,601931
36031475,lead-deadwood#40-1,SD,,,nan,nan,lead-deadwood.k12.sd.us,100012
36031476,belleviewelementary,CA,22736kewinmillroad,sonora,95370,2095865510,mybelleview.org,604500
36031477,lawrence,AL,14131marketst.,moulton,35650,2569052400,lawrenceal.org,102040
36031478,waterloo,IA,1516washingtonst.,waterloo,50702,3194331800,waterlooschools.org,1913500
36031479,oneontacity,AL,28370statehighway75,oneonta,35121,2055431515,oneontacityschools.com,102550
36031480,santabarbaraunified,CA,720santabarbarast.santa,barbara,93101,8059634338,sbunified.org,601414
36031481,nhsbaprm,NH,2425schoolst,solvang,nan,nan,nhsba.org,603720
36031482,unionc,IA,200adamsstla,portecity,50651,3193422674,union.k12.ia.us,3013530
36031483,bucklinr-ii,MO,74campusdr.,maynard,nan,nan,bucklin.k12.mo.us,2906090
36031484,mormontrailc,IA,403s.frontstreet,humeston,50123,6418772521,mormontrailcsdk12.org,1919740
36031485,seymourcommunity,IA,100southparkavenue,seymour,52590,6418982291,seymourcsd.org,1925620
36031486,antelope,CA,22630antelopeblvdred,bluff,96080,5305271272,antelopeschools.org,618120
36031487,galenar-ii,MO,54medicalspringsrd,galena,65656,4173576027,galena.k12.mo.us,2912630
36031488,pinegroveschoool,MT,3646brusettroad,brusett,59318,nan,dallask12.org,101110
36031489,westlibertycommunity,IA,1103n.elmst./p.o.box228west,liberty,52776-0228,3196272116,wl.k12.ia.us,102640
36031490,louisa-muscatinec,IA,14478170thstreet,letts,52754,3197263421,louisa-muscatine.k12.ia.us,1923110
36031491,glenwoodr-8,MO,615w.thirdst.,dorris,nan,nan,glenwood.k12.mo.us,606580
36031493,henry#14-2,SD,2049kirkwoodrd,corning,nan,nan,henry.k12.sd.us,619860
36031494,westbatonrougeparishboard,LA,3761rosedalerdport,allen,70767,2253438309,wbrschools.net,103582
36031495,bogalusacity,LA,23east7thst,spencer,nan,nan,bogschools.org,1926910
36031496,greenfield,MT,590hwy431,fairfield,59436,nan,stratford.k12.ia.us,1927480
36031497,wolfcreek,MT,150walshwolf,creek,59648,nan,wolfcreekschool.com,1926640
36031498,fishtail,MT,119eastonavenue,fishtail,59001,nan,dcsedu.com,101200
36031499,pleasantvalley,MT,7975pleasantvalleyrd.marion,lutcher,59925,nan,pvsmt.org,
36031500,deerfield,MT,360deerfieldroad,lewistown,59457,nan,richardsschool.k12.mo.us,
36031501,bluecreek,MT,tarydistrict3652bluecreekrd,billings,59101  Phone: 406-259-0653,nan,bluecreekschool.org,618780
36031502,montanacity,MT,11mcclellancreekrd,clancy,59634,nan,mtcityschool.net,2619170
36031503,gildfordcolony,MT,box138,gildford,59525,nan,pcr3.k12.mo.us,
36031504,custer,MT,3044thavenue,custer,59024,nan,custerschools.org,3000019
36031505,nye,MT,1970nyeroad,nye,59061,nan,sd215.net,3200360
36031506,livingston,MT,7098thst.se,orangecity,nan,nan,livingston.k12.mt.us,1918840
36031507,pamlico,NC,507andersondrive.,bayboro,28515,nan,pamlicoschools.org,3703510
36031508,colbert,AL,200w.monroestreet,marion,nan,nan,colbertk12.org,100840
36031509,cedarrapidscommunity,IA,2500edgewoodrdnwcedar,rapids,52405,3195582000,crschools.us,1906540
36031510,santaanaunified,CA,1601eastchestnutavenuesantaanasanta,ana,92701-6322,7145585501,sausd.us,635310
36031511,alexandercity,AL,375leestreet,alexandercity,35010,2562348600,alexcityschools.net,100030
36031512,neworleans,LA,2401westbendparkwaynew,orleans,70114,5043045612,nolapublicschools.com,3700210
36031513,caldwell,ID,1200grantst.,caldwell,83605,2084553300,caldwellschools.org,1600510
36031514,"jcs,inc.",CA,1704capehornave,julian,92036,nan,jcs-inc.org,3009030
36031515,straffordr-vi,MO,12917countyroad344,sidney,nan,nan,straffordschools.net,2929640
36031516,unionelementary,AZ,3834s.91stave,tolleson,85353,6234785005,unionesd.org,609665
36031517,reichle,MT,6715schoolhouserd,glen,59732,4068352281,sites.google.com,
36031518,swedeborgr-iii,MO,535n.chestnutave,earlham,nan,nan,swedeborgpanthers.com,2929850
36031519,"realmscharter-ridgecrestelementaryacademyforlanguage,music,andscience",CA,325s.downsst,ridgecrest,93555,7603751010,rcrealms.org,601931
36031520,boazcity,AL,23761avenue56,ducor,nan,nan,boazk12.org,100012
36031521,postvillecommunity,IA,"314westpoststreet,pobox717",postville,52162,5638647651,postvilleschools.com,1923340
36031522,fortzumwalt,MO,555e.terralane,o'fallon,63366,6362402072,fz.k12.mo.us,2908370
36031523,harlancommunity,IA,2102durantstreet,harlan,51537,7127552152,harlan.k12.ia.us,1913500
36031524,twinridgeselementary,CA,16661oldmillrd.,nevadacity,95959,5302659052,twinridgeselementary.com,600012
36031525,yubaenvironmentalsciencecharteracademy,CA,9841texashillroadoregon,house,95962,5306922210,yescharteracademy.org,601574
36031526,ballard,CA,2425schoolst,solvang,93463,8056884812,ballardschool.org,603720
36031527,harrison,MT,box7harrison,chico,59735,nan,sites.google.com,601843
36031528,maynard,AR,74campusdr.,maynard,72444,8706473500,maynard.nesc.k12.ar.us,509570
36031529,fairfield,MT,221n.robinsonstreet,lenox,nan,nan,discoveryregional.org,
36031530,st.mariesjointno.41,ID,240s.11thstreetst.,maries,83861,2082452579,sd41.org,
36031531,redwoodempire'insurancegroup,CA,"5760skylaneblvd.,suite100",windsor,95492,7078360779,resig.org,102910
36031533,hydesvillee,CA,3050johnsonrd,hydesville,95547,7077683610,hydesvilleschool.org,3017370
36031534,ovando,MT,108birchst.,ovando,59854,nan,chinookschools.org,
36031535,evergreene,CA,3188quimbyroadsan,jose,95148,4082706800,eesd.org,1903960
36031536,dallas,AL,429lauderdalestreet,selma,36701,3348753440,dallask12.org,101110
36031537,ozarkcity,AL,860nushwy231,ozark,36360,nan,ozarkcityschools.net,102640
36031538,pleasantvalleyc,IA,525belmontroad,bettendorf,52722,5633325550,pleasval.org,1923110
36031539,buttevalleyunified,CA,615w.thirdst.,dorris,96023,5303974000,bvalusd.org,606580
36031540,kirkwoode,CA,2049kirkwoodrd,corning,96021,5308247773,kirkwoodschoolca.org,619860
36031541,empowercommunity,AL,751academydrive,bessemer,35022,2054138600,empoweral.org,103582
36031542,spencercommunity,IA,23east7thst,spencer,51301,7122628950,spencerschools.org,1914670
36031543,stratfordcommunity,IA,1000shakespeareave,stratford,50249,5158382208,stratford.k12.ia.us,1927480
36031544,southhamiltonc,IA,315divisionst,jewell,50130,5158275479,shhawks.net,614400
36031545,demopoliscity,AL,609southcedarave.,demopolis,36732,3342891670,dcsedu.com,101200
36031546,st.jamesparish,LA,pobox338,lutcher,70071,2252584500,stjames.k12.la.us,2201500
36031547,richardsr-v,MO,925broadstreet,grinnel,nan,nan,richardsschool.k12.mo.us,2926370
36031548,janesvilleunione,CA,464-555mainst.,janesville,96114,5302533551,janesvilleschool.org,
36031549,inlandlakes,MI,4363s.straitshwyindian,river,49749,2312386868,inlandlakes.org,2619170
36031550,phelpsco.r-iii,MO,101caseavenuesoutheast,attalla,nan,nan,pcr3.k12.mo.us,2925080
36031551,meridiantechnicalcharterhigh,ID,3800n.locustgrove,meridian,83646,nan,mtchs.org,1920040
36031552,fremontjoint#215,ID,1484woodlandhwybelle,chasse,nan,nan,sd215.net,
36031554,moc-floydvalleyc,IA,7098thst.se,orangecity,51041,7127374873,mocfv.org,1918840
36031555,moscowcharter,ID,1723eastf.street,moscow,83843,2088833195,moscowcharterschool.org,642930
36031557,greycliff,MT,301astreet,greycliff,59033,nan,centennialacademycharter.org,
36031559,perry,AL,200w.monroestreet,marion,36756,3346836528,perrycountyal.org,102670
36031560,developmentauthorityofthecityofmilledgeville,GA,"1601northcolumbiastreet,ste.200",milledgeville,31061,nan,developmilledgeville.com,
36031561,montanaforthedeafandblind,MT,3911centralavenuegreat,falls,59405,nan,msdbmustangs.org,600031
36031562,agar-blunt-onida58-3,SD,500s8thst,onida,57564,nan,abo.k12.sd.us,4600042
36031563,ashe,NC,320southst.,jefferson,256840,3362467175,asheschools.org,3700210
36031564,sliinherited,GA,,,nan,nan,eboardsolutions.com,2903200
36031565,dixon,MT,411bstreet,dixon,59831,nan,dixonschool.org,
36031566,brorson,MT,12917countyroad344,sidney,59270,nan,brorsonschool.com,
36031567,leggettvalleyunified,CA,"p.obox186,1schoolway",leggett,95585,nan,leggett.k12.ca.us,609665
36031568,lincoln,MT,box39,lincoln,nan,nan,sites.google.com,3000047
36031569,earlhamc,IA,535n.chestnutave,earlham,50072,5157582214,ecsdcards.com,601971
36031572,foothillsregionalhigh,GA,"2415jeffersonroad,suiteb",athens,30607,7063959775,foothillsrhs.org,640230
36031573,ducorunionelementary,CA,23761avenue56,ducor,93218,nan,ducorschool.com,611550
36031574,gilaprovisionalcommunitycollege,AZ,6355padrelane,missoula,nan,nan,gilaccc.org,3008880
36031575,calhoun,AL,4400mcclellanblvd.,anniston,36206,2567417400,calhouncountyschools.com,100540
36031576,gravese,CA,15mcfaddenroad,salinas,93908,8314226392,sites.google.com,604890
36031577,chualarunion,CA,"24285lincolnstreet,p.o.box188",chualar,93925,8316792313,chualarusd.com,608580
36031579,cambrian,CA,4115jacksoldr.san,jose,95124,4083772103,cambriansd.org,607140
36031580,st.maryparishboard,LA,474hwy.317,centerville,70522,3378369661,stmaryk12.net,
36031581,corebuttecharter,CA,2847notredameblvd.,chico,95928,5308094152,corebutte.org,601843
36031582,sliprm,GA,5120sugarloafparkway,lawrenceville,30043,nan,monumentacademy.net,
36031595,northeastcommunity,IA,1450370thave-pobox66goose,lake,52750,5635772249,northeastcsd.org,1921090
36031596,discoveryregionalhigh,GA,221n.robinsonstreet,lenox,31637,nan,discoveryregional.org,1914580
36031597,falconridgepubliccharter,ID,278southtenmileroad,kuna,83634,2089229228,falconridgecharter.com,1927390
36031598,russellvillecity,AL,1945waterlooroad,russellville,35653,2563312000,rcs.k12.al.us,102910
36031599,bearpaw,MT,29815clearcreekrd,chinook,59523,nan,fdschools.org,1911820
36031601,luther,MT,4lutherroscoeroad,luther,59068,nan,lutherschool.com,-1
36031602,chinook,MT,pobox1059,chinook,59523,nan,chinookschools.org,1903630
36031603,cleveland,MT,9785peoplescreekroad,chinook,59523,nan,delwood.k12.ia.us,1908880
36031604,audubonc,IA,800thirdave,audubon,50025,7125632607,audubon.k12.ia.us,1903960
36031605,terrellcharter,GA,"7611stavenuese,p.o.box151",dawson,39842,2299954425,terrell.k12.ga.us,1304860
36031606,midlandc,IA,"106westwebsterst.,p.o.box109",wyoming,52362,3192595340,midland.k12.ia.us,610290
36031607,"sau39-amherst,montvernon,souhegancooperatives",NH,1schoolstreet,amherst,03031,6036732690,sau39.org,100008
36031608,indianolacommunity,IA,1301e2ndave,indianola,50125,5159619500,indianola.k12.ia.us,613470
36031609,fulton,GA,6201powersferryroadnw,atlanta,30339,4702543600,fultonschools.org,1302280
36031610,clarkec,IA,701newst.,manchester,nan,nan,clarkecsd.org,1930900
36031611,interstate35c,IA,"405e.northstreet,pobox79",truro,50257,6417654291,roadrunnerpride.org,1914670
36031612,shepherd,MT,7842shepherdroad,shepherd,59079,nan,shepherd.k12.mt.us,2631380
36031613,fremontu,CA,4210technologydr.,fremont,94538,5106572350,fremontunified.org,2803360
36031614,culvercityu,CA,4034irvingplace,culvercity,90232,3108424220,ccusd.org,610260
36031615,bigoakflat-grovelandu,CA,19177statehighway120,groveland,95321,2099625765,bofg.org,1931830
36031616,grinnell-newburgc,IA,925broadstreet,grinnel,50112,6412362700,grinnell-k12.org,1904680
36031617,deercreek,MT,12countyroad564,glendive,59330,nan,bcsds.org,1905790
36031619,slater,MO,80s.2ndst.,calamus,nan,nan,slaterschools.net,2928360
36031620,underwoodc,IA,301southiowastreet,solon,nan,nan,underwoodschools.org,1926580
36031621,attallacity,AL,101caseavenuesoutheast,attalla,35954,2565388051,attalla.k12.al.us,100180
36031622,mt.vernon,IA,525palisadesroadswmount,vernon,52314,3198958845,mvcsd.org,1908910
36031623,plaqueminesparishboard,LA,1484woodlandhwybelle,chasse,70037,5045956400,ppsb.org,2623820
36031624,tripp-delmont,SD,105s.sloanstreet,tripp,57376,6059356766,tridel.k12.sd.us,1903360
36031625,wintersjointunified,CA,909w.grantave.,winters,95694,5307956100,wintersjusd.org,642930
36031626,centennialacademy,GA,531luckiestreetnw,atlanta,30313,4048028550,centennialacademycharter.org,1906750
36031627,southeastvalleyc,IA,1201nepoplarst,leon,nan,nan,southeastvalley.org,1906900
36031628,vernonparish,LA,201belviewroad,leesville,71446,3372393401,vpsb.us,2201830
36031629,bigsuru,CA,69325highway1big,sur,93920,8059274507,bigsurunified.org,1909570
36031630,hoovercity,AL,2810metropolitanway,hoover,35243,2054391000,hoovercityschools.net,100007
36031631,eaglegrovec,IA,325n.commercialeagle,grove,50533,5154484749,gmgschools.socs.net,1900060
36031632,marengo,AL,101northshiloh,linden,36748,3342954123,marengo.k12.al.us,102250
36031633,archier-v,MO,1406sw7thst.,atlantic,nan,nan,archie.k12.mo.us,2903200
36031634,hannibal,MO,10331stanfordave.garden,grove,nan,nan,hannibal60.com,614880
36031635,fruitland,ID,401iowaave.p.o.boxa,fruitland,83619,2084523595,fruitlandschools.org,1601140
36031636,hubbard-radcliffec,IA,200chestnut,hubbard,50122,6418642211,southhardin.k12.ia.us,1914310
36031637,eldora-newprovidencec,IA,1010edgingtonave.,eldora,50627,6419395631,southhardin.k12.ia.us,1910690
36031640,oaklandmilitaryinstitutecollegepreparatoryacademy,CA,3877luskstreet,oakland,94608,nan,oakmil.org,
36031641,twinhillsunione,CA,700watertroughrd,sebastopol,95472,7078230871,twinhillsusd.org,640230
36031642,first5california,CA,2389gatewayoaksdr.suite260,sacramento,95833,9162631050,ccfc.ca.gov,
36031643,desmet,MT,6355padrelane,missoula,59808,nan,desmetschool.org,3008880
36031644,lagunabeachu,CA,550blumontst.laguna,beach,92651,9494977700,lbusd.org,620370
36031645,biglagoonunione,CA,269biglagoonparkrd,trinidad,95570,707677368,biglagoon.org,
36031646,burntranche,CA,p.obox39burnt,ranch,95527,5306292543,bresd.org,606510
36031647,camanchec,IA,70213thavenue,camanche,52730,5632593000,camanche.k12.ia.us,1906060
36031648,douglascitye,CA,100schoolhouserd,douglascity,96024,5306236350,,611430
36031649,kootenaibridgeacademy,ID,637parkdrcoeur,d'alene,83814,2089304515,kootenaibridgeacademy.org,1600149
36031650,cuttene,CA,4182walnutdr.,eureka,95503,7074413900,cuttensd.org,610380
36031651,monumentacademy,CO,1150villageridgepoint,monument,80132,7194811950,monumentacademy.net,
36031652,maplecreeke,CA,15933maplecreekroute,korbel,95550,7076685596,maplecreekschool.org,623730
36031653,independencec,IA,12071ststw,independence,50644,3193347400,indeek12.org,1914580
36031654,springcreek,MT,1lakeshoredrive,decker,59025,nan,,
36031655,stormlakec,IA,419lakeavenuestorm,lake,50588,7127328060,slcsd.org,1927390
36031656,pickens,AL,377ladowcentercircle,carrollton,35447,2053672080,pickenscountyschools.net,102730
36031657,fortdodgecommunity,IA,109north25thstreetfort,dodge,50501,5155761161,fdschools.org,1911820
36031658,columbusc,IA,1208coltonstreetcolumbus,junction,52738,3197282911,columbus.k12.ia.us,
36031659,andrewcommunity,IA,13s.marionst.,andrew,52030,5636723221,andrew.k12.ia.us,1903630
36031660,delwoodc,IA,311delmarave,delmar,52037,5636744164,delwood.k12.ia.us,1908880
36031661,kircher,MT,331kirchercreekrdmilescity,,59301,nan,custercountymt.gov,
36031662,zurich,MT,265parkrd,zurich,59547,nan,,
36031663,whittierunionhigh,CA,9401s.painterave.,whittier,90605,5626988121,wuhsd.org,642480
36031664,cupertinounion,CA,10301vistadrive,cupertino,95014,4082523000,cusdk8.org,610290
36031665,madisoncity,AL,211celticdrive,madison,35758,2564648370,madisoncity.k12.al.us,100008
36031666,fallriverjointunified,CA,20375tamarackavenue,burney,96013,5303354538,frjusd.org,613470
36031667,newell-fondac,IA,205clarkstpobox297,newell,50568,7122723325,newell-fonda.k12.ia.us,
36031668,westdelawarec,IA,701newst.,manchester,52057,56392735154,w-delaware.k12.ia.us,
36031669,mountainburg,AR,,,nan,nan,mountainburg.org,510260
36031673,mississippiboardsassociation,MS,380zurichdrive,ridgeland,39157,nan,msbaonline.org,
36031676,aberdeen,MS,,,nan,nan,,2800360
36031677,alcorn,MS,,,nan,nan,,2800390
36031678,amite,MS,,,nan,nan,,2800420
36031679,amory,MS,,,nan,nan,,2800450
36031680,attala,MS,,,nan,nan,,
36031681,baldwyn,MS,,,nan,nan,,2800540
36031682,baystlouiswaveland,MS,,,nan,nan,,2800570
36031683,benton,MS,,,nan,nan,,
36031684,biloxipublic,MS,,,nan,nan,,2800630
36031685,booneville,MS,,,nan,nan,,2800820
36031686,brookhaven,MS,,,nan,nan,,2800840
36031687,calhoun,MS,,,nan,nan,,
36031688,cantonpublic,MS,,,nan,nan,,2800900
36031689,carroll,MS,,,nan,nan,,2800930
36031690,chickasaw,MS,,,nan,nan,,
36031691,choctaw,MS,,,nan,nan,,100690
36031692,claiborne,MS,,,nan,nan,,4700630
36031693,clarkalemunicipal,MS,,,nan,nan,,2801050
36031694,cleveland,MS,,,nan,nan,,2800750
36031695,clintonpublic,MS,,,nan,nan,,2801090
36031696,coahoma,MS,,,nan,nan,,2801110
36031697,columbia,MS,,,nan,nan,,2801170
36031698,columbusmunicipal,MS,,,nan,nan,,2801200
36031699,copiah,MS,,,nan,nan,,
36031700,covington,MS,,,nan,nan,,2801290
36031701,desoto,MS,,,nan,nan,,
36031702,eastjasperconsolidated,MS,,,nan,nan,,
36031703,easttallahatchieconsolidated,MS,,,nan,nan,,
36031704,enterprise,MS,,,nan,nan,,2801440
36031705,forestmunicipal,MS,,,nan,nan,,2801470
36031706,forrestaghigh,MS,,,nan,nan,,2801510
36031707,forrest,MS,,,nan,nan,,2801490
36031708,franklin,MS,,,nan,nan,,
36031709,george,MS,,,nan,nan,,
36031710,greene,MS,,,nan,nan,,2801590
36031711,greenvillepublic,MS,,,nan,nan,,
36031712,greenwood-lefloreconsolidated,MS,,,nan,nan,,
36031713,grenada,MS,,,nan,nan,,2801680
36031714,hancock,MS,,,nan,nan,,
36031715,harrison,MS,,,nan,nan,,
36031716,hattiesburgpublic,MS,,,nan,nan,,2801800
36031717,hazlehurstcity,MS,,,nan,nan,,2801830
36031718,hinds,MS,,,nan,nan,,
36031719,hollandale,MS,,,nan,nan,,2801890
36031720,hollysprings,MS,,,nan,nan,,2801950
36031721,holmesconsolidated,MS,,,nan,nan,,2800195
36031722,humphreys,MS,,,nan,nan,,4701980
36031723,itawamba,MS,,,nan,nan,,2802100
36031724,jackson,MS,,,nan,nan,,
36031725,jacksonpublic,MS,,,nan,nan,,2802190
36031726,jefferson,MS,,,nan,nan,,
36031727,jeffersondavis,MS,,,nan,nan,,
36031728,jones,MS,,,nan,nan,,
36031729,kemper,MS,,,nan,nan,,
36031730,kosciusko,MS,,,nan,nan,,2802340
36031731,lafayette,MS,,,nan,nan,,
36031732,lamar,MS,,,nan,nan,,2802400
36031733,lauderdale,MS,,,nan,nan,,
36031734,laurel,MS,,,nan,nan,,2802460
36031735,lawrence,MS,,,nan,nan,,
36031736,leake,MS,,,nan,nan,,
36031737,lee,MS,,,nan,nan,,2802550
36031738,leland,MS,,,nan,nan,,2802610
36031739,lincoln,MS,,,nan,nan,,2802640
36031740,longbeach,MS,,,nan,nan,,2802670
36031741,louisvillemunicipal,MS,,,nan,nan,,2802700
36031742,lowndes,MS,,,nan,nan,,
36031743,madison,MS,,,nan,nan,,
36031744,marion,MS,,,nan,nan,,
36031745,marshall,MS,,,nan,nan,,
36031746,mccomb,MS,,,nan,nan,,2802880
36031747,meridianpublic,MS,,,nan,nan,,
36031748,monroe,MS,,,nan,nan,,
36031749,mosspointseparate,MS,,,nan,nan,,2803000
36031750,natchez-adams,MS,,,nan,nan,,2803030
36031751,neshoba,MS,,,nan,nan,,2803060
36031752,nettleton,MS,,,nan,nan,,2803090
36031753,newalbanypublic,MS,,,nan,nan,,
36031754,newtonmunicipal,MS,,,nan,nan,,2803180
36031755,newton,MS,,,nan,nan,,2803150
36031756,northbolivarconsolidated,AL,,,nan,nan,,
36031757,northpanola,MS,,,nan,nan,,2803210
36031758,northpike,MS,,,nan,nan,,2803240
36031759,northtippah,MS,,,nan,nan,,2803270
36031760,noxubee,MS,,,nan,nan,,2803300
36031761,oceansprings,MS,1018porteravenueocean,springs,39564,2288754236,ossdms.org,2803360
36031762,okolonaseparate,MS,,,nan,nan,,2803390
36031763,oxford,MS,,,nan,nan,,2803450
36031764,pascagoula-gautier,MS,,,nan,nan,,2803480
36031765,passchristianpublic,MS,,,nan,nan,,2803510
36031766,pearlpublic,MS,,,nan,nan,,2803520
36031767,pearlriver,MS,,,nan,nan,,
36031768,perry,MS,,,nan,nan,,
36031769,petal,MS,,,nan,nan,,2803530
36031770,philadelphiapublic,MS,,,nan,nan,,2803600
36031771,magnolia,MS,380zurichdrive,ridgeland,39157,6019242001,msbaonline.org,
36031772,picayune,MS,,,nan,nan,,2803630
36031773,pontotoccity,MS,,,nan,nan,,2803690
36031774,pontotoc,MS,,,nan,nan,,
36031775,poplarvilleseparate,MS,,,nan,nan,,2803720
36031776,prentiss,MS,,,nan,nan,,
36031777,quitman,MS,,,nan,nan,,2803780
36031778,quitman,MS,,,nan,nan,,2803780
36031779,rankin,MS,,,nan,nan,,
36031780,richton,MS,,,nan,nan,,2803870
36031781,scott,MS,,,nan,nan,,
36031782,senatobiamunicipal,MS,,,nan,nan,,2803930
36031783,simpson,MS,,,nan,nan,,2105400
36031784,smith,MS,,,nan,nan,,4703870
36031785,southdelta,MS,,,nan,nan,,2803960
36031786,southpanola,MS,,,nan,nan,,2804050
36031787,southpike,MS,,,nan,nan,,2804080
36031788,southtippah,MS,,,nan,nan,,2804110
36031789,starkville-oktibbehaconsolidated,MS,,,nan,nan,,
36031790,stone,MS,,,nan,nan,,
36031791,sunflowerconsolidated,MS,,,nan,nan,,
36031792,tate,MS,,,nan,nan,,
36031793,tishomingo,MS,,,nan,nan,,4030060
36031794,tunica,MS,,,nan,nan,,2804290
36031795,tupelopublic,MS,,,nan,nan,,2804320
36031796,unionpublic,MS,,,nan,nan,,2804380
36031797,union,MS,,,nan,nan,,
36031798,vicksburgwarren,MS,,,nan,nan,,2804470
36031799,walthall,MS,,,nan,nan,,
36031800,watervalley,MS,,,nan,nan,,2804500
36031801,wayne,MS,,,nan,nan,,
36031802,webster,MS,,,nan,nan,,
36031804,westbolivarconsolidated,MS,,,nan,nan,,
36031805,westpointconsolidated,MS,,,nan,nan,,2800191
36031806,westtallahatchie,MS,,,nan,nan,,2804650
36031807,westernline,MS,,,nan,nan,,2804680
36031808,wilkinson,MS,,,nan,nan,,1305790
36031809,winona-montgomeryconsolidated,MS,,,nan,nan,,2800196
36031810,yazoocitymunicipal,MS,,,nan,nan,,2804770
36031811,yazoo,MS,,,nan,nan,,
36031812,oakparku,CA,,,nan,nan,,
36031813,coffeeville,MS,,,nan,nan,,2801140
36031814,winfield-mt.unionc,IA,208southolivestreet,winfield,52659,3192577700,wmucsd.org,1931830
36031815,belmond-klemmec,IA,303eastmain,belmond,50421,6414444300,bkcsd.org,1904680
36031816,burlingtoncommunity,IA,1429westave.,burlington,52601,3197536791,bcsds.org,1905790
36031817,calamuswheatlandcommunity,IA,80s.2ndst.,calamus,52729,5632462222,cal-wheat.k12.ia.us,
36031818,soloncommunity,IA,301southiowastreet,solon,52333,3196243401,solon.k12.ia.us,1926580
36031819,woodburycentralc,IA,408s4thst.,moville,51039,7128733128,woodbury-central.k12.ia.us,1931950
36031820,denisoncommunity,IA,819monarchdrive,denison,51442,7122632176,denison.k12.ia.us,1908910
36031821,midland,MI,600ecarpenterst,midland,48640,9899235001,midlandps.org,2623820
36031822,algonac,IA,600southhalestreet,algona,50511,5152953528,algona.k12.ia.us,1903360
36031823,george-littlerock,IA,"communityschools309slincolnstreet,suite1",george,51237,7124753311,george-littlerock.org,1912480
36031824,centervillec,IA,634northmain,centerville,52544,6418560601,centervilleschools.org,1906750
36031825,centraldecaturc,IA,1201nepoplarst,leon,50144,nan,centraldecatur.org,1906900
36031826,bedfordcommunity,IA,906pennsylvaniastreet,bedford,50833,7125232656,bedford.k12.ia.us,1904560
36031827,boyervalleyc,IA,1102iowaave,dunlap,51529,7126432258,boyervalley.org,1909570
36031828,sequoiaunionelementary,CA,23958ave.324lemon,cove,93244,5595642106,sequoiaunion.org,636360
36031829,gmgc,IA,1710wallaceavenuegreen,mountain,50632,6414742254,gmgschools.socs.net,1900060
36031830,glenwoodc,IA,103centralstreet,glenwood,51534,7125279034,glenwoodschools.org,1912690
36031831,atlanticcommunity,IA,1406sw7thst.,atlantic,50022,nan,atlanticiaschools.org,
36031832,gardengroveu,CA,10331stanfordave.garden,grove,92840,7146636000,ggusd.us,614880
